SCHOOL_NAME,SCHOOL_TYPE,SCHOOL_ADDRESS_ONE,CITY,COUNTY,ZIP_CODE,HAS_NURSE,NURSE_TYPE,ENROLLED,PCT_IMMUNE_DTAP,PCT_EXEMPT_DTAP,PCT_COMPLIANCE_DTAP,PCT_IMMUNE_POLIO,PCT_EXEMPT_POLIO,PCT_COMPLIANCE_POLIO,PCT_IMMUNE_MMR,PCT_EXEMPT_MMR,PCT_COMPLIANCE_MMR,PCT_IMMUNE_HEPB,PCT_EXEMPT_HEPB,PCT_COMPLIANCE_HEPB,PCT_IMMUNE_VAR,PCT_EXEMPT_VAR,PCT_COMPLIANCE_VAR,PCT_PBE,PCT_MEDICAL_EXEMPT,PCT_PBE_EXEMPT_ALL
A.j.mitchell,public,855 N Bautista St,Nogales,Santa Cruz,85621-,N/A,,58,100,0,100,100,0,100,100,0,100,100,0,100,98.3,1.7,100,0,1.7,N/A
Abia Judd Elementary School,public,1749 Williamson Valley Rd.,Prescott,Yavapai,86305-,N/A,,67,91,9,100,91,9,100,88.1,11.9,100,91,9,100,95.5,4.5,100,13.4,0,N/A
Abraham Lincoln,charter,10444 N 39th Ave,Phoenix,Maricopa,85051-,N/A,,84,94,6,100,95.2,4.8,100,94,6,100,97.6,2.4,100,100,0,100,8.3,0,N/A
Acacia Elementary,charter,12955 E. Colossal Cave Road,Vail,Pima,85641-,N/A,,98,94.9,5.1,100,94.9,5.1,100,93.9,6.1,100,94.9,5.1,100,94.9,5.1,100,5.1,1,N/A
Acacia Elementary School,public,3021 W. Evans Dr.,Phoenix,Maricopa,85053-5748,N/A,,130,96.2,2.3,98,96.2,2.3,98,96.9,2.3,99,98.5,1.5,100,100,0,100,2.3,0,N/A
Academia del Pueblo,charter,113 W. Sherman,Phoenix,Maricopa,85003,N/A,,56,82.1,0,82,85.7,0,86,85.7,0,86,94.6,0,95,89.3,0,89,0,0,N/A
Academy Del Sol,charter,7102 W. Valley Crest Place,Tucson,Pima,85757-,N/A,,21,81,0,81,95.2,0,95,100,0,100,100,0,100,100,0,100,0,0,N/A
Academy Del Sol - Hope,charter,7102 W. Valley Crest Place,Tucson,Pima,85757-,N/A,,87,77,0,77,89.7,0,90,92,0,92,94.3,0,94,83.9,0,84,0,0,N/A
Academy Of Math And Science,charter,1557 W Prince Rd.,Tucson,Pima,85705-,N/A,,68,97.1,2.9,100,97.1,2.9,100,97.1,2.9,100,97.1,2.9,100,97.1,2.9,100,2.9,0,N/A
Academy Of Math And Science,charter,3335 W. Flower St,Phoenix,Maricopa,85017-,N/A,,47,97.9,2.1,100,100,0,100,100,0,100,100,0,100,100,0,100,2.1,0,N/A
Academy Of Tucson Elementary School,charter,9209 E. Wrightstown Rd.,Tucson,Pima,85715-,N/A,,59,93.2,6.8,100,93.2,6.8,100,93.2,6.8,100,93.2,6.8,100,93.2,6.8,100,8.5,0,N/A
Accelerated Learning Laboratory,charter,5245 N. Camino De Oeste,Tucson,Pima,85745-,N/A,,21,95.2,4.8,100,95.2,4.8,100,95.2,4.8,100,95.2,4.8,100,95.2,4.8,100,4.8,0,N/A
Acclaim Academy,charter,7624 W. Indian School Rd,Phoenix,Maricopa,85033-,N/A,,44,100,0,100,100,0,100,97.7,0,98,95.5,0,95,93.2,0,93,0,0,N/A
Acornmontessori Charter School,charter,7555 E Long Look Dr,Prescott Valley,Yavapai,86314-,N/A,,69,85.5,14.5,100,85.5,14.5,100,81.2,18.8,100,87,13,100,84.1,15.9,100,20.3,0,N/A
Adam's Traditional Academ,charter,2323 W. Parkside Lane,Phoenix,Maricopa,85027-,N/A,,128,85.9,14.1,100,85.9,14.1,100,85.9,14.1,100,85.9,14.1,100,85.9,14.1,100,10.2,3.9,N/A
Adams Elementary School,public,738 S Longmore,Mesa,Maricopa,85202-,N/A,,131,95.4,4.6,100,96.9,3.1,100,96.9,3.1,100,97.7,2.3,100,100,0,100,3.8,.8,N/A
Adventure School,charter,5757 E. Pima St.,Tucson,Pima,85712-,N/A,,22,86.4,13.6,100,86.4,13.6,100,86.4,13.6,100,86.4,13.6,100,86.4,13.6,100,13.6,0,N/A
Agua Caliente Elementary School,public,11420 E Limberlost,Tucson,Pima,85749-,N/A,,65,90.8,9.2,100,92.3,7.7,100,90.8,9.2,100,92.3,7.7,100,98.5,1.5,100,7.7,1.5,N/A
Aguilar School,public,5800 S. Forest Ave,Tempe,Maricopa,85283-,N/A,,96,95.8,4.2,100,95.8,4.2,100,94.8,4.2,99,95.8,4.2,100,100,0,100,4.2,0,N/A
Aire Libre Elementary School,public,16428 N 21st Street,Phoenix,Maricopa,85022-5405,N/A,,49,93.9,4.1,98,91.8,4.1,96,93.9,4.1,98,95.9,4.1,100,100,0,100,4.1,0,N/A
Ajo Elementary School,public,111 Well Rd,Ajo,Pima,85321-,N/A,,32,93.8,3.1,97,87.5,3.1,91,81.3,3.1,84,93.8,3.1,97,96.9,3.1,100,3.1,0,N/A
Ala San Tan,charter,34696 N. Village Lane,San Tan Valley,Pinal,85142-____,N/A,,105,81.9,18.1,100,84.8,15.2,100,81.9,18.1,100,83.8,16.2,100,84.8,15.2,100,19,0,N/A
Alfred F Garcia School,public,1441 S. 27th Ave,Phoenix,Maricopa,85009-,N/A,,57,100,0,100,100,0,100,100,0,100,100,0,100,100,0,100,0,0,N/A
Alhambra Traditional,public,3736 W Osborn Rd,Phoenix,Maricopa,85019-,N/A,,100,93,7,100,95,5,100,93,7,100,94,6,100,100,0,100,7,0,N/A
Alice Byrne Elementary,public,811 W. 16th Street,Yuma,Yuma,85364-,N/A,,68,98.5,1.5,100,98.5,1.5,100,98.5,1.5,100,98.5,1.5,100,98.5,1.5,100,2.9,0,N/A
All Aboard Charter,charter,5827 N. 35th Ave,Phoenix,Maricopa,85017-,N/A,,21,100,0,100,100,0,100,100,0,100,100,0,100,100,0,100,0,0,N/A
All Saints' Episcopal Day School,private,6300 North Central Avenue,Phoenix,Maricopa,85012-,N/A,,37,91.9,8.1,100,94.6,5.4,100,94.6,5.4,100,91.9,8.1,100,94.6,5.4,100,10.8,0,N/A
Alta E Butler School,public,3843 W Roosevelt S,Phoenix,Maricopa,85009-____,N/A,,131,90.1,0,90,93.9,0,94,97.7,0,98,98.5,0,98,100,0,100,0,0,N/A
Alta Loma Elementary School,public,9750 N. 87th Ave.,Peoria,Maricopa,85345-,N/A,,87,96.6,2.3,99,96.6,2.3,99,96.6,2.3,99,97.7,2.3,100,96.6,2.3,99,1.1,1.1,N/A
Alta Vista Elementary,public,8710 N. 31st Avenue,Phoenix,Maricopa,85051-,N/A,,88,92,2.3,94,95.5,2.3,98,98.9,1.1,100,96.6,2.3,99,98.9,1.1,100,3.4,1.1,N/A
Amberlea Elementary,public,8544 W. Virginia Ave.,Phoenix,Maricopa,85037-,N/A,,56,100,0,100,100,0,100,100,0,100,100,0,100,100,0,100,0,0,N/A
Amcs At Anthem Dba Caurus Academy,charter,41900 N 42nd Ave,Anthem,Maricopa,85086-,N/A,,23,82.6,13,96,87,13,100,82.6,17.4,100,82.6,13,96,87,13,100,17.4,0,N/A
American Leadership Academy - Gilbert,charter,3155 S. San Tan Village ,Gilbert,Maricopa,85295-0857,N/A,,110,74.5,25.5,100,73.6,26.4,100,72.7,26.4,99,74.5,25.5,100,76.4,23.6,100,33.6,.9,N/A
American Leadership Academy - Queen Creek,charter,19843 E Chandler Heights Rd,Queen Creek,Maricopa,85142-,N/A,,82,85.4,14.6,100,85.4,14.6,100,84.1,15.9,100,89,11,100,91.5,8.5,100,19.5,1.2,N/A
American Leadership Academy Mesa,charter,4507 S. Mountain Rd.,Mesa,Maricopa,85212-,N/A,,73,84.9,15.1,100,87.7,11,99,82.2,12.3,95,87.7,11,99,83.6,12.3,96,16.4,2.7,N/A
American Leadership Academy- Anthem South Campus,charter,4380 N Hunt Hwy,Florence ,Pinal,85132-,N/A,,60,83.3,15,98,85,15,100,85,15,100,83.3,15,98,88.3,10,98,15,0,N/A
Amerischools,charter,2098 S 3rd Ave,Yuma,Yuma,85364-,N/A,,49,95.9,4.1,100,95.9,4.1,100,89.8,4.1,94,100,0,100,100,0,100,4.1,0,N/A
Amerischools Academy North,charter,1220 S. 4th Avenue,Yuma,Yuma,85364-,N/A,,45,93.3,6.7,100,93.3,6.7,100,95.6,4.4,100,97.8,0,98,97.8,2.2,100,6.7,0,N/A
Amerischools Academy Tucson,charter,1150 N. Country Club,Tucson,Pima,85716-,N/A,,22,95.5,0,95,95.5,0,95,95.5,0,95,100,0,100,95.5,0,95,0,0,N/A
Anasazi Elementary,public,12121 N. 124th St.,Scottsdale,Maricopa,85259-,N/A,,86,88.4,10.5,99,91.9,8.1,100,93,7,100,90.7,9.3,100,87.2,10.5,98,18.6,0,N/A
Andersen Elementary,public,1350 N. Pennington,Chandler,Maricopa,85224-,N/A,,96,95.8,4.2,100,95.8,4.2,100,95.8,4.2,100,95.8,4.2,100,97.9,2.1,100,4.2,0,N/A
Anna Marie Jacobson Elementary School,public,1515 Nw Jacaranda Pkwy,Chandler,Maricopa,85248-,N/A,,95,96.8,3.2,100,95.8,4.2,100,95.8,4.2,100,95.8,4.2,100,95.8,4.2,100,4.2,2.1,N/A
Annie Kellond Elementary School,public,6606 E. Lehigh,Tucson,Pima,85710-,N/A,,74,94.6,4.1,99,94.6,4.1,99,95.9,4.1,100,98.6,1.4,100,98.6,1.4,100,4.1,0,N/A
Annunciation Catholic School,private,32648 N Cave Creek Road,Cave Creek,Maricopa,85331-,N/A,,21,90.5,9.5,100,90.5,9.5,100,90.5,9.5,100,90.5,9.5,100,85.7,14.3,100,14.3,0,N/A
Anthem K-8,public,2700 N. Anthem Way,Florence,Pinal,85132-,N/A,,68,95.6,4.4,100,97.1,2.9,100,95.6,4.4,100,97.1,2.9,100,97.1,2.9,100,4.4,0,N/A
Anthem Preparatory Academy,charter,39808 N Gavilan Peak Parkway,Anthem,Maricopa,85086-,N/A,,57,86,12.3,98,87.7,10.5,98,87.7,12.3,100,89.5,7,96,94.7,5.3,100,14,0,N/A
Anthem School,public,41020 N. E Freedom Way,Anthem,Maricopa,85086-,N/A,,64,92.2,4.7,97,96.9,3.1,100,92.2,6.3,98,90.6,7.8,98,96.9,3.1,100,7.8,0,N/A
Anza Trail School,public,15490 S. Rancho Sahuarita Blvd,Sahuarita,Pima,85629-9000,N/A,,96,94.8,4.2,99,93.8,3.1,97,92.7,3.1,96,95.8,3.1,99,95.8,3.1,99,3.1,0,N/A
Apache,public,8633 W. John Cabot Rd.,Peoria,Maricopa,85382-,N/A,,66,89.4,10.6,100,89.4,10.6,100,89.4,10.6,100,89.4,10.6,100,100,0,100,1.5,3,N/A
Arcadia Neighborhood Learning Center,public,4330 North 62nd Street,Scottsdale,Maricopa,85251-,N/A,,38,81.6,15.8,97,84.2,13.2,97,81.6,15.8,97,86.8,13.2,100,86.8,13.2,100,15.8,0,N/A
Archway Classical Academy Cicero ,charter,7205 N. Pima Road,Scottsdale,Maricopa,85258-,N/A,,89,89.9,10.1,100,89.9,10.1,100,88.8,11.2,100,91,9,100,94.4,5.6,100,12.4,0,N/A
Archway Classical Academy Glendale,charter,23276 N. 83rd Ave,Peoria,Maricopa,85383-,N/A,,90,92.2,7.8,100,92.2,7.8,100,91.1,8.9,100,92.2,7.8,100,94.4,5.6,100,8.9,0,N/A
Archway Classical Academy Veritas,charter,3102 N. 56th Street,Phoenix,Maricopa,85018-,N/A,,81,96.3,3.7,100,96.3,3.7,100,95.1,4.9,100,95.1,4.9,100,95.1,4.9,100,7.4,1.2,N/A
Archway North Phoenix,charter,13613 N. Cave Creek Rd,Phoenix,Maricopa,85022-,N/A,,87,92,8,100,90.8,9.2,100,87.4,12.6,100,92,8,100,93.1,0,93,13.8,0,N/A
Arete Preparatory Academy,charter,4525 E. Baseline Rd.,Gilbert,Maricopa,85234-,N/A,,85,88.2,11.8,100,88.2,11.8,100,87.1,12.9,100,90.6,9.4,100,90.6,9.4,100,15.3,0,N/A
Arizona Charter Academy,charter,16011 N. Dysart Road,Surprise,Maricopa,85374-,N/A,,74,95.9,0,96,95.9,0,96,95.9,0,96,100,0,100,100,0,100,0,0,N/A
Arizona City Elem,charter,3315 N Toltec Rd ,Eloy,Pinal,85131-,N/A,,72,100,0,100,98.6,0,99,98.6,0,99,100,0,100,100,0,100,1.4,0,N/A
Arizona Connections Academy,charter,335 E. Germann Rd.  Suite 140,Gilbert,Maricopa,85297-,N/A,,75,70.7,29.3,100,70.7,29.3,100,65.3,34.7,100,70.7,29.3,100,70.7,29.3,100,36,0,N/A
Arizona Cultural Academy & College Prep,private,7810 S 42nd Place,Phoenix,Maricopa,85042-,N/A,,33,97,3,100,97,3,100,97,3,100,97,3,100,97,3,100,3,0,N/A
Arizona Desert Elementary School,public,8803 W Van Buren St,Tolleson,Maricopa,85353-,N/A,,77,98.7,1.3,100,97.4,0,97,97.4,1.3,99,97.4,0,97,98.7,0,99,2.6,0,N/A
Arlington Elementary,public,P.o. Box 39,Arlington,Maricopa,85322-,N/A,,23,100,0,100,100,0,100,100,0,100,100,0,100,100,0,100,0,0,N/A
Arozona Desert Elementary School,public,P.o. Box 6870,San Luis,Yuma,85349-,N/A,,91,100,0,100,100,0,100,100,0,100,100,0,100,100,0,100,0,0,N/A
Arredondo Elementary School,public,1330 E Carson Dr,Tempe,Maricopa,85282-,N/A,,51,96.1,0,96,98,0,98,96.1,0,96,100,0,100,100,0,100,0,0,N/A
Arrowhead Elementary School,public,3820 E. Nisbet Rd.,Phoenix,Maricopa,85032-,N/A,,68,83.8,7.4,91,83.8,7.4,91,86.8,7.4,94,92.6,4.4,97,92.6,5.9,99,7.4,0,N/A
Arrowhead Elementary School,public,7490 W. Union Hills,Glendale,Maricopa,85308-,N/A,,94,96.8,3.2,100,96.8,3.2,100,96.8,3.2,100,96.8,3.2,100,97.9,2.1,100,3.2,0,N/A
Arroyo School,public,4535 W Cholla,Glendale,Maricopa,85304-,N/A,,69,97.1,2.9,100,97.1,2.9,100,97.1,2.9,100,98.6,1.4,100,100,0,100,2.9,0,N/A
Arthur M. Hamilton,public,2020 W. Durango Street,Phoenix,Maricopa,85009-,N/A,,25,100,0,100,100,0,100,100,0,100,100,0,100,100,0,100,0,0,N/A
Arts Academy @ Estrella Mountain,charter,2504 S. 91st Ave,Tolleson,Maricopa,85353-,N/A,,114,92.1,1.8,94,93.9,1.8,96,93,1.8,95,95.6,1.8,97,100,0,100,1.8,0,N/A
Ashland Elementary,public,1945 S. Ashland Ranch,Gilbert,Maricopa,85295-,N/A,,85,96.5,3.5,100,97.6,2.4,100,95.3,4.7,100,96.5,3.5,100,97.6,2.4,100,2.4,2.4,N/A
Ashton Ranch Elementary School,public,14898 West Acoma Drive,Surprise,Maricopa,85379-,N/A,,85,96.5,2.4,99,96.5,2.4,99,96.5,2.4,99,96.5,2.4,99,97.6,2.4,100,2.4,0,N/A
Asu Preparatory Academy,charter,735 East Filmore St,Phoenix,Maricopa,85006-,N/A,,74,100,0,100,100,0,100,100,0,100,100,0,100,100,0,100,0,0,N/A
Asu Preparatory Academy Polytechnic Elementary,charter,6950 E. Williams Field Rd.,Mesa,Maricopa,85212-,N/A,,74,98.6,1.4,100,98.6,1.4,100,98.6,1.4,100,98.6,1.4,100,98.6,1.4,100,1.4,0,N/A
Audrey & Robert Ryan Elementary,public,4600 S Bright Angel Way,Chandler,Maricopa,85249-,N/A,,98,93.9,6.1,100,93.9,6.1,100,90.8,9.2,100,92.9,7.1,100,96.9,3.1,100,11.2,0,N/A
Augusta Ranch Elementary,public,9430 East Neville Avenue,Mesa,Maricopa,85209-,N/A,,140,96.4,3.6,100,95.7,4.3,100,96.4,3.6,100,95.7,4.3,100,96.4,3.6,100,3.6,0,N/A
Augustus H Shaw Jr School,public,123 North 13th St,Phoenix,Maricopa,85034-,N/A,,32,100,0,100,100,0,100,100,0,100,100,0,100,100,0,100,0,0,N/A
Avalon Elementary,charter,1045 S. San Marcos,Apache Junction,Pinal,85120-,N/A,,41,80.5,19.5,100,85.4,14.6,100,82.9,17.1,100,87.8,12.2,100,87.8,12.2,100,24.4,2.4,N/A
Bagdad Elementary School,public,515 Breezy Circle,Bagdad,Yavapai,86323-,N/A,,45,91.1,4.4,96,93.3,4.4,98,91.1,8.9,100,97.8,2.2,100,95.6,4.4,100,8.9,0,N/A
Bales Elementary School,public,25400 W. Maricopa Rd,Buckeye,Maricopa,85326-,N/A,,99,96,4,100,96,4,100,96,4,100,96,4,100,96,4,100,4,0,N/A
Balsz Elementry School,public,4309 E. Belleview,Phoenix,Maricopa,85008-,N/A,,80,100,0,100,100,0,100,100,0,100,100,0,100,100,0,100,0,0,N/A
Banks Elementary,public,3200 S Lead Flower,Tucson,Pima,85735-,N/A,,47,95.7,2.1,98,97.9,2.1,100,95.7,2.1,98,95.7,2.1,98,97.9,2.1,100,2.1,0,N/A
Barbara B. Robey Elementary School,public,5340 Wigwam Creek Blvd,Litchfield Park,Maricopa,85340-,N/A,,118,97.5,2.5,100,97.5,2.5,100,97.5,2.5,100,97.5,2.5,100,97.5,2.5,100,2.5,0,N/A
Basha Elementary ,public,3535 S. Basha Road,Chandler ,Maricopa,85248-,N/A,,105,97.1,2.9,100,97.1,2.9,100,96.2,3.8,100,97.1,2.9,100,97.1,2.9,100,3.8,0,N/A
Basis Oro Valley,charter,11155 N. Oracle Rd,Oro Valley,Pima,85137-,N/A,,103,96.1,3.9,100,96.1,3.9,100,95.1,4.9,100,95.1,4.9,100,96.1,3.9,100,6.8,0,N/A
Basis Phoenix Central,charter,201 E. Indianola Ave,Phoenix,Maricopa,85012-,N/A,,157,89.8,10.2,100,91.1,8.9,100,89.8,10.2,100,90.4,9.6,100,90.4,9.6,100,12.7,0,N/A
Basis Tucson,charter,3825 E Second Street,Tucson,Pima,85716-,N/A,,127,96.1,3.9,100,96.1,3.9,100,96.1,3.9,100,95.3,4.7,100,96.1,3.9,100,3.9,.8,N/A
Beaver Creek School,public,4810 East Beaver Creek Road,Rimrock,Yavapai,86335-,N/A,,28,82.1,0,82,82.1,0,82,82.1,0,82,100,0,100,100,0,100,0,0,N/A
Beaver Dam Elementary School,public,P O Box 730,Beaver Dam,Mohave,86432-,N/A,,21,100,0,100,95.2,0,95,90.5,0,90,100,0,100,100,0,100,0,0,N/A
Bella Vista Elementary School,public,801 N. Lenzner,Sierra Vista,Cochise,85635-,N/A,,92,96.7,0,97,98.9,0,99,98.9,0,99,96.7,0,97,100,0,100,0,0,N/A
Bellair Elementary,public,4701 W Grovers,Glendale,Maricopa,85308-,N/A,,67,77.6,4.5,82,86.6,3,90,88.1,3,91,94,1.5,96,92.5,3,96,3,0,N/A
Benchmark School,charter,4120 E. Acoma Dr.,Phoenix,Maricopa,85032,N/A,,65,87.7,7.7,95,90.8,9.2,100,87.7,9.2,97,89.2,9.2,98,90.8,9.2,100,9.2,0,N/A
Benjamin Franklin Charter School - Gilbert Campus,charter,1475 So. Val Vista,Gilbert,Maricopa,85296-,N/A,,91,89,11,100,90.1,9.9,100,89,11,100,92.3,7.7,100,93.4,6.6,100,13.2,0,N/A
Benjamin Franklin Charter School - Power Campus,charter,22951 S Power Rd,Queen Creek,Maricopa,85142-,N/A,,116,75.9,24.1,100,76.7,23.3,100,77.6,22.4,100,80.2,19.8,100,82.8,17.2,100,27.6,.9,N/A
Benjamin Franklin Charter School - Queen Creek Campus,charter,22120 E Queen Creek Rd,Queen Creek,Maricopa,85142-,N/A,,113,79.6,20.4,100,80.5,19.5,100,79.6,20.4,100,86.7,13.3,100,85,15,100,22.1,0,N/A
Bennett Academy,charter,2930 W Bethany Home Rd,Phoenix,Maricopa,85017-,N/A,,23,100,0,100,100,0,100,95.7,0,96,95.7,0,96,100,0,100,0,0,N/A
Benson Primary School,public,360 S Patagonia St.,Benson,Cochise,85602-,N/A,,94,95.7,3.2,99,95.7,3.2,99,94.7,3.2,98,96.8,3.2,100,95.7,4.3,100,4.3,0,N/A
Berean Academy,charter,1169 N. Colombo Avenue,Sierra Vista,Cochise,85635-,N/A,,31,96.8,0,97,93.5,0,94,80.6,0,81,87.1,0,87,67.7,0,68,0,0,N/A
Bernard Black,public,6550 S 27th Ave,Phoenix,Maricopa,85041-,N/A,,106,97.2,.9,98,97.2,.9,98,97.2,0,97,100,0,100,100,0,100,.9,0,N/A
Bicentennial South School,public,7240 W. Colter St.,Glendale,Maricopa,85303-,N/A,,148,95.9,.7,97,98.6,.7,99,98,.7,99,98.6,.7,99,100,0,100,.7,0,N/A
Big Park Community School,public,25 West Saddlehorn Drive,Sedona,Yavapai,86351-,N/A,,34,85.3,14.7,100,85.3,14.7,100,85.3,14.7,100,85.3,14.7,100,85.3,14.7,100,14.7,0,N/A
Biltmore Prep School,public,4601 North 34th Street,Phoenix,Maricopa,85018-,N/A,,70,95.7,4.3,100,95.7,4.3,100,92.9,4.3,97,100,0,100,94.3,4.3,99,4.3,0,N/A
Black Mountain Elementary School,public,3404 N. Santa Maria Rd,Golden Valley,Mohave,86413-,N/A,,59,91.5,1.7,93,91.5,1.7,93,89.8,1.7,92,94.9,1.7,97,93.2,1.7,95,1.7,0,N/A
Black Mountain Elementary School,public,33606 N 60th Street,Scottsdale,Maricopa,85266-,N/A,,43,90.7,7,98,88.4,11.6,100,95.3,4.7,100,88.4,11.6,100,97.7,2.3,100,14,0,N/A
Blackwater Community School,charter,3652 E. Blackwater School Road,Coolidge,Pinal,85128-,N/A,,75,100,0,100,100,0,100,100,0,100,100,0,100,100,0,100,0,0,N/A
Blake Primary School,public,701 S Navajo ,Parker,La Paz,85344-,N/A,,115,91.3,0,91,90.4,0,90,92.2,0,92,95.7,0,96,90.4,0,90,0,0,N/A
Blenman Elementary,public,1695 N. Country Club Rd,Tucson,Pima,85716-,N/A,,77,96.1,3.9,100,97.4,2.6,100,96.1,3.9,100,96.1,3.9,100,97.4,2.6,100,3.9,1.3,N/A
Bloom Elementary School ,public,8310 E. Pima Street,Tucson,Pima,85715-,N/A,,50,98,2,100,98,2,100,98,2,100,96,4,100,96,4,100,4,0,N/A
Blue Ridge Elementary,public,1200 W White Mountain Blvd,Lakeside,Navajo,85929-6532,N/A,,102,95.1,2.9,98,96.1,2,98,96.1,2.9,99,97.1,2,99,98,2,100,2.9,0,N/A
Bonillas,public,4757 E. Winsett ,Tucson,Pima,85711-,N/A,,67,100,0,100,100,0,100,100,0,100,98.5,1.5,100,100,0,100,0,1.5,N/A
Bonnie Brennan Elementary,public,Po Box 580,Winslow,Navajo,86047-,N/A,,138,99.3,0,99,100,0,100,99.3,0,99,100,0,100,100,0,100,0,0,N/A
Booth Fickett K8 Magnet School,public,450 S. Montego Drive,Tucson,Pima,85710-,N/A,,78,98.7,0,99,98.7,0,99,98.7,1.3,100,98.7,0,99,100,0,100,0,1.3,N/A
Borman,public,6630 Lightning Dr.,Tucson,Pima,85708-,N/A,,100,99,0,99,100,0,100,98,1,99,98,1,99,98,1,99,0,1,N/A
Borton Magnet,public,700 E 22nd St,Tucson,Pima,85713-,N/A,,75,96,4,100,97.3,2.7,100,96,4,100,96,4,100,94.7,5.3,100,4,2.7,N/A
Boulder Creek Elementary,public,22801 North 22nd Street,Phoenix,Maricopa,85024-,N/A,,101,93.1,6.9,100,94.1,5.9,100,93.1,6.9,100,94.1,5.9,100,94.1,5.9,100,5.9,0,N/A
Boulder Creek Elementary,public,140 S Gilbert Rd,Gilbert,Maricopa,85234-,N/A,,77,97.4,1.3,99,98.7,1.3,100,98.7,1.3,100,98.7,1.3,100,98.7,1.3,100,1.3,0,N/A
Bret R. Tarver Elementary School,public,4308 N. 51st Ave,Phoenix,Maricopa,85031-,N/A,,137,95.6,.7,96,98.5,.7,99,97.1,0,97,99.3,0,99,100,0,100,.7,0,N/A
Bright Beginnings School,charter,400 N. Andersen Blvd,Chandler,Maricopa,85224-,N/A,,63,95.2,4.8,100,95.2,4.8,100,92.1,7.9,100,95.2,4.8,100,95.2,4.8,100,7.9,0,N/A
Brinton,public,1145 E Sunland Ave,Mesa,Pinal,85208-7705,N/A,,71,93,4.2,97,94.4,4.2,99,94.4,5.6,100,95.8,4.2,100,100,0,100,7,0,N/A
Broadmor Elementary School,public,311 E Aepli Road,Tempe,Maricopa,85182-,N/A,,117,94.9,5.1,100,93.2,6,99,93.2,6,99,96.6,3.4,100,94.9,4.3,99,6,0,N/A
Brunson-lee Elementary,public,1350 N. 48th Street,Phoenix,Maricopa,85008-,N/A,,76,100,0,100,100,0,100,100,0,100,100,0,100,100,0,100,0,0,N/A
Buckeye Elementary School,public,25555 W Durango St,Buckeye,Maricopa,85326-,N/A,,95,93.7,6.3,100,93.7,6.3,100,93.7,6.3,100,93.7,6.3,100,93.7,6.3,100,6.3,0,N/A
Burk Elementary School,public,545 North Burk St. ,Gilbert,Maricopa,85234-,N/A,,51,96.1,3.9,100,96.1,3.9,100,94.1,5.9,100,98,2,100,96.1,3.9,100,5.9,0,N/A
Burke Basic School,charter,131 E. Southern Ave,Mesa,Maricopa,85201-,N/A,,128,94.5,1.6,96,94.5,1.6,96,94.5,1.6,96,100,0,100,98.4,1.6,100,.8,1.6,N/A
Bush Elementary,public,4925 E. Ingram St,Mesa,Maricopa,85205-,N/A,,91,93.4,6.6,100,93.4,6.6,100,94.5,5.5,100,95.6,4.4,100,93.4,6.6,100,5.5,1.1,N/A
Butterfield Elementary,public,3400 W. Massingale Rd.,Tucson,Pima,85741-,N/A,,60,96.7,1.7,98,98.3,1.7,100,96.7,1.7,98,96.7,1.7,98,98.3,1.7,100,1.7,0,N/A
Butterfield Elementary School,public,43800 West Honeycutt Rd,Maricopa,Pinal,85138-,N/A,,107,94.4,5.6,100,94.4,5.6,100,93.5,6.5,100,96.3,3.7,100,96.3,3.7,100,7.5,0,N/A
C. E. Rose K-8,public,710 W. Michigan St.,Tucson,Pima,85714-,N/A,,109,98.2,0,98,100,0,100,100,0,100,100,0,100,100,0,100,0,0,N/A
C.i Waggoner,public,1050 E Carver Rd,Tempe,Maricopa,85284-2447,N/A,,110,93.6,6.4,100,93.6,6.4,100,92.7,7.3,100,93.6,6.4,100,96.4,3.6,100,6.4,0,N/A
C.j. Jorgensen,public,1701 W. Roeser Rd.,Phoenix,Maricopa,85041-,N/A,,53,96.2,3.8,100,98.1,1.9,100,100,0,100,100,0,100,100,0,100,0,3.8,N/A
C.w.mcgraw,public,2345 Arizona Avenue,Yuma,Yuma,85364-,N/A,,109,99.1,0,99,100,0,100,94.5,0,94,100,0,100,100,0,100,0,0,N/A
Cactus View,public,10858. W. Alex Ave,Sun City,Maricopa,85373-____,N/A,,95,92.6,6.3,99,93.7,6.3,100,93.7,6.3,100,95.8,4.2,100,95.8,4.2,100,5.3,0,N/A
Cactus Wren Elementary School,public,9650 N. 39th Ave,Phoenix,Maricopa,85051-,N/A,,59,100,0,100,100,0,100,100,0,100,100,0,100,100,0,100,0,0,N/A
Calibre Academy,charter,15679 W. Custer Ln.,Surprise,Maricopa,85379-,N/A,,84,86.9,13.1,100,86.9,13.1,100,85.7,14.3,100,91.7,8.3,100,95.2,4.8,100,15.5,0,N/A
Calvary Christian Academy,private,1605 S Mcculloch Blvd,Lake Havasu City,Mohave,86406-,N/A,,21,85.7,14.3,100,85.7,14.3,100,85.7,14.3,100,85.7,14.3,100,85.7,14.3,100,14.3,0,N/A
Cambridge Academy East,charter,9412 E. Brown Rd.,Mesa,Maricopa,85207-,N/A,,22,95.5,4.5,100,95.5,4.5,100,95.5,4.5,100,95.5,4.5,100,95.5,4.5,100,4.5,0,N/A
Camelback Academy,charter,7634 W. Camelback Academy,Glendale ,Maricopa,85340-,N/A,,68,95.6,2.9,99,97.1,2.9,100,97.1,2.9,100,97.1,2.9,100,97.1,2.9,100,2.9,0,N/A
Camp Mohave Elementary,public,1797 E. La Entrada,Fort Mohave ,Mohave,86426-,N/A,,37,97.3,2.7,100,97.3,2.7,100,97.3,2.7,100,97.3,2.7,100,100,0,100,2.7,0,N/A
Camp Verde Elementary School,public,210 Camp Lincoln Rd,Camp Verde,Yavapai,86322-,N/A,,102,87.3,6.9,94,90.2,5.9,96,87.3,6.9,94,95.1,4.9,100,94.1,5.9,100,6.9,0,N/A
Campo Bello Elementary,charter,2650 E. Contention Mine Rd,Phoenix,Maricopa,85032-,N/A,,71,93,2.8,96,93,2.8,96,94.4,2.8,97,95.8,1.4,97,97.2,2.8,100,2.8,2.8,N/A
Candeo Schools,charter,9965 W. Calle Lejos,Peoria,Maricopa,85382-,N/A,,74,93.2,0,93,93.2,6.8,100,93.2,6.8,100,93.2,6.8,100,93.2,6.8,100,6.8,0,N/A
Canyon Breeze,public,11765 W Encanto Blvd,Avondale,Maricopa,85392-,N/A,,74,94.6,2.7,97,94.6,2.7,97,94.6,2.7,97,95.9,2.7,99,97.3,2.7,100,2.7,0,N/A
Canyon De Chelly Elementary School,public,P.o. Box 587,Chinle,Apache,86503-,N/A,,56,100,0,100,100,0,100,100,0,100,100,0,100,100,0,100,0,0,N/A
Canyon Elementary,public,5490 W Paradise Ln,Glendale,Maricopa,85306-,N/A,,23,73.9,4.3,78,73.9,4.3,78,73.9,8.7,83,78.3,8.7,87,91.3,8.7,100,8.7,0,N/A
Canyon Pointe Academy,charter,4941 W. Union Hills Dr,Glendale,Maricopa,85308-,N/A,,64,92.2,6.3,98,95.3,4.7,100,95.3,4.7,100,92.2,7.8,100,95.3,4.7,100,7.8,0,N/A
Canyon Ridge School,public,17359 W. Surprise Farms Loop N,Surprise,Maricopa,85388-,N/A,,106,86.8,8.5,95,87.7,7.5,95,86.8,8.5,95,93.4,5.7,99,93.4,6.6,100,9.4,.9,N/A
Canyon Rim Elem,public,3045 S. Canyon Rim ,Mesa,Maricopa,85212-,N/A,,90,92.2,7.8,100,93.3,6.7,100,92.2,7.8,100,91.1,8.9,100,94.4,5.6,100,10,0,N/A
Canyon Springs,public,42901 N. 45th Ave.,Phoenix,Maricopa,85087-,N/A,,59,86.4,10.2,97,86.4,10.2,97,88.1,10.2,98,93.2,6.8,100,93.2,6.8,100,10.2,0,N/A
Canyon View,public,5725 N. Sabino Canyon Rd.,Tucson,Pima,85750-,N/A,,44,90.9,9.1,100,90.9,9.1,100,90.9,9.1,100,90.9,9.1,100,90.9,9.1,100,9.1,0,N/A
Capitol Elementary School,public,330 N. 16th Ave,Phoenix,Maricopa,85007-,N/A,,71,97.2,1.4,99,97.2,1.4,99,97.2,1.4,99,98.6,1.4,100,100,0,100,1.4,0,N/A
Career Success Sage Elementary,charter,3120 N. 32nd Street,Phoenix,Maricopa,85018-6202,N/A,,27,96.3,3.7,100,96.3,3.7,100,92.6,7.4,100,96.3,3.7,100,92.6,3.7,96,3.7,0,N/A
Carlson Elementary,public,5400 S. White Dr,Chandler,Maricopa,85249-,N/A,,118,91.5,8.5,100,91.5,8.5,100,91.5,8.5,100,94.9,5.1,100,95.8,4.2,100,11.9,0,N/A
Carmichael Elementary School,charter,701 Ne Carmichael,Sierra Vista,Cochise,85635-,N/A,,53,98.1,1.9,100,98.1,1.9,100,96.2,3.8,100,96.2,3.8,100,98.1,1.9,100,3.8,0,N/A
Carminati,public,4001 S. Mcallister ,Tempe,Maricopa,85282-,N/A,,61,100,0,100,100,0,100,96.7,1.6,98,100,0,100,98.4,1.6,100,1.6,0,N/A
Carol G. Peck Elementary,public,5810 N. 49th Avenue,Glendale,Maricopa,85301-,N/A,,180,97.2,2.2,99,97.8,2.2,100,97.8,2.2,100,98.3,1.7,100,97.8,1.7,99,2.2,0,N/A
Carol Rae Ranch Elementary,public,3777 E. Houston Ave,Gilbert,Maricopa,85234-,N/A,,66,93.9,6.1,100,93.9,4.5,98,97,3,100,93.9,6.1,100,95.5,4.5,100,6.1,1.5,N/A
Carrillo K-5 Magnet School,public,440 S. Main Ave.,Tucson,Pima,85701-,N/A,,43,100,0,100,100,0,100,100,0,100,97.7,2.3,100,100,0,100,2.3,0,N/A
Cartwright,public,2825 N 59th Ave,Phoenix,Maricopa,85035-,N/A,,69,98.6,0,99,98.6,0,99,98.6,0,99,100,0,100,100,0,100,0,0,N/A
Casa Academy,charter,1500 W Maryland Ave,Phoenix,Maricopa,85015-,N/A,,54,100,0,100,100,0,100,100,0,100,100,0,100,100,0,100,0,0,N/A
Casa Blanca Community School,charter,3455 W. Casa Blanca Community School,Bapchule,Pinal,85121-,N/A,,45,100,0,100,100,0,100,100,0,100,100,0,100,100,0,100,0,0,N/A
Casas Christian School,private,10801 N. La Cholla Blvd,Oro Valley,Pima,85742,N/A,,26,92.3,7.7,100,92.3,7.7,100,96.2,3.8,100,96.2,3.8,100,96.2,3.8,100,7.7,0,N/A
Catalina Ventura School,public,6331 N 39th Avenue,Phoenix,Maricopa,85019-,N/A,,82,91.5,2.4,94,97.6,2.4,100,92.7,2.4,95,97.6,2.4,100,97.6,2.4,100,1.2,1.2,N/A
Caurus Academy,charter,41900 N 42nd Ave,Anthem,Maricopa,85086-,N/A,,23,78.3,21.7,100,82.6,13,96,73.9,17.4,91,82.6,13,96,87,13,100,21.7,0,N/A
Cavett Elementary,public,2120 E Naco Vista,Tucson,Pima,85713-,N/A,,50,94,0,94,100,0,100,98,0,98,100,0,100,98,0,98,0,0,N/A
Centennial,public,3507 S. Ranch House Parkway,Gilbert,Maricopa,85297-,N/A,,117,93.2,6.8,100,94.9,5.1,100,92.3,7.7,100,94,6,100,95.7,4.3,100,8.5,0,N/A
Centennial Elementary School,public,Flowing Wells School District,Tucson,Pima,85705-2038,N/A,,60,98.3,1.7,100,98.3,1.7,100,98.3,1.7,100,98.3,1.7,100,98.3,1.7,100,1.7,0,N/A
Center For Academic Success - Douglas,charter,919 3rd Street,Douglas,Cochise,85607-1816,N/A,,59,94.9,0,95,79.7,0,80,79.7,0,80,91.5,0,92,96.6,0,97,0,0,N/A
Center For Academic Success - Sierra Vista,charter,900 Carmelita Drive,Sierra Vista,Cochise,85635-,N/A,,40,97.5,0,98,100,0,100,95,0,95,100,0,100,97.5,0,98,0,0,N/A
Center For Educational Excellence,charter,1700 E. Elliot Rd Ste. # 9,Tempe,Maricopa,85284-,N/A,,26,84.6,15.4,100,84.6,15.4,100,84.6,15.4,100,84.6,15.4,100,84.6,15.4,100,15.4,0,N/A
Centerra Mirage,public,15151 Centerra Drive South,Goodyear,Maricopa,85338-,N/A,,56,96.4,3.6,100,96.4,3.6,100,96.4,3.6,100,98.2,1.8,100,98.2,1.8,100,3.6,0,N/A
Cerbat Elementary,public,2689 E Jagerson Ave,Kingman,Mohave,86409-,N/A,,121,92.6,2.5,95,92.6,2.5,95,92.6,2.5,95,95.9,2.5,98,96.7,2.5,99,2.5,0,N/A
Cesar Chavez Elementary,public,1130 N. 10th Ave,San Luis,Yuma,85349-,N/A,,91,100,0,100,100,0,100,100,0,100,100,0,100,100,0,100,0,0,N/A
Cesar Chavez Elementary School,public,4001 S 3rd Street,Phoenix,Maricopa,85040-,N/A,,48,100,0,100,100,0,100,100,0,100,100,0,100,100,0,100,0,0,N/A
Challenge Charter School,charter,5801 W. Greenbriar Dr,Glendale,Maricopa,85308-,N/A,,87,92,8,100,93.1,6.9,100,93.1,6.9,100,93.1,6.9,100,93.1,6.9,100,8,0,N/A
Challenger,public,901 E Calle Mayer,Nogales,Santa Cruz,85621-,N/A,,83,100,0,100,100,0,100,100,0,100,100,0,100,100,0,100,0,0,N/A
Challenger Basic School,charter,1315 N Greenfield Rd,Gilbert,Maricopa,85234-,N/A,,60,78.3,21.7,100,81.7,18.3,100,78.3,21.7,100,80,20,100,80,20,100,23.3,0,N/A
Champion Schools - South Mountain Ymca,charter,7900 S. Jesse Owens Parkway,Phoenix,Maricopa,85042-,N/A,,60,56.7,0,57,60,0,60,56.7,0,57,88.3,0,88,88.3,0,88,0,0,N/A
Chandler Traditional Academy - Independence,public,1405 W. Lake Drive,Chandler,Maricopa,85248-,N/A,,136,97.1,2.9,100,97.8,2.2,100,97.8,2.2,100,97.8,2.2,100,97.8,2.2,100,2.9,0,N/A
Chandler Traditional Academy Freedom Campus,public,6040 S. Joslyn Lane,Gilbert,Maricopa,85298-,N/A,,110,98.2,.9,99,99.1,.9,100,97.3,2.7,100,99.1,.9,100,97.3,2.7,100,3.6,0,N/A
Chandler Traditional Academy-humphrey,public,125 South 132nd Street,Chandler,Maricopa,85225-,N/A,,87,87.4,12.6,100,87.4,12.6,100,86.2,13.8,100,90.8,9.2,100,88.5,11.5,100,13.8,0,N/A
Chandler Traditional Academy-liberty Campus,public,550 North Emmett Drive,Chandler,Maricopa,85225-,N/A,,107,97.2,2.8,100,97.2,2.8,100,96.3,3.7,100,96.3,3.7,100,98.1,1.9,100,4.7,0,N/A
Chaparral,public,3808 W. Joan De Arc,Phoenix,Maricopa,85029-,N/A,,80,92.5,6.3,99,93.8,6.3,100,93.8,6.3,100,95,5,100,100,0,100,7.5,0,N/A
Chaparral Elementary ,public,3380 E. Frye Rd,Gilbert,Maricopa,85295-,N/A,,131,94.7,5.3,100,93.9,6.1,100,94.7,5.3,100,93.9,6.1,100,98.5,1.5,100,7.6,0,N/A
Charles H. Harris ,public,2252 N. 55th Ave,Phoenix,Maricopa,85035-,N/A,,119,91.6,0,92,89.9,0,90,89.9,0,90,92.4,0,92,92.4,0,92,0,0,N/A
Charles W Sechrist Elementary School,public,2230 N Fort Valley Road,Flagstaff,Coconino,86001-,N/A,,74,93.2,5.4,99,91.9,5.4,97,93.2,5.4,99,95.9,4.1,100,94.6,5.4,100,5.4,0,N/A
Charlotte Patterson Elementary,public,7520 S.adora Blvd,Gilbert,Maricopa,85298-,N/A,,117,94,6,100,93.2,6.8,100,93.2,6.8,100,91.5,8.5,100,95.7,4.3,100,7.7,0,N/A
Cheatham Elementary School,public,4725 W South Mountain Ave,Laveen,Maricopa,85339-,N/A,,88,94.3,4.5,99,93.2,4.5,98,94.3,5.7,100,97.7,1.1,99,98.9,1.1,100,5.7,0,N/A
Cherokee Elementary,public,8801 N 56th Street,Paradise Valley,Maricopa,85253-,N/A,,86,97.7,2.3,100,97.7,2.3,100,97.7,2.3,100,100,0,100,100,0,100,15.1,1.2,N/A
Cheyenne Elementary School,public,11806 N. 87th Avenue,Peoria,Maricopa,85302-,N/A,,63,96.8,3.2,100,96.8,3.2,100,96.8,3.2,100,96.8,3.2,100,96.8,3.2,100,3.2,0,N/A
Cheyenne Traditional School,public,13636 N. 100th Street,Scottsdale,Maricopa,85260-,N/A,,104,94.2,4.8,99,95.2,4.8,100,93.3,5.8,99,94.2,3.8,98,96.2,3.8,100,5.8,1,N/A
Children First Academy - Phoenix,charter,1648 South 16th Street,Phoenix,Maricopa,85034-,N/A,,22,90.9,0,91,95.5,0,95,95.5,0,95,100,0,100,100,0,100,0,0,N/A
Children First Academy Of Tempe,charter,1938 E Apache Blvd ,Tempe ,Maricopa,85281-,N/A,,21,100,0,100,100,0,100,100,0,100,100,0,100,100,0,100,0,0,N/A
Children Reaching For The Sky Preparatory,charter,1844 S Alvernon Way,Tucson,Pima,85711-,N/A,,52,100,0,100,100,0,100,100,0,100,100,0,100,100,0,100,0,0,N/A
Chinle Elementary School,public,Po Box 587,Chinle,Apache,86503-0587,N/A,,60,100,0,100,100,0,100,100,0,100,100,0,100,100,0,100,0,0,N/A
Cholla,public,1180 East Kortsen Road,Casa Grande,Pinal,85122-,N/A,,57,94.7,1.8,96,96.5,1.8,98,98.2,1.8,100,98.2,1.8,100,98.2,1.8,100,1.8,0,N/A
Christ Lutheran School,private,14420 S. 8th St.,Phoenix,Maricopa,85018-,N/A,,53,88.7,11.3,100,90.6,9.4,100,88.7,11.3,100,94.3,5.7,100,98.1,1.9,100,9.4,1.9,N/A
Christ's Greenfield Lutheran School,private,425 N. Greenfield Rd.,Gilbert,Maricopa,85234-,N/A,,34,91.2,8.8,100,91.2,8.8,100,91.2,0,91,91.2,8.8,100,91.2,8.8,100,8.8,0,N/A
Cimarron Springs Elementary,public,17032 West Surprise Farms Loop South,Surprise,Maricopa,85388-,N/A,,91,92.3,5.5,98,94.5,5.5,100,93.4,5.5,99,96.7,3.3,100,98.9,1.1,100,4.4,1.1,N/A
Circle Cross Ranch,public,35900 E Charbrary Dr,San Tan Valley,Pinal,85143-,N/A,,86,90.7,2.3,93,90.7,2.3,93,91.9,3.5,95,91.9,3.5,95,96.5,3.5,100,3.5,0,N/A
Clarkdale-jerome School,public,1615 Man St,Clarkdale,Yavapai,86324-,N/A,,41,87.8,12.2,100,100,0,100,100,0,100,100,0,100,87.8,12.2,100,12.2,0,N/A
Clawson School,public,1235 7th Street,Douglas,Cochise,85607-,N/A,,51,98,0,98,100,0,100,100,0,100,98,0,98,100,0,100,0,0,N/A
Cloves Campbell,public,2624 E South Mountain Ave,Phoenix,Maricopa,85042-,N/A,,51,94.1,2,96,98,2,100,98,2,100,98,2,100,98,2,100,2,0,N/A
Cochise Elementary School,public,9451 N. 84th St.,Scottsdale,Maricopa,85258-,N/A,,87,92,8,100,92,8,100,92,8,100,93.1,6.9,100,100,0,100,8,2.3,N/A
Col Johnston Elementary School,public,P.o. Box 12954,Fort Huachuca,Cochise,85613-,N/A,,122,96.7,1.6,98,95.9,1.6,98,96.7,1.6,98,97.5,.8,98,98.4,1.6,100,1.6,.8,N/A
Collier Elementary School,public,350 South 118th Avenue,Avondale,Maricopa,85323-,N/A,,90,98.9,0,99,98.9,0,99,98.9,0,99,98.9,0,99,98.9,0,99,1.1,0,N/A
Collier Elementary School,public,3900 N Bear Canyon Rd,Tucson,Pima,85749-,N/A,,28,96.4,0,96,100,0,100,100,0,100,100,0,100,100,0,100,0,0,N/A
Combs Traditional Academy,public,37327 N Gantzel Rd,San Tan Valley,Pinal,85140-,N/A,,56,87.5,12.5,100,87.5,10.7,98,87.5,12.5,100,91.1,8.9,100,92.9,7.1,100,14.3,0,N/A
Constitution Elementary,public,18440n. 15th Ave,Phoenix,Maricopa,85023-,N/A,,102,98,1,99,99,1,100,99,1,100,98,1,99,99,1,100,1,0,N/A
Continental Elementary School,public,P.o. Box 547,Green Valley,Pima,85622-,N/A,,63,96.8,3.2,100,96.8,3.2,100,98.4,1.6,100,96.8,3.2,100,98.4,1.6,100,1.6,1.6,N/A
Copper Basin K-8,public,28682 N. Main St.,San Tan Valley,Pinal,85143-,N/A,,73,84.9,8.2,93,86.3,8.2,95,84.9,8.2,93,89,8.2,97,90.4,8.2,99,8.2,0,N/A
Copper Canyon Elementary School,public,17650 N. 54th St,Scottsdale,Maricopa,85254-,N/A,,107,97.2,2.8,100,97.2,2.8,100,97.2,2.8,100,98.1,1.9,100,98.1,1.9,100,5.6,.9,N/A
Copper Creek,public,11620 N. Copper Spring Trail,Tucson,Pima,85737-,N/A,,64,95.3,4.7,100,95.3,4.7,100,95.3,4.7,100,95.3,4.7,100,95.3,4.7,100,3.1,1.6,N/A
Copper Creek Elementary,public,7071 W Hillcrest Blvd.,Glendale,Maricopa,85310-,N/A,,81,97.5,2.5,100,97.5,2.5,100,96.3,3.7,100,96.3,3.7,100,97.5,2.5,100,3.7,0,N/A
Copper King Elementary,public,10730 W. Campbell Ave,Phoenix,Maricopa,85037-,N/A,,75,97.3,0,97,98.7,0,99,100,0,100,98.7,0,99,100,0,100,0,0,N/A
Copper Ridge Elementary School,public,10101 E. Thompson Peak Parkway,Scottsdale,Maricopa,85255-,N/A,,66,92.4,7.6,100,92.4,7.6,100,89.4,10.6,100,89.4,10.6,100,92.4,7.6,100,12.1,3,N/A
Copper Rim Elementary School,public,460 N. Willow St.,Globe,Gila,85501-,N/A,,151,97.4,2.6,100,97.4,2.6,100,97.4,2.6,100,97.4,2.6,100,97.4,2.6,100,2.6,0,N/A
Copper Trails Elementary,public,16875 W Canyon Trails Blvd.,Goodyear,Maricopa,85338-,N/A,,110,93.6,3.6,97,93.6,3.6,97,95.5,1.8,97,95.5,.9,96,98.2,.9,99,2.7,.9,N/A
Copper View,public,350 W. Sahuarita Road,Sahuarita,Pima,85629-,N/A,,95,98.9,0,99,98.9,0,99,100,0,100,98.9,0,99,100,0,100,0,0,N/A
Copperwood,public,11232 N. 65th Ave,Glendale,Maricopa,85204-,N/A,,61,93.4,4.9,98,95.1,4.9,100,95.1,4.9,100,96.7,3.3,100,96.7,0,97,3.3,1.6,N/A
Cordova Primary School,public,6615 N. 39th Ave,Phoenix,Maricopa,85019-,N/A,,124,97.6,0,98,99.2,0,99,99.2,0,99,99.2,0,99,100,0,100,0,0,N/A
Cornerstone Christian Academy,private,6450 N Camino Miraval,Tucson,Pinal,85718-,N/A,,23,95.7,4.3,100,91.3,8.7,100,91.3,8.7,100,91.3,8.7,100,95.7,0,96,8.7,0,N/A
Coronado Elementary School,public,Po Box 609,St. Johns,Apache,85936-,N/A,,64,82.8,14.1,97,82.8,14.1,97,81.3,15.6,97,87.5,9.4,97,85.9,10.9,97,15.6,1.6,N/A
Coronado Elementary School,public,4333 S. Deanza Blvd.,Gilbert,Maricopa,85297-,N/A,,94,96.8,3.2,100,96.8,3.2,100,96.8,3.2,100,94.7,5.3,100,96.8,3.2,100,5.3,0,N/A
Coronado Elementary School,public,P. O. Box 38,Hereford,Cochise,85615-,N/A,,39,92.3,7.7,100,92.3,7.7,100,92.3,7.7,100,92.3,7.7,100,92.3,7.7,100,7.7,0,N/A
Coronado K-8,public,3401 E. Wilds Rd.,Tucson,Pima,85739-,N/A,,69,98.6,1.4,100,98.6,1.4,100,98.6,1.4,100,98.6,1.4,100,98.6,1.4,100,1.4,0,N/A
Corte Sierra Elementary,public,3300 N. Santa Fe Trail,Avondale,Maricopa,85323-,N/A,,128,95.3,1.6,97,97.7,1.6,99,98.4,1.6,100,98.4,1.6,100,98.4,1.6,100,1.6,0,N/A
Cortez Park Charter Elementary,charter,3535 W Dunlap Ave,Phoenix,Maricopa,85051-,N/A,,103,98.1,1,99,99,1,100,99,1,100,96.1,1,97,98.1,1,99,0,1.9,N/A
Cortina Elementary,public,19680 S 188th St,Queen Creek,Maricopa,85142-,N/A,,123,91.9,8.1,100,94.3,5.7,100,92.7,7.3,100,92.7,7.3,100,91.9,8.1,100,8.1,0,N/A
Cotton Boll Elementary,public,8540 W Butler,Peoria,Maricopa,85345-,N/A,,69,91.3,4.3,96,91.3,4.3,96,89.9,4.3,94,92.8,4.3,97,94.2,4.3,99,4.3,0,N/A
Cottonwood Elementary School,public,9950 E Rees Loop,Tucson,Pima,85747-,N/A,,85,96.5,3.5,100,96.5,3.5,100,96.5,3.5,100,96.5,3.5,100,96.5,3.5,100,3.5,0,N/A
Cottonwood Elementary School,public,1667 N Kadota Ave.,Casa Grande,Pinal,85122-,N/A,,80,97.5,0,98,98.8,0,99,98.8,0,99,98.8,0,99,100,0,100,0,0,N/A
Country Gardens Charter School,charter,6313 West Southern Avenue,Laveen,Maricopa,85339-,N/A,,62,98.4,1.6,100,98.4,1.6,100,98.4,1.6,100,100,0,100,100,0,100,1.6,0,N/A
Country Meadows Elementary,public,8409 N. 111th Avenue,Peoria,Maricopa,85345-,N/A,,101,95,2,97,95,2,97,95,2,97,97,2,99,98,2,100,2,0,N/A
Country Place Elementary,public,10207 W. Country Place Blvd.,Tolleson,Maricopa,85353-,N/A,,88,100,0,100,100,0,100,100,0,100,98.9,0,99,100,0,100,0,0,N/A
Countryside Elementary,public,15034 N Parkview Place,Surprise,Maricopa,85379-,N/A,,78,96.2,3.8,100,94.9,3.8,99,96.2,3.8,100,96.2,3.8,100,93.6,6.4,100,6.4,0,N/A
Coyote Canyon School,public,5568 Crater Lake Court ,Bullhead City,Mohave,86442-,N/A,,96,97.9,0,98,99,0,99,99,0,99,100,0,100,100,0,100,1,0,N/A
Coyote Hills Elementary,public,21180 N 87th Ave,Peoria,Maricopa,85382-,N/A,,60,98.3,1.7,100,96.7,1.7,98,96.7,1.7,98,96.7,1.7,98,98.3,1.7,100,1.7,0,N/A
Coyote Ridge,public,7677 W. Bethany Home Rd,Glendale,Maricopa,85303-,N/A,,86,97.7,1.2,99,98.8,1.2,100,97.7,1.2,99,98.8,1.2,100,100,0,100,1.2,0,N/A
Coyote Springs Elementary School,public,6625 N. Cattletrack Rd.,Prescott Valley,Yavapai,86314-,N/A,,62,90.3,9.7,100,88.7,11.3,100,87.1,12.9,100,91.9,8.1,100,90.3,9.7,100,11.3,1.6,N/A
Coyote Trail Elementary,public,8000 N Silverbell Road,Tucson,Pima,85743-,N/A,,77,96.1,3.9,100,98.7,1.3,100,96.1,3.9,100,93.5,6.5,100,98.7,1.3,100,7.8,0,N/A
Cradleboard Elementary,public,P.o. 190,Whiteriver,Navajo,85941-,N/A,,58,96.6,1.7,98,96.6,1.7,98,89.7,1.7,91,100,0,100,96.6,1.7,98,0,1.7,N/A
Cragin Elementary,public,2945 N. Tucson Blvd.,Tucson,Pima,85716-,N/A,,63,95.2,3.2,98,95.2,3.2,98,93.7,4.8,98,96.8,3.2,100,96.8,3.2,100,3.2,1.6,N/A
Craycroft Elementary School,public,5455 E. Littletown Rd.,Tucson,Pima,85706-,N/A,,136,97.8,.7,99,93.4,.7,94,99.3,.7,100,96.3,.7,97,97.8,.7,99,.7,0,N/A
Creighton,public,2802 E Mcdowell Rd,Phoenix,Maricopa,85008-,N/A,,86,100,0,100,100,0,100,100,0,100,100,0,100,100,0,100,0,0,N/A
Crismon Elementary,public,825 W Medina Ave,Mesa,Maricopa,85210-,N/A,,84,94,6,100,94,6,100,94,6,100,95.2,4.8,100,94,6,100,6,0,N/A
Crown Charter School,charter,P.o. Box 363,Litchfield Park,Maricopa,85340-,N/A,,75,98.7,1.3,100,98.7,1.3,100,98.7,1.3,100,98.7,1.3,100,98.7,1.3,100,1.3,0,N/A
Cta - Goodman,public,2600 W. Knox Road,Chandler,Maricopa,85224-,N/A,,103,98.1,1.9,100,98.1,1.9,100,98.1,1.9,100,98.1,1.9,100,98.1,1.9,100,1.9,0,N/A
Curiel Primary School,public,1011 North Sunshine Blvd.,Eloy,Pinal,85131-,N/A,,101,98,1,99,98,1,99,99,1,100,99,1,100,100,0,100,1,0,N/A
Curry,public,1974 E. Meadow Drive,Tempe,Maricopa,85282-,N/A,,96,95.8,3.1,99,95.8,3.1,99,96.9,3.1,100,96.9,3.1,100,97.9,2.1,100,3.1,0,N/A
David Crockett School,public,501 N. 36th Street,Phoenix,Maricopa,85008-,N/A,,73,94.5,5.5,100,94.5,4.1,99,94.5,5.5,100,98.6,1.4,100,97.3,0,97,5.5,1.4,N/A
Davidson Elementary,public,3950 East Paradise Falls Drive,Tucson,Pima,85712-,N/A,,48,100,0,100,100,0,100,100,0,100,100,0,100,100,0,100,0,0,N/A
Davis Bilingual Magnet School,public,500 W St. Marys Rd ,Tucson,Pima,85701-,N/A,,54,100,0,100,100,0,100,100,0,100,100,0,100,98.1,0,98,0,0,N/A
Ddb,public,1500 S. Monte Tosoro,Cottonwood,Yavapai,86326-,N/A,,133,94,4.5,98,94,4.5,98,91,5.3,96,93.2,5.3,98,94.7,4.5,99,6,0,N/A
Degrazia Elementary,public,5051 W. Overton,Tucson,Pima,85742-,N/A,,75,92,8,100,93.3,6.7,100,94.7,5.3,100,90.7,9.3,100,97.3,2.7,100,6.7,4,N/A
Dennehotso Boarding School,private,Po Box 2570,Dennehotso,Apache,86535-2570,N/A,,25,96,0,96,80,0,80,88,0,88,96,0,96,80,0,80,0,0,N/A
Desert Canyon Elementary School,public,10203 E. Mcdowell Mnt. Ranch Rd. ,Scottsdale,Maricopa,85255-,N/A,,72,90.3,8.3,99,93.1,6.9,100,91.7,6.9,99,95.8,4.2,100,94.4,5.6,100,11.1,0,N/A
Desert Cove Elementary School,charter,11020 N. 28th Street,Phoenix ,Maricopa,85028-,N/A,,63,93.7,3.2,97,93.7,3.2,97,95.2,3.2,98,95.2,3.2,98,95.2,3.2,98,3.2,0,N/A
Desert Garden Elementary School,public,7020 W. Ocotillo Rd.,Glendale,Maricopa,85303-,N/A,,180,90.6,1.1,92,93.9,1.1,95,91.1,1.1,92,96.7,1.1,98,98.9,1.1,100,1.1,0,N/A
Desert Harbor,public,15585 North 91st Avenue,Peoria,Maricopa,85382-,N/A,,75,98.7,0,99,94.7,0,95,92,0,92,98.7,0,99,98.7,0,99,0,0,N/A
Desert Horizon,public,8525 W Osborn Rd,Phoenix,Maricopa,85037-,N/A,,97,99,0,99,99,0,99,100,0,100,100,0,100,100,0,100,0,0,N/A
Desert Marigold School,charter,6210 S. 28th St.,Phoenix,Maricopa,85042-,N/A,,36,41.7,58.3,100,38.9,58.3,97,41.7,55.6,97,47.2,52.8,100,47.2,52.8,100,58.3,0,N/A
Desert Meadows Elementary School,public,6855 W Meadows Loop E,Laveen,Maricopa,85339-,N/A,,97,95.9,4.1,100,94.8,4.1,99,94.8,4.1,99,95.9,4.1,100,95.9,4.1,100,4.1,0,N/A
Desert Mesa Elementary ,public,2350 Ave 7 1/2 E,Yuma,Yuma,85365-____,N/A,,115,95.7,1.7,97,97.4,1.7,99,97.4,1.7,99,97.4,1.7,99,97.4,1.7,99,1.7,0,N/A
Desert Mirage Elementary School,public,8605 W Maryland Ave,Glendale,Maricopa,85305-,N/A,,53,96.2,3.8,100,96.2,3.8,100,94.3,5.7,100,98.1,1.9,100,100,0,100,5.7,0,N/A
Desert Mountain Elementary,public,22301 S. Hawes Rd.,Queen Creek,Maricopa,85142-,N/A,,79,93.7,6.3,100,94.9,5.1,100,94.9,5.1,100,96.2,3.8,100,97.5,2.5,100,6.3,0,N/A
Desert Mountain School,public,35959 N. 7th Ave,Desert Hills,Maricopa,85086-,N/A,,43,93,7,100,95.3,4.7,100,95.3,4.7,100,100,0,100,100,0,100,7,0,N/A
Desert Oasis Elementary,public,8802 W. Mcdowell Rd.,Phoenix,Maricopa,85037-,N/A,,86,100,0,100,100,0,100,100,0,100,100,0,100,100,0,100,0,0,N/A
Desert Oasis Elementary School,public,17161 W. Bajada Road,Surprise ,Maricopa,85387-,N/A,,48,95.8,2.1,98,93.8,2.1,96,93.8,2.1,96,100,0,100,100,0,100,2.1,0,N/A
Desert Palms ,public,11441 N 55th Ave,Glendale,Maricopa,85304-,N/A,,46,100,0,100,100,0,100,97.8,0,98,100,0,100,100,0,100,0,0,N/A
Desert Sage Elementary School,public,4035 W. Alameda,Glendale,Maricopa,85310-,N/A,,83,91.6,8.4,100,94,6,100,90.4,9.6,100,96.4,3.6,100,97.6,2.4,100,9.6,1.2,N/A
Desert Shadows Elementary School,public,5902 E. Sweetwater,Scottsdale,Maricopa,85254-,N/A,,56,91.1,7.1,98,91.1,7.1,98,92.9,5.4,98,94.6,5.4,100,94.6,5.4,100,7.1,0,N/A
Desert Spirit,public,7355 W. Orangewood Ave,Glendale,Maricopa,85303-,N/A,,89,95.5,1.1,97,95.5,1.1,97,94.4,1.1,96,96.6,1.1,98,98.9,1.1,100,1.1,0,N/A
Desert Springs Preparatory Elementary School,charter,6010 E. Acoma,Scottsdale,Maricopa,85254-____,N/A,,75,94.7,5.3,100,90.7,9.3,100,89.3,10.7,100,92,8,100,94.7,5.3,100,12,0,N/A
Desert Star Elementary School,public,2131 S. 157th Ave,Goodyear,Maricopa,85338-,N/A,,61,95.1,4.9,100,95.1,4.9,100,95.1,4.9,100,95.1,4.9,100,95.1,4.9,100,3.3,1.6,N/A
Desert Sun Academy,charter,P.o. Box426,Cave Creek,Maricopa,85327-,N/A,,38,97.4,2.6,100,97.4,2.6,100,92.1,7.9,100,97.4,2.6,100,97.4,2.6,100,7.9,0,N/A
Desert Thunder,public,16750 W Garfield Dr,Goodyear,Maricopa,85338-,N/A,,58,93.1,1.7,95,98.3,1.7,100,98.3,1.7,100,98.3,1.7,100,98.3,1.7,100,1.7,0,N/A
Desert Trails Elementary School,public,4315 E Cashman Dr,Phoenix,Maricopa,85050-8733,N/A,,60,96.7,1.7,98,98.3,1.7,100,98.3,1.7,100,100,0,100,100,0,100,1.7,0,N/A
Desert Valley Elementary,public,1066 Marina Blvd.,Bullhead City,Mohave,86442-,N/A,,61,93.4,3.3,97,93.4,3.3,97,95.1,3.3,98,95.1,3.3,98,95.1,3.3,98,3.3,0,N/A
Desert Valley Elementary,public,12901 N. 63rd Avenue,Glendale,Maricopa,85304-,N/A,,35,97.1,0,97,100,0,100,100,0,100,100,0,100,100,0,100,0,0,N/A
Desert View Academy,charter,2363 S. Kennedy Lane,Yuma,Yuma,85364-,N/A,,103,95.1,1,96,98.1,1.9,100,94.2,1.9,96,98.1,1.9,100,99,1,100,2.9,0,N/A
Desert View Elementary,public,P.o.box 6870,San Luis,Yuma,85349-,N/A,,102,99,1,100,99,1,100,99,1,100,99,1,100,99,1,100,1,0,N/A
Desert View Elementary School,public,8621 N. 3rd St,Phoenix,Maricopa,85020-,N/A,,66,93.9,4.5,98,93.9,4.5,98,95.5,4.5,100,98.5,1.5,100,100,0,100,4.5,0,N/A
Desert Vista Elementary,public,3701 E Broadway Ave,Apache Junction,Pinal,85119-,N/A,,96,97.9,2.1,100,97.9,2.1,100,97.9,2.1,100,97.9,2.1,100,97.9,2.1,100,2.1,0,N/A
Desert Willow,public,3700 Prospector Street,Kingman,Mohave,86409-,N/A,,73,90.4,6.8,97,90.4,6.8,97,90.4,6.8,97,90.4,6.8,97,91.8,6.8,99,6.8,0,N/A
Desert Willow Elementary,charter,P.o. Box 426,Cave Creek,Maricopa,85327-,N/A,,99,89.9,10.1,100,88.9,11.1,100,87.9,12.1,100,89.9,10.1,100,89.9,10.1,100,12.1,0,N/A
Desert Willow Elementary School,public,2172 N Arizola Road,Casa Grande,Pinal,85122-,N/A,,101,98,0,98,99,0,99,100,0,100,100,0,100,100,0,100,0,0,N/A
Desert Willow Elementary School,charter,9400 E Esmond Loop,Tucson,Pima,85747-,N/A,,117,96.6,3.4,100,97.4,2.6,100,97.4,2.6,100,97.4,2.6,100,97.4,2.6,100,2.6,.9,N/A
Desert Winds Elementary,public,12675 W Rudasill Rd.,Tucson,Pima,85743-,N/A,,78,96.2,3.8,100,97.4,2.6,100,91,9,100,97.4,2.6,100,97.4,2.6,100,10.3,0,N/A
Destiny School,charter,798 E Prickly Pear Drive,Globe,Gila,85501-,N/A,,43,95.3,0,95,95.3,4.7,100,95.3,4.7,100,95.3,4.7,100,95.3,4.7,100,4.7,0,N/A
Diamond Canyon Elementary,public,40004 N. Liberty Bell Way,Anthem,Maricopa,85086-,N/A,,95,82.1,4.2,86,78.9,4.2,83,78.9,4.2,83,90.5,4.2,95,93.7,4.2,98,4.2,0,N/A
Diamondback Elementary,public,2250 Tesota Way,Bullhead City,Mohave,86442-,N/A,,99,96,2,98,96,2,98,96,2,98,96,2,98,97,2,99,2,0,N/A
Dietz,public,7575 E. Palma ,Tucson,Pima,85710-,N/A,,65,95.4,3.1,98,95.4,3.1,98,96.9,3.1,100,95.4,3.1,98,96.9,3.1,100,3.1,0,N/A
Dilkon Community School,charter,"Hc 63, Box G",Winslow,Navajo,86407-,N/A,,22,95.5,0,95,95.5,0,95,95.5,0,95,100,0,100,95.5,0,95,0,0,N/A
Discovery School,public,7910 W. Maryland Ave.,Glendale,Maricopa,85303-,N/A,,74,94.6,2.7,97,95.9,2.7,99,95.9,2.7,99,98.6,1.4,100,100,0,100,2.7,0,N/A
Dishchii'bikoh Community School,public,P.o. Box 80068,Cibecue,Navajo,85911-,N/A,,43,100,0,100,100,0,100,100,0,100,100,0,100,100,0,100,0,0,N/A
Dobson Academy,charter,2207 N Dobson Rd,Chandler,Maricopa,85224-,N/A,,59,94.9,1.7,97,94.9,1.7,97,94.9,1.7,97,96.6,1.7,98,96.6,1.7,98,1.7,0,N/A
Donaldson Elementary,public,2040 W. Omar ,Tucson,Pima,85704-,N/A,,56,92.9,3.6,96,94.6,1.8,96,94.6,5.4,100,94.6,1.8,96,98.2,1.8,100,5.4,0,N/A
Dorothy Stinson School,public,2013 S. 8th Ave,Safford,Graham,85546,N/A,,94,89.4,0,89,93.6,0,94,88.3,0,88,96.8,0,97,95.7,0,96,0,0,N/A
Dos Rios Elementary,public,2150 S. 87th Ave,Tolleson,Maricopa,85353-,N/A,,75,96,0,96,98.7,0,99,98.7,0,99,98.7,0,99,100,0,100,0,0,N/A
Dr Howard K Conley Elementary School,public,500 S. Arrowhead Drive,Chandler,Maricopa,85224-,N/A,,114,92.1,7.9,100,92.1,7.9,100,92.1,7.9,100,95.6,4.4,100,97.4,2.6,100,11.4,0,N/A
Dr. Charles A. Bejarano Elementary School,public,Po Box 2070,Miami,Gila,85539-0951,N/A,,82,92.7,0,93,92.7,0,93,92.7,0,93,100,0,100,100,0,100,0,0,N/A
Drachman Montessori Magnet School,public,1085 S. 10th Ave.,Tucson,Pima,85701-,N/A,,60,95,5,100,95,5,100,95,5,100,96.7,3.3,100,96.7,3.3,100,5,0,N/A
Dreaming Summit Elementary,public,13335 W. Missouri,Litchfield Park,Maricopa,85340-,N/A,,109,96.3,2.8,99,97.2,2.8,100,94.5,2.8,97,93.6,2.8,96,92.7,2.8,95,2.8,0,N/A
Drexel Elementary School,public,801 E Drexel Rd.,Tucson ,Pima,85706-,N/A,,105,99,1,100,99,1,100,99,1,100,100,0,100,100,0,100,0,1,N/A
Duncan Unified School District,public,Po Box 710,Duncan,Greenlee,85534-,N/A,,34,88.2,5.9,94,82.4,5.9,88,88.2,5.9,94,88.2,5.9,94,91.2,5.9,97,5.9,0,N/A
Dunham Elementary,public,9850 E 29th St,Tucson,Pima,85748-,N/A,,39,97.4,0,97,100,0,100,100,0,100,100,0,100,100,0,100,0,0,N/A
Dysart Elementary School,public,12950 W. Varney Road,El Mirage,Maricopa,85335-,N/A,,111,97.3,2.7,100,97.3,2.7,100,97.3,2.7,100,98.2,1.8,100,97.3,2.7,100,3.6,0,N/A
Eagle College Prep,charter,2450 W South Mountain Ave,Phoenix,Maricopa,85041-,N/A,,75,96,4,100,96,4,100,96,4,100,94.7,5.3,100,96,4,100,5.3,0,N/A
Eagle College Prep Mesa,charter,1619 E Main Street,Mesa,Maricopa,85203-,N/A,,38,84.2,7.9,92,92.1,7.9,100,89.5,7.9,97,92.1,7.9,100,92.1,7.9,100,7.9,0,N/A
Eagle College Prep: Maryvale,charter,3950 N. 53rd Ave,Phoenix,Maricopa,85031-,N/A,,49,95.9,4.1,100,89.8,10.2,100,89.8,10.2,100,98,2,100,95.9,4.1,100,8.2,0,N/A
Eagle Harmony,charter,2435 E. Pecan Road,Phoenix,Maricopa,85040-,N/A,,47,89.4,8.5,98,89.4,8.5,98,89.4,8.5,98,89.4,8.5,98,91.5,8.5,100,8.5,0,N/A
Eagle Ridge Elementary School,public,19801 N. 13th Street,Phoenix,Maricopa,85024-,N/A,,85,95.3,3.5,99,94.1,4.7,99,96.5,2.4,99,96.5,2.4,99,97.6,2.4,100,4.7,0,N/A
Eagleridge Enrichment Program,public,1313 W Medina Ave,Mesa,Maricopa,85202-6610,N/A,,83,57.8,42.2,100,57.8,42.2,100,56.6,43.4,100,55.4,44.6,100,100,0,100,48.2,0,N/A
Echo Mountain Primary School,public,1750 E. Grover's Ave.,Phoenix,Maricopa,85022-,N/A,,161,95,3.7,99,95.7,3.7,99,96.9,3.1,100,95.7,3.7,99,96.9,3.1,100,3.1,.6,N/A
Ed & Verma Pastor,public,2101 W. Alta Vista Rd,Phoenix,Maricopa,85041-,N/A,,62,100,0,100,100,0,100,100,0,100,100,0,100,100,0,100,0,0,N/A
Edison Elementary,public,545 N. Horne,Mesa,Maricopa,85203-,N/A,,99,94.9,3,98,96,3,99,97,3,100,96,3,99,100,0,100,3,0,N/A
Edison Elementary School,public,804 North 18th Street,Phoenix,Maricopa,85006-,N/A,,83,92.8,1.2,94,91.6,0,92,96.4,0,96,98.8,0,99,100,0,100,1.2,0,N/A
Eduprize School,charter,4567 West Roberts Road,Queen Creek,Pinal,85142-,N/A,,227,99.6,0,100,93.4,4.8,98,93,4.8,98,93,4.8,98,95.2,4.8,100,4.8,0,N/A
Eduprize School,charter,580 W. Melody Ave.,Gilbert,Maricopa,85233-____,N/A,,197,88.3,11.7,100,87.3,12.7,100,88.3,11.7,100,88.8,11.2,100,87.3,12.2,99,12.2,0,N/A
Eisenhower Elementary School,public,848 N Mesa Dr,Mesa,Maricopa,85201-,N/A,,82,97.6,2.4,100,97.6,2.4,100,97.6,2.4,100,98.8,1.2,100,100,0,100,2.4,0,N/A
El Mirage Elementary School,public,13500 El Mirage Road,El Mirage,Maricopa,85335-,N/A,,89,97.8,2.2,100,97.8,2.2,100,96.6,1.1,98,100,0,100,100,0,100,2.2,0,N/A
Eliseo C Felix,public,540 E La Pasada,Goodyear,Maricopa,85338-,N/A,,68,100,0,100,100,0,100,100,0,100,100,0,100,100,0,100,0,0,N/A
Ellsworth Elementary,public,38454 N Carolina,San Tan Valley,Pinal,85140-,N/A,,68,83.8,13.2,97,75,20.6,96,76.5,22.1,99,83.8,13.2,97,85.3,13.2,99,22.1,0,N/A
Elvira Elementary School,public,250 W Elvire Rd.,Tucson,Pima,85756-,N/A,,111,99.1,.9,100,99.1,.9,100,99.1,.9,100,99.1,.9,100,99.1,.9,100,.9,0,N/A
Emerson,public,415 N. Westwood,Mesa,Maricopa,85201-,N/A,,123,94.3,3.3,98,95.9,4.1,100,96.7,3.3,100,96.7,3.3,100,100,0,100,4.1,.8,N/A
Encanto School,public,1420 W. Osborn Rd.,Phoenix,Maricopa,85013-,N/A,,164,89,1.8,91,89,1.8,91,90.2,1.8,92,93.3,0,93,93.3,4.9,98,0,1.8,N/A
Entz Elelmentary,public,4132 East Adobe Street,Mesa,Maricopa,85205-5510,N/A,,90,95.6,4.4,100,95.6,4.4,100,95.6,4.4,100,95.6,4.4,100,100,0,100,6.7,0,N/A
Erickson Elementary,public,6750 E. Stella Road,Tucson,Pima,85730-,N/A,,73,95.9,4.1,100,95.9,4.1,100,95.9,4.1,100,98.6,1.4,100,98.6,1.4,100,4.1,2.7,N/A
Esmond Station School,public,9400 S Atterbury Wash Way,Tucson,Pima,85747-,N/A,,48,100,0,100,100,0,100,100,0,100,100,0,100,100,0,100,0,0,N/A
Esperanza Elementary,public,251 W. Mohawk Lane,Phoenix,Maricopa,85027-,N/A,,78,96.2,2.6,99,94.9,2.6,97,96.2,2.6,99,97.4,2.6,100,98.7,1.3,100,1.3,1.3,N/A
Esperanza Elementary School,public,3025 W. Mcdowell Rd,Phoenix,Maricopa,85009-,N/A,,117,97.4,0,97,99.1,0,99,98.3,1.7,100,100,0,100,100,0,100,1.7,0,N/A
Esperanza Elementary School,public,2353 E. Bantam Road,Tucson,Pima,85706-,N/A,,104,99,0,99,99,0,99,99,0,99,100,0,100,100,0,100,0,0,N/A
Espiritu Cdc,charter,4848 S. 2nd Street,Phoenix,Maricopa,85040-____,N/A,,83,78.3,0,78,79.5,0,80,79.5,0,80,90.4,0,90,0,94,94,0,0,N/A
Estes Elementary School,public,11179 W Grier Rd,Marana,Pima,85653-,N/A,,121,95.9,3.3,99,96.7,3.3,100,97.5,2.5,100,97.5,2.5,100,97.5,2.5,100,2.5,.8,N/A
Estrella Mountain Elementary,public,10301 S. San Miguel,Goodyear,Maricopa,85338-,N/A,,66,90.9,9.1,100,90.9,9.1,100,90.9,9.1,100,90.9,9.1,100,92.4,7.6,100,9.1,0,N/A
Estrella Vista Elementary,public,11905 West Cocopah,Avondale,Maricopa,85323-,N/A,,117,91.5,0,91,94.9,0,95,93.2,0,93,98.3,0,98,99.1,0,99,0,0,N/A
Eva Marshall,public,850 Bonito,Flagstaff,Coconino,86001-,N/A,,109,94.5,3.7,98,94.5,3.7,98,93.6,3.7,97,96.3,3.7,100,97.2,2.8,100,3.7,0,N/A
Evergreen Elementary,public,1000 North Amarillo Road,Casa Grande,Pinal,85122-,N/A,,71,100,0,100,100,0,100,100,0,100,100,0,100,100,0,100,0,0,N/A
Excelencia School,public,2181 E Mcdowell,Phoenix,Maricopa,85006-,N/A,,80,97.5,0,98,100,0,100,100,0,100,100,0,100,100,0,100,0,0,N/A
Faith North,public,910 E. Washington,Phoenix,Maricopa,85034-,N/A,,46,93.5,4.3,98,89.1,8.7,98,93.5,6.5,100,93.5,6.5,100,91.3,8.7,100,8.7,0,N/A
Falcon Hill Elementary,public,1645 N Sterling,Mesa,Maricopa,85207-,N/A,,74,97.3,2.7,100,98.6,1.4,100,95.9,2.7,99,97.3,2.7,100,98.6,1.4,100,5.4,0,N/A
Faras Elementary School,public,Po Box 1237,Douglas,Cochise,85608-,N/A,,29,100,0,100,100,0,100,100,0,100,100,0,100,100,0,100,0,0,N/A
Field Elementary,public,2325 East Adobe,Mesa,Maricopa,85213-,N/A,,81,95.1,2.5,98,95.1,2.5,98,87.7,2.5,90,92.6,2.5,95,97.5,2.5,100,2.5,0,N/A
Finley Farms Elementary,public,375 S. Columbus,Gilbert,Maricopa,85234-,N/A,,109,93.6,5.5,99,92.7,5.5,98,88.1,6.4,94,100,0,100,92.7,7.3,100,10.1,0,N/A
Fireside Elementary School,public,3725 East Lone Cactus Drive,Phoenix,Maricopa,85050-,N/A,,118,94.9,5.1,100,93.2,6.8,100,90.7,9.3,100,94.1,5.9,100,95.8,4.2,100,9.3,0,N/A
Flora Thew Elementary,public,2130 E. Howe Ave.,Tempe,Maricopa,85281-,N/A,,111,99.1,.9,100,99.1,.9,100,99.1,.9,100,100,0,100,100,0,100,.9,0,N/A
Florence K-8,public,Po Box 2850,Florence,Pinal,85132-,N/A,,77,88.3,5.2,94,83.1,5.2,88,79.2,5.2,84,93.5,5.2,99,90.9,5.2,96,5.2,0,N/A
Foothills Elementary,public,15808 N. 63rd Ave.,Glendale,Maricopa,85306-,N/A,,49,93.9,4.1,98,93.9,4.1,98,89.8,4.1,94,93.9,4.1,98,95.9,4.1,100,4.1,0,N/A
Ford Es,public,8001 E. Stella Rd,Tucson,Pima,85730-,N/A,,71,95.8,1.4,97,97.2,1.4,99,97.2,1.4,99,100,0,100,100,0,100,1.4,0,N/A
Fort Mojave Elementary School,charter,1760 Joy Lane,Fort Mohave,Mohave,86426-,N/A,,44,88.6,4.5,93,95.5,4.5,100,88.6,4.5,93,95.5,4.5,100,95.5,4.5,100,4.5,0,N/A
Fort Thomas Elementary,public,Po Box 55,Fort Thomas,Graham,85536-,N/A,,54,100,0,100,100,0,100,100,0,100,100,0,100,100,0,100,0,0,N/A
Four Peaks Elementary School,public,1785 N. Idaho Rd.,Apache Junction,Pinal,85119-,N/A,,84,94,6,100,94,6,100,92.9,6,99,94,6,100,94,0,94,6,0,N/A
Frances Brandon Pickett Elementary,public,22076 E Village Loop Dr ,Queen Creek ,Maricopa,85142-,N/A,,90,95.6,4.4,100,94.4,5.6,100,95.6,4.4,100,96.7,2.2,99,97.8,2.2,100,5.6,0,N/A
Frances Owen Holaway Elementary School,public,3500 N. Cherry Ave,Tucson,Pima,85719-,N/A,,53,96.2,1.9,98,96.2,1.9,98,98.1,1.9,100,100,0,100,100,0,100,1.9,0,N/A
Frank Borman School,public,3637 N 55th Ave,Phoenix,Maricopa,85031-,N/A,,101,92.1,0,92,95,0,95,94.1,0,94,96,0,96,99,0,99,0,0,N/A
Frank Elementary School,public,8409 S. Avenida Del Yaqui,Guadalupe,Maricopa,85283-,N/A,,99,98,1,99,99,1,100,99,1,100,99,1,100,99,1,100,1,0,N/A
Franklin At Alma Elementary,public,1313 W Medina Ave,Mesa,Maricopa,85202-6610,N/A,,54,94.4,5.6,100,94.4,5.6,100,92.6,7.4,100,94.4,5.6,100,100,0,100,5.6,1.9,N/A
Franklin At Brimhall Elementary,public,4949 E Southern Ave,Mesa,Maricopa,85206-,N/A,,148,92.6,7.4,100,93.9,6.1,100,91.2,8.8,100,94.6,5.4,100,100,0,100,10.8,1.4,N/A
Franklin East Elementary,public,1753 E. 8th Ave,Mesa,Maricopa,85204-3617,N/A,,125,92,8,100,92,8,100,90.4,9.6,100,92,8,100,100,0,100,10.4,.8,N/A
Franklin Phonetic Primary School,charter,6116 E. Hwy 69,Prescott Valley,Yavapai,86314-,N/A,,56,89.3,8.9,98,89.3,5.4,95,89.3,5.4,95,92.9,7.1,100,96.4,3.6,100,8.9,0,N/A
Franklin West Elementary,public,236 S Sirrine,Mesa,Maricopa,85210-1689,N/A,,92,87,13,100,89.1,10.9,100,88,12,100,92.4,7.6,100,92.4,7.6,100,14.1,1.1,N/A
Fredonia Elementary,public,Po Box 247,Fredonia,Coconino,86022-,N/A,,28,75,21.4,96,78.6,21.4,100,75,21.4,96,78.6,21.4,100,85.7,14.3,100,10.7,3.6,N/A
Freedom Academy,charter,15014 N 56th Street ,Scottsdale,Maricopa,85254-,N/A,,25,88,12,100,88,12,100,88,12,100,88,12,100,88,12,100,12,0,N/A
Freedom Elementary School,public,22150 West Sundance Parkway South,Buckeye,Maricopa,85326-5560,N/A,,83,94,2.4,96,96.4,2.4,99,96.4,1.2,98,96.4,2.4,99,98.8,1.2,100,2.4,2.4,N/A
Frontier Elementary School,public,21258 N. 81st Ave,Peoria,Maricopa,85382-,N/A,,56,92.9,7.1,100,92.9,7.1,100,92.9,7.1,100,92.9,7.1,100,92.9,7.1,100,7.1,0,N/A
Frye Elementary School,public,801 East Frye Road,Chandler,Maricopa,85225-,N/A,,83,94,6,100,95.2,4.8,100,94,6,100,95.2,4.8,100,98.8,1.2,100,8.4,0,N/A
Fuller Elementary,public,1975 E Cornell  Dr,Tempe,Maricopa,85283-,N/A,,115,96.5,3.5,100,96.5,3.5,100,96.5,3.5,100,97.4,2.6,100,99.1,.9,100,3.5,0,N/A
G Frank Davidson,public,6935 W Osborne Rd,Phoenix,Maricopa,85033-,N/A,,98,100,0,100,100,0,100,100,0,100,100,0,100,100,0,100,0,0,N/A
Gadsden Elementary School,public,18745 S. Gadsden St.,San Luis ,Yuma,85349-,N/A,,67,100,0,100,100,0,100,100,0,100,100,0,100,100,0,100,0,0,N/A
Gale Elementary,public,678 S Gollob Rd.,Tucson,Pima,85710-,N/A,,60,96.7,1.7,98,96.7,1.7,98,95,5,100,95,3.3,98,96.7,3.3,100,5,0,N/A
Gallego Basic Elementary School,public,6200 S. Hemisphere Place,Tucson,Cochise,85706-,N/A,,129,99.2,0,99,100,0,100,99.2,0,99,100,0,100,100,0,100,0,0,N/A
Galveston,public,661 E. Galveston,Chandler,Maricopa,85225-,N/A,,107,99.1,.9,100,99.1,.9,100,100,0,100,100,0,100,100,0,100,.9,0,N/A
Ganado Unified School District #20,public,P.o. Box 1757,Ganado,Apache,86505-,N/A,,128,100,0,100,100,0,100,100,0,100,100,0,100,100,0,100,0,0,N/A
Garden Lakes Elementary School,public,10825 W Garden Lakes Parkway,Avondale,Maricopa,85392-,N/A,,76,97.4,1.3,99,98.7,1.3,100,97.4,1.3,99,100,0,100,100,0,100,1.3,0,N/A
Garfield School,public,1811 N 13th St ,Phoenix,Maricopa,85006-,N/A,,53,100,0,100,98.1,0,98,100,0,100,100,0,100,100,0,100,0,0,N/A
Gary A. Knox Elementary School,public,2926 S21st Drive ,Yuma,Yuma,85364-,N/A,,134,100,0,100,100,0,100,100,0,100,100,0,100,100,0,100,0,0,N/A
Gateway,public,"1100 N, 35th Street",Phoenix,Maricopa,85008-,N/A,,89,100,0,100,100,0,100,100,0,100,100,0,100,100,0,100,0,0,N/A
Gateway Pointe Elementary,public,2069 S. Dela Torre Dr.,Gilbert,Maricopa,85295-,N/A,,104,99,1,100,99,1,100,99,1,100,99,1,100,99,1,100,1,0,N/A
Gavilan Peak School,public,2701 W. Memorial Dr.,Anthem,Maricopa,85086-,N/A,,63,85.7,12.7,98,85.7,11.1,97,88.9,11.1,100,90.5,9.5,100,90.5,9.5,100,11.1,1.6,N/A
George Washington Carver,public,1341 W. 5th St.,Yuma,Yuma,85364-,N/A,,80,96.3,0,96,92.5,0,93,93.8,0,94,97.5,0,98,100,0,100,0,0,N/A
Gila Bend Unified School District #24,public,P.o. Box V,Gila Bend,Maricopa,85337-,N/A,,52,98.1,0,98,98.1,0,98,94.2,0,94,98.1,0,98,100,0,100,0,0,N/A
Gila Crossing School,public, P.o. Box 38,Sacaton,Maricopa,85147-,N/A,,68,91.2,1.5,93,92.6,1.5,94,95.6,1.5,97,98.5,1.5,100,98.5,1.5,100,1.5,0,N/A
Gilbert Arts Academy ,charter,862 E Elliott Road ,Gilbert ,Maricopa,85234-,N/A,,31,54.8,19.4,74,58.1,19.4,77,64.5,19.4,84,74.2,19.4,94,80.6,19.4,100,19.4,0,N/A
Gilbert Christian Schools,private,1424 South Promenade Lane,Gilbert,Maricopa,85296-,N/A,,53,88.7,11.3,100,83,17,100,79.2,20.8,100,88.7,11.3,100,92.5,7.5,100,20.8,0,N/A
Gilbert Elementary,public,175 W. Elliot Rd.,Gilbert,Maricopa,85233-,N/A,,77,97.4,1.3,99,100,0,100,97.4,2.6,100,98.7,1.3,100,100,0,100,2.6,0,N/A
Glendale American School,public,8530 N. 55th Ave,Glendale,Maricopa,85302-,N/A,,97,95.9,0,96,97.9,0,98,96.9,0,97,96.9,0,97,100,0,100,0,0,N/A
Glendale Landmark Middle School,public,5730 W. Myrtle Ave,Glendale,Maricopa,85301-,N/A,,107,99.1,.9,100,99.1,.9,100,99.1,.9,100,99.1,.9,100,100,0,100,.9,0,N/A
Glenn F Burton School,public,4801 W. Maryland,Glendale,Maricopa,85301-,N/A,,79,96.2,1.3,97,97.5,1.3,99,97.5,1.3,99,98.7,1.3,100,100,0,100,0,1.3,N/A
Glenn L. Downs,public,3600 N 47th,Phoenix,Maricopa,85031-,N/A,,77,96.1,0,96,98.7,0,99,98.7,0,99,98.7,0,99,100,0,100,0,0,N/A
Grace Community,private,1200 E Southern Ave,Tempe,Maricopa,85282-,N/A,,21,95.2,4.8,100,95.2,4.8,100,95.2,4.8,100,95.2,4.8,100,95.2,4.8,100,9.5,4.8,N/A
Granada Primary School,public,3232 W Campbell,Phoenix,Maricopa,85017-,N/A,,215,99.1,.5,100,99.1,.5,100,99.1,.5,100,98.6,.5,99,99.5,.5,100,.5,0,N/A
Granville Elementary,public,5250 Stover Drive,Prescott Valley,Yavapai,86314-,N/A,,99,88.9,4,93,91.9,4,96,92.9,4,97,92.9,4,97,93.9,6.1,100,6.1,0,N/A
Grayhawk Elementary School,public,7525 E. Grayhawk Drive,Scottsdale,Maricopa,85255-,N/A,,65,90.8,3.1,94,89.2,3.1,92,89.2,4.6,94,89.2,3.1,92,95.4,3.1,98,3.1,1.5,N/A
Great Expectations Academy,charter,1466 W. Camino Antigua,Sahuarita,Pima,85629-,N/A,,38,97.4,2.6,100,97.4,2.6,100,97.4,2.6,100,97.4,2.6,100,97.4,2.6,100,2.6,0,N/A
Great Hearts Academies - Archway Chandler,charter,1951 N. Alma School Road,Chandler,Maricopa,85225-,N/A,,84,92.9,7.1,100,94,6,100,94,6,100,92.9,7.1,100,92.9,7.1,100,9.5,0,N/A
Great Hearts Academies - Archway Scottsdale,charter,7496 E. Tierra Buena Lane,Scottsdale,Maricopa,85260-,N/A,,88,96.6,3.4,100,95.5,4.5,100,96.6,3.4,100,96.6,2.3,99,97.7,2.3,100,4.5,1.1,N/A
Great Hearts Academies - Archway Trivium,charter,14130 W Mcdowell Rd  St.222,Goodyear,Maricopa,85395-,N/A,,82,93.9,6.1,100,93.9,6.1,100,92.7,7.3,100,93.9,6.1,100,97.6,2.4,100,9.8,0,N/A
Greenbrier Elementary School,public,6150 W. Greenbrier Dr,Glendale,Maricopa,85308-,N/A,,76,84.2,7.9,92,86.8,7.9,95,84.2,7.9,92,89.5,7.9,97,93.4,6.6,100,7.9,0,N/A
Greenfield Elementary,public,2550 E. Elliot Rd.,Gilbert,Maricopa,85234-,N/A,,95,96.8,3.2,100,95.8,4.2,100,92.6,7.4,100,96.8,3.2,100,96.8,3.2,100,7.4,0,N/A
Greenway Elementary School,public,100 Old Bisbee Rd,Bisbee,Cochise,85603-,N/A,,44,97.7,0,98,100,0,100,100,0,100,97.7,0,98,100,0,100,0,0,N/A
Griffith Elementary School,public,4505 E Palm Lane,Phoenix,Maricopa,85008-,N/A,,68,82.4,0,82,82.4,0,82,83.8,0,84,98.5,0,99,85.3,0,85,0,0,N/A
Grijalva Elementary,public,1795 W. Drexel,Tucson,Pima,85746-,N/A,,106,99.1,.9,100,99.1,.9,100,99.1,.9,100,99.1,0,99,100,0,100,.9,0,N/A
Guerrero,public,463 S. Alma School Rd.,Mesa,Maricopa,85210-,N/A,,108,97.2,0,97,100,0,100,100,0,100,100,0,100,100,0,100,0,0,N/A
H.l. Suverkrup School,public,1590 Ave C,Yuma,Yuma,85364-,N/A,,74,98.6,1.4,100,98.6,1.4,100,98.6,1.4,100,100,0,100,98.6,1.4,100,0,1.4,N/A
Hale Elementary,public,1425 N. 23rd St.,Mesa,Maricopa,85213-,N/A,,68,95.6,4.4,100,95.6,4.4,100,97.1,2.9,100,97.1,2.9,100,100,0,100,4.4,0,N/A
Haley Elementary,public,3401 S. Layton Lakes Blvd ,Chandler,Maricopa,85286-,N/A,,142,97.2,2.8,100,97.2,2.8,100,95.8,4.2,100,96.5,3.5,100,97.9,2.1,100,5.6,0,N/A
Happy Valley East,charter,266 E Westbrooke Rd,San Tan Valley,Maricopa,85140-,N/A,,152,90.1,9.9,100,90.1,9.9,100,89.5,9.9,99,91.4,8.6,100,92.1,7.9,100,9.9,0,N/A
Happy Valley School ,charter,7140 W. Happy Valley Rd ,Peoria ,Maricopa,85383-,N/A,,135,97,3,100,96.3,3.7,100,97,3,100,94.8,5.2,100,97,3,100,5.9,0,N/A
Harold Steele Elementary School,public,700 S. Sarnoff Drive,Tucson,Pima,85710-,N/A,,44,93.2,2.3,95,93.2,2.3,95,97.7,2.3,100,97.7,2.3,100,97.7,2.3,100,2.3,0,N/A
Harold W Smith School,public,6534 N. 63rd Ave,Glendale,Maricopa,85301-,N/A,,112,100,0,100,100,0,100,100,0,100,100,0,100,100,0,100,.9,.9,N/A
Harris Elementary,public,1820 S Harris Dr,Mesa,Maricopa,85204-,N/A,,65,98.5,1.5,100,96.9,3.1,100,96.9,3.1,100,96.9,3.1,100,95.4,4.6,100,4.6,0,N/A
Hartford Sylvia Encinas ,public,700 N. Hartford,Chandler,Maricopa,85225-,N/A,,98,96.9,3.1,100,96.9,3.1,100,96.9,3.1,100,96.9,3.1,100,96.9,3.1,100,3.1,0,N/A
Harvest Preparatory Academy,charter,350 East 18th Street,Yuma,Yuma,85364-,N/A,,31,100,0,100,100,0,100,100,0,100,100,0,100,100,0,100,0,0,N/A
Harvest Preparatory Academy,charter,350 East 18th Street,Yuma,Yuma,85364-,N/A,,31,100,0,100,100,0,100,100,0,100,100,0,100,100,0,100,0,0,N/A
Harvest Preparatory Academy,charter,350 East 18th Street,Yuma,Yuma,85364-,N/A,,31,100,0,100,100,0,100,100,0,100,100,0,100,100,0,100,0,0,N/A
Hassayampa Elementary,charter,251 South Tegner Street,Wickenburg,Maricopa,85390-,N/A,,70,97.1,2.9,100,97.1,2.9,100,94.3,4.3,99,95.7,2.9,99,94.3,4.3,99,4.3,0,N/A
Havasu Preparatory Academy ,charter,3155 Maricopa Avenue,Lake Havasu City,Mohave,86406-,N/A,,32,96.9,3.1,100,90.6,9.4,100,87.5,12.5,100,100,0,100,100,0,100,9.4,0,N/A
Havaupai,public,880 Cashmere Dr,Lake Havasu City,Mohave,86404-,N/A,,51,92.2,5.9,98,92.2,5.9,98,90.2,5.9,96,96.1,3.9,100,94.1,3.9,98,5.9,0,N/A
Hawthorne Elementarty,public,630 N. Hunt Dr.,Mesa,Maricopa,85203-,N/A,,82,98.8,1.2,100,98.8,1.2,100,98.8,1.2,100,98.8,0,99,100,0,100,1.2,0,N/A
Hearn Academy,charter,17606 N 7th Ave,Phoenix,Maricopa,85023-,N/A,,59,100,0,100,100,0,100,100,0,100,100,0,100,100,0,100,0,0,N/A
Heartland Ranch Elementary,public,1667 W Caroline Street,Coolidge,Pinal,85128-,N/A,,62,95.2,3.2,98,96.8,3.2,100,96.8,3.2,100,96.8,3.2,100,96.8,3.2,100,3.2,0,N/A
Heatherbrae,public,7070 W Heatherbrae,Phoenix,Maricopa,85033-,N/A,,121,98.3,0,98,95.9,0,96,100,0,100,100,0,100,100,0,100,.8,.8,N/A
Henry Elementary,public,650 N. Igo Way,Tucson,Pima,85710-,N/A,,78,100,0,100,100,0,100,100,0,100,98.7,0,99,100,0,100,0,0,N/A
Heritage,public,5312 W. Mountain View Road,Glendale,Maricopa,85302-2200,N/A,,52,90.4,1.9,92,94.2,1.9,96,90.4,1.9,92,96.2,1.9,98,98.1,1.9,100,1.9,0,N/A
Heritage Elementary,charter,6805 N 125th Avenue,Glendale,Maricopa,85307-,N/A,,92,90.2,0,90,89.1,0,89,95.7,0,96,97.8,0,98,95.7,0,96,0,0,N/A
Hermosa Montessori Charter School,charter,12051 E Fort Lowell Rd,Tucson,Pima,85749-,N/A,,35,88.6,11.4,100,88.6,11.4,100,82.9,17.1,100,88.6,11.4,100,94.3,5.7,100,22.9,0,N/A
Hermosa Vista Elementary,public,2626 N 24th St,Mesa,Maricopa,85213-,N/A,,108,93.5,6.5,100,93.5,6.5,100,91.7,8.3,100,94.4,5.6,100,100,0,100,7.4,0,N/A
Hidden Hills Elementary School,public,1919 East Sharon Drive,Phoenix,Maricopa,85022-,N/A,,71,95.8,2.8,99,97.2,2.8,100,97.2,2.8,100,98.6,1.4,100,98.6,1.4,100,2.8,0,N/A
Highland Elementary School,public,3042 E. Adobe St.,Mesa,Maricopa,85213-,N/A,,94,92.6,7.4,100,92.6,7.4,100,91.5,8.5,100,92.6,7.4,100,100,0,100,11.7,0,N/A
Highland Lakes School,public,19000 N. 63rd Ave.,Glendale,Maricopa,85308-,N/A,,65,90.8,9.2,100,92.3,7.7,100,92.3,7.7,100,95.4,4.6,100,95.4,4.6,100,10.8,0,N/A
Highland Park Elementary School,public,230 North Cole Drive,Gilbert,Maricopa,85234-,N/A,,147,92.5,7.5,100,93.9,6.1,100,91.8,8.2,100,94.6,5.4,100,95.2,4.8,100,8.2,0,N/A
Highland Primary,public,682 School Bus Lane,Snowflake,Navajo,85937-,N/A,,111,85.6,12.6,98,89.2,10.8,100,85.6,12.6,98,91,9,100,92.8,7.2,100,12.6,0,N/A
Higley Traditional Academy,public,3391 E Vest Ave,Gilbert,Maricopa,85295,N/A,,112,93.8,6.3,100,94.6,5.4,100,92.9,7.1,100,97.3,2.7,100,100,0,100,8,0,N/A
Hirsch Academy A Challenge Foundation,charter,6535 E Osborn Rd Suite 401,Scottsdale,Maricopa,85251-,N/A,,42,57.1,0,57,76.2,0,76,54.8,0,55,92.9,0,93,59.5,0,60,0,0,N/A
Hohokam Traditional,public,Hohokam Traditional School,Scottsdale,Maricopa,85257-,N/A,,63,100,0,100,100,0,100,100,0,100,100,0,100,100,0,100,0,0,N/A
Holdeman,public,1823 W. 18th Street,Tempe,Maricopa,85281-,N/A,,127,96.1,3.1,99,96.9,3.1,100,96.1,3.1,99,96.9,3.1,100,96.9,3.1,100,3.1,0,N/A
Holiday Park,public,4417 N 66th Ave,Phoenix,Maricopa,85033-,N/A,,119,99.2,0,99,95.8,0,96,99.2,0,99,100,0,100,100,0,100,0,0,N/A
Holladay ,public,1110 E 33 Street,Tucson,Pima,85713-,N/A,,42,100,0,100,100,0,100,100,0,100,100,0,100,100,0,100,0,0,N/A
Hollinger K-8,public,150 W. Ajo Way,Tucson,Pima,85713-,N/A,,55,100,0,100,100,0,100,100,0,100,100,0,100,100,0,100,0,0,N/A
Holmes Elementary,public,948 S Horne ,Mesa,Maricopa,85204-4122,N/A,,118,99.2,.8,100,100,0,100,99.2,.8,100,99.2,.8,100,100,0,100,0,.8,N/A
Homer Davis Elementary,public,4250 N Romero Rd,Tucson,Pima,85705-,N/A,,77,100,0,100,100,0,100,100,0,100,100,0,100,100,0,100,0,0,N/A
Hopi,public,5110 E. Lafayette Blvd.,Phoenix,Maricopa,85018-4433,N/A,,109,97.2,1.8,99,96.3,1.8,98,95.4,1.8,97,96.3,2.8,99,100,0,100,2.8,0,N/A
Horizon Community Learning Center (k-6th),charter,16233 S 48th St.,Phoenix,Maricopa,85048-____,N/A,,84,86.9,13.1,100,86.9,13.1,100,90.5,9.5,100,91.7,8.3,100,95.2,4.8,100,13.1,0,N/A
Horizon School,public,8520 N. 47th Ave,Glendale,Maricopa,85202-,N/A,,90,97.8,1.1,99,98.9,1.1,100,97.8,1.1,99,100,0,100,100,0,100,1.1,0,N/A
Horseshoe Trails Elementary School,charter,P.o. Box 426,Cave Creek,Maricopa,85327-,N/A,,86,87.2,12.8,100,87.2,12.8,100,86,14,100,89.5,10.5,100,88.4,11.6,100,14,0,N/A
Houston Elementary,public,500 E. Houston Ave.,Gilbert,Maricopa,85234-,N/A,,60,93.3,6.7,100,93.3,6.7,100,93.3,6.7,100,93.3,6.7,100,95,5,100,8.3,0,N/A
Huachuca City School,public,100 School Drive,Huachuca City,Cochise,85616-,N/A,,32,96.9,3.1,100,96.9,3.1,100,96.9,3.1,100,96.9,3.1,100,96.9,3.1,100,0,3.1,N/A
Huachuca Mountain Elementary School,public,3228 St. Andrews Drive,Sierra Vista,Cochise,85650-,N/A,,96,100,0,100,100,0,100,100,0,100,100,0,100,100,0,100,0,0,N/A
Hualapai Elementary,public,350 Eastern Ave,Kingman,Mohave,86401-,N/A,,133,94,4.5,98,94,4.5,98,94,4.5,98,97.7,2.3,100,97.7,2.3,100,4.5,0,N/A
Hudlow,public,502 N. Caribe,Tucson,Pima,85710-,N/A,,58,93.1,3.4,97,93.1,3.4,97,91.4,3.4,95,89.7,3.4,93,94.8,3.4,98,3.4,1.7,N/A
Hudson Elementary School,public,1325 E. Malibu Dr.,Tempe,Maricopa,85283-,N/A,,92,96.7,0,97,96.7,0,97,96.7,0,97,97.8,0,98,100,0,100,0,0,N/A
Hughes Elementary,public,700 N Wilson,Tucson,Pima,85719-,N/A,,45,97.8,2.2,100,97.8,2.2,100,97.8,2.2,100,97.8,2.2,100,97.8,2.2,100,2.2,0,N/A
Humboldt Elementary School,public,2750 S. Corral St.,Humboldt,Yavapai,86329-,N/A,,35,88.6,8.6,97,88.6,8.6,97,88.6,8.6,97,82.9,8.6,91,88.6,8.6,97,8.6,0,N/A
Hurly Ranch Elementary,public,8950w. Illini St.,Tolleson,Maricopa,85353-,N/A,,161,97.5,.6,98,98.1,.6,99,98.1,.6,99,96.3,.6,97,100,0,100,.6,0,N/A
I. G. Conchos,public,1718 W. Vineyard Rd.,Phoenix,Maricopa,85041-,N/A,,43,95.3,4.7,100,97.7,2.3,100,97.7,2.3,100,97.7,2.3,100,97.7,2.3,100,2.3,2.3,N/A
Imagine Avondale Middle,charter,950 N Eliseo Felix Jr Way,Avondale,Maricopa,85323-,N/A,,100,90,10,100,93,7,100,90,10,100,91,9,100,96,4,100,16,0,N/A
Imagine Bell Canyon,charter,18052 N Black Canyon Highway,Phoenix,Maricopa,85053-,N/A,,76,96.1,2.6,99,96.1,2.6,99,96.1,2.6,99,96.1,2.6,99,98.7,0,99,2.6,0,N/A
Imagine Camelback Elementary,charter,5050 N 19th Ave,Phoenix,Maricopa,85015-,N/A,,62,100,0,100,100,0,100,98.4,0,98,100,0,100,100,0,100,0,0,N/A
Imagine Desert West Elementary,charter,6738 W Mcdowell Rd,Phoenix,Maricopa,85035-,N/A,,133,96.2,.8,97,97,.8,98,97,.8,98,99.2,.8,100,98.5,.8,99,.8,0,N/A
Imagine Rosefield,charter,12050 N Bullard Ave,Surprise,Maricopa,85379-,N/A,,118,86.4,13.6,100,86.4,13.6,100,85.6,14.4,100,89.8,10.2,100,89,11,100,14.4,0,N/A
Imagine Schools East Mesa,charter,9701 E. Southern Avenue,Mesa,Maricopa,85209-,N/A,,106,94.3,5.7,100,94.3,5.7,100,75.5,5.7,81,93.4,5.7,99,93.4,5.7,99,5.7,0,N/A
Imagine Tempe School ,charter,1538 E. Southern Ave. ,Tempe ,Maricopa,85282-,N/A,,42,83.3,16.7,100,83.3,16.7,100,78.6,16.7,95,85.7,14.3,100,85.7,14.3,100,16.7,0,N/A
Imagine West Gilbert Elementary,charter,2061 S. Gilbert Rd,Gilbert,Maricopa,85295-,N/A,,72,87.5,9.7,97,87.5,9.7,97,88.9,9.7,99,90.3,9.7,100,90.3,9.7,100,9.7,0,N/A
Immaculate Heart School,private,410 E. Magee Road,Tucson,Pima,85704-,N/A,,25,96,4,100,96,4,100,92,8,100,96,4,100,96,4,100,8,0,N/A
Inca Elementary,public,23601 W. Durango St.,Buckeye,Maricopa,85326-,N/A,,60,85,15,100,85,15,100,85,15,100,85,15,100,85,15,100,15,0,N/A
Incito Schools,charter,877 N Sarival Avenue,Goodyear ,Maricopa,85388-,N/A,,45,66.7,11.1,78,57.8,11.1,69,51.1,11.1,62,64.4,11.1,76,68.9,11.1,80,11.1,0,N/A
Indian Bend Elementary School,public,3633 E. Thunderbird Rd.,Phoenix,Maricopa,85032-,N/A,,79,97.5,2.5,100,97.5,2.5,100,94.9,3.8,99,97.5,2.5,100,98.7,1.3,100,3.8,0,N/A
Indian Oasis Elementary Schoo,public,P.o. Box 248,Sells,Pima,85634-248,N/A,,110,100,0,100,100,0,100,100,0,100,100,0,100,100,0,100,0,0,N/A
Indian Wells Elementary,public,P.o. Box 640,Holbrook,Navajo,86025-,N/A,,52,100,0,100,100,0,100,100,0,100,100,0,100,100,0,100,0,0,N/A
Ira A Murphy,public,7231 W North Lane,Peoria,Maricopa,85345-,N/A,,51,96.1,0,96,98,0,98,100,0,100,98,0,98,100,0,100,0,0,N/A
Ira A. Fulton Elementary,public,4750 S. Sunland Dr.,Chandler ,Maricopa,85248-,N/A,,130,94.6,5.4,100,95.4,4.6,100,94.6,5.4,100,96.9,3.1,100,96.9,3.1,100,5.4,.8,N/A
Ironwood Elementary ,public,1500 N Colorado Street,Casa Grande ,Pinal,85122-,N/A,,61,96.7,3.3,100,96.7,3.3,100,96.7,3.3,100,96.7,3.3,100,96.7,3.3,100,3.3,0,N/A
Ironwood Elementary School,public,14850 N. 39th Avenue,Phoenix,Maricopa,85053-4599,N/A,,75,94.7,5.3,100,94.7,5.3,100,92,6.7,99,94.7,5.3,100,96,4,100,6.7,1.3,N/A
Ironwood Elementary School,public,3300 West Freer Drive,Tucson,Pima,85742-,N/A,,93,96.8,3.2,100,96.8,3.2,100,96.8,3.2,100,96.8,3.2,100,96.8,3.2,100,3.2,0,N/A
Irving Elementary School ,public,3220 E Pueblo Ave,Mesa,Maricopa,85204-,N/A,,77,88.3,10.4,99,89.6,10.4,100,87,10.4,97,90.9,9.1,100,100,0,100,10.4,0,N/A
Isaac E Imes School,public,6625 N. 56th Ave,Glendale,Maricopa,85301-,N/A,,71,97.2,0,97,97.2,0,97,98.6,0,99,97.2,0,97,100,0,100,0,0,N/A
Ishikawa Elementary School,public,2635 N 32nd St,Mesa,Maricopa,85213-1662,N/A,,104,90.4,9.6,100,91.3,8.7,100,92.3,7.7,100,89.4,7.7,97,100,0,100,9.6,0,N/A
Islands Elementary School,public,245 S Mcqueen Rd,Gilbert,Maricopa,85233-,N/A,,71,88.7,11.3,100,88.7,11.3,100,87.3,12.7,100,90.1,9.9,100,90.1,9.9,100,11.3,1.4,N/A
J. Robert Hendricks,public,3400 W. Orange Grove Road,Tucson,Pima,85741-,N/A,,86,96.5,3.5,100,95.3,4.7,100,96.5,3.5,100,96.5,3.5,100,96.5,3.5,100,4.7,0,N/A
J.b.sutton Elementary ,public,1001 N. 31st Avenue ,Phoenix,Maricopa,85009-,N/A,,147,94.6,0,95,94.6,0,95,98,0,98,95.9,0,96,96.6,0,97,0,0,N/A
Jack Barnes Elementary School,public,20750 S 214th St,Queen Creek,Maricopa,85142-,N/A,,101,93.1,6.9,100,94.1,5.9,100,92.1,7.9,100,94.1,5.9,100,100,0,100,8.9,0,N/A
Jack Daley Primary School,public,3500 W 2nd St,Thatcher,Graham,85552-,N/A,,135,89.6,0,90,89.6,0,90,88.9,0,89,93.3,0,93,100,0,100,9.6,0,N/A
Jack Harmon Elementary,public,39315 N Cortona Dr,San Tan Valley,Pinal,85140-,N/A,,61,91.8,8.2,100,91.8,8.2,100,93.4,6.6,100,93.4,6.6,100,93.4,6.6,100,8.2,0,N/A
Jack L Kuban Elementary School,public,3201 W Shermanst,Phoenix,Maricopa,85009-,N/A,,49,100,0,100,100,0,100,100,0,100,100,0,100,100,0,100,0,0,N/A
Jacob C. Fruchthendler,public,7470 E Cloud Rd,Tucson,Pima,85750-,N/A,,51,96.1,3.9,100,96.1,3.9,100,96.1,3.9,100,96.1,3.9,100,96.1,3.9,100,3.9,0,N/A
Jamaica Elementary,public,3437 Jamaica Blvd.s,Lake Havasu City,Mohave,86406-,N/A,,76,90.8,9.2,100,90.8,9.2,100,88.2,11.8,100,90.8,9.2,100,90.8,9.2,100,11.8,0,N/A
James B. Rolle Elementary,public,2711 Engler Ave.,Yuma,Yuma,85365-,N/A,,101,99,1,100,99,1,100,99,1,100,99,0,99,100,0,100,1,0,N/A
Jane Dee Hull Elementary,public,2424 E. Maren Drive,Chandler,Maricopa,85249-,N/A,,116,93.1,6.9,100,94,6,100,93.1,6.9,100,93.1,6,99,96.6,3.4,100,10.3,0,N/A
Jb Wright Elementary ,public,4311 E Linden ,Tucson,Pima,85712-,N/A,,98,93.9,1,95,98,1,99,96.9,1,98,91.8,3.1,95,100,0,100,1,2,N/A
Jefferson Elementary School,public,120 S. Jefferson,Mesa,Maricopa,85208-,N/A,,79,97.5,1.3,99,97.5,2.5,100,97.5,1.3,99,97.5,2.5,100,98.7,1.3,100,2.5,0,N/A
Joe Carlson Elementary,public,1701 N. Louis Avenue,Douglas,Cochise,85607-,N/A,,53,94.3,0,94,98.1,0,98,98.1,0,98,100,0,100,100,0,100,0,0,N/A
John F. Kennedy,public,6825 S. 10th Street,Phoenix,Maricopa,85042-,N/A,,141,97.9,.7,99,98.6,.7,99,99.3,.7,100,99.3,.7,100,99.3,.7,100,.7,0,N/A
John F. Kennedy Elementary,public,1500 Sunset Drive,Superior,Pinal,85173-,N/A,,30,100,0,100,100,0,100,100,0,100,100,0,100,100,0,100,0,0,N/A
John F. Long,public,4407 N 55th Ave,Phoenix,Maricopa,85031-,N/A,,143,97.9,.7,99,97.9,.7,99,99.3,.7,100,98.6,.7,99,100,0,100,.7,0,N/A
John Jacobs,public,14421 N. 23rd Ave,Phoenix,Maricopa,85023-,N/A,,81,97.5,1.2,99,97.5,2.5,100,97.5,2.5,100,100,0,100,100,0,100,3.7,0,N/A
John Q Thomas Elementary School,public,3330 E. Lockett,Flagstaff,Coconino,86004-,N/A,,75,94.7,4,99,96,0,96,94.7,0,95,97.3,0,97,98.7,0,99,4,0,N/A
John R. Davis School,public,6209 S. 15th Avenue,Phoenix,Maricopa,85041-,N/A,,50,100,0,100,100,0,100,100,0,100,100,0,100,100,0,100,0,0,N/A
Johnson Elementary,public,6060 S Joseph Ave,Tucson,Pima,85757-,N/A,,95,96.8,0,97,97.9,0,98,98.9,0,99,100,0,100,100,0,100,0,0,N/A
Johnson Elementary School,public,3807 E Pueblo Ave ,Mesa,Maricopa,85206-,N/A,,69,87,7.2,94,87,5.8,93,88.4,5.8,94,91.3,5.8,97,98.6,0,99,5.8,1.4,N/A
Joseph City School Elementary School,public,Po Box 8,Joseph City,Navajo,86032-,N/A,,37,89.2,10.8,100,89.2,10.8,100,89.2,10.8,100,89.2,10.8,100,86.5,13.5,100,13.5,0,N/A
Joseph Zito Elementary School,public,4525 W.encanto,Phoenix,Maricopa,85035-,N/A,,137,94.9,2.2,97,96.4,2.2,99,99.3,.7,100,99.3,.7,100,100,0,100,2.2,0,N/A
Joy Christian School,private,21000 N 75th Ave,Glendale ,Maricopa,85308-,N/A,,46,87,13,100,89.1,10.9,100,89.1,10.9,100,91.3,8.7,100,95.7,4.3,100,15.2,0,N/A
Kachina Elementary School,public,5304 W. Crocus ,Glendale,Maricopa,85306-,N/A,,36,97.2,2.8,100,97.2,2.8,100,97.2,2.8,100,97.2,2.8,100,97.2,2.8,100,2.8,0,N/A
Kaizen Education Foundation Dba Advance U,charter,449 E. Southern Ave,Phoenix,Maricopa,85040-,N/A,,41,90.2,0,90,82.9,0,83,70.7,0,71,85.4,0,85,97.6,0,98,0,0,N/A
Kaizen Foundation Dba Discover U,charter,13226 N 113th Ave,Youngtown,Maricopa,85363-,N/A,,38,81.6,18.4,100,89.5,10.5,100,89.5,10.5,100,89.5,10.5,100,97.4,2.6,100,21.1,0,N/A
Keeling Elementary,public,2837 N. Los Altos,Tucson,Pima,85705-,N/A,,87,97.7,1.1,99,98.9,1.1,100,98.9,1.1,100,100,0,100,98.9,1.1,100,1.1,0,N/A
Keller Elementary,public,1445 E. Hilton Ave.,Mesa,Maricopa,85204-5938,N/A,,72,100,0,100,100,0,100,100,0,100,100,0,100,100,0,100,0,0,N/A
Kenilworth,public,1210 North 5th Avenue,Phoenix,Maricopa,85003-,N/A,,62,100,0,100,100,0,100,100,0,100,100,0,100,100,0,100,0,0,N/A
Kerr Elementary,public,125 E. Mclellan,Mesa,Maricopa,85201-,N/A,,105,95.2,4.8,100,97.1,2.9,100,96.2,2.9,99,99,1,100,100,0,100,3.8,0,N/A
Keystone Montessori,private,1025 E. Liberty Lane,Phoenix,Maricopa,85048-,N/A,,34,61.8,11.8,74,64.7,14.7,79,55.9,14.7,71,82.4,14.7,97,88.2,11.8,100,17.6,2.9,N/A
Khalsa Montessori Elementary School - Phoenix,charter,2536 North 3rd Street,Phoenix,Maricopa,85004-,N/A,,27,85.2,3.7,89,88.9,3.7,93,44.4,3.7,48,88.9,3.7,93,96.3,3.7,100,3.7,0,N/A
Khalsa School,charter,3701 E River Rd,Tucson,Pima,85718-,N/A,,42,90.5,9.5,100,90.5,9.5,100,90.5,9.5,100,88.1,9.5,98,90.5,9.5,100,7.1,2.4,N/A
Kingman Academy Of Learning,charter,3400 N. Burbank,Kingman,Mohave,86401-,N/A,,98,91.8,8.2,100,91.8,8.2,100,89.8,10.2,100,94.9,5.1,100,93.9,6.1,100,10.2,0,N/A
Kingswood Elementary,public,15150 West Mondel Road,Surprise,Maricopa,85374-,N/A,,61,95.1,1.6,97,95.1,1.6,97,93.4,1.6,95,98.4,1.6,100,96.7,1.6,98,1.6,0,N/A
Kiva Elementary School,public,6911 E Mcdonald Dr,Paradise Valley,Maricopa,85253-,N/A,,70,92.9,5.7,99,94.3,5.7,100,94.3,5.7,100,94.3,5.7,100,95.7,4.3,100,7.1,1.4,N/A
Knox Gifted Academy,public,700 W. Orchid Lane,Chandler,Maricopa,85225-,N/A,,42,100,0,100,100,0,100,100,0,100,100,0,100,100,0,100,0,0,N/A
Kyrene De La Colina,public,13612 S. 36th Street,Phoenix,Maricopa,85044-,N/A,,86,97.7,2.3,100,97.7,2.3,100,97.7,2.3,100,97.7,2.3,100,97.7,2.3,100,2.3,0,N/A
Kyrene De La Esperanza,public,14841 S. 41st St.,Phoenix,Maricopa,85044-,N/A,,82,96.3,3.7,100,96.3,3.7,100,95.1,3.7,99,97.6,2.4,100,97.6,2.4,100,4.9,0,N/A
Kyrene De La Estrella Elementary School,public,2620 E Liberty Lane,Phoenix,Maricopa,85048-,N/A,,66,98.5,1.5,100,95.5,4.5,100,97,3,100,95.5,4.5,100,100,0,100,6.1,0,N/A
Kyrene De La Mariposa,public,50 E Knox Rd,Tempe,Maricopa,85284-,N/A,,90,94.4,3.3,98,94.4,3.3,98,94.4,3.3,98,98.9,0,99,100,0,100,3.3,0,N/A
Kyrene De La Mirada,public,5500 W. Galveston,Chandler,Maricopa,85226-,N/A,,72,91.7,8.3,100,90.3,9.7,100,90.3,9.7,100,91.7,8.3,100,100,0,100,12.5,0,N/A
Kyrene De La Sierra,public,1122 East Liberty Lane,Phoenix,Maricopa,85048-,N/A,,82,98.8,1.2,100,98.8,1.2,100,98.8,1.2,100,97.6,2.4,100,98.8,1.2,100,2.4,0,N/A
Kyrene De Las Brisas School,public,777 N. Desert Breeze Blvd. E. #1,Chandler,Maricopa,85226-,N/A,,115,89.6,1.7,91,90.4,1.7,92,91.3,1.7,93,97.4,1.7,99,97.4,1.7,99,1.7,0,N/A
Kyrene De Las Lomas,public,11820 S. Warner Elliot Loop,Phoenix,Maricopa,85044-,N/A,,102,95.1,2.9,98,94.1,2.9,97,94.1,3.9,98,96.1,2,98,98,2,100,3.9,0,N/A
Kyrene De Las Manitas,public,1201 W. Courtney Lane,Tempe,Maricopa,85284-,N/A,,95,89.5,9.5,99,91.6,7.4,99,91.6,8.4,100,91.6,7.4,99,95.8,4.2,100,5.3,5.3,N/A
Kyrene De Los Cerritos School,public,14620 S. Desert Foothills Parkway,Phoenix,Maricopa,85048-,N/A,,62,95.2,4.8,100,95.2,4.8,100,95.2,4.8,100,91.9,6.5,98,95.2,4.8,100,6.5,0,N/A
Kyrene De Los Lagos,public,17001 S. 34th Way,Phoenix,Maricopa,85048-,N/A,,90,94.4,5.6,100,94.4,5.6,100,94.4,5.6,100,95.6,4.4,100,97.8,2.2,100,5.6,0,N/A
Kyrene De Los Ninos School,public,1330 E. Dava Dr.,Tempe,Maricopa,85283-,N/A,,116,98.3,1.7,100,98.3,1.7,100,97.4,2.6,100,98.3,1.7,100,98.3,1.7,100,2.6,0,N/A
Kyrene De Milenio,public,4630 E Frye Rd,Phoenix,Maricopa,85048-,N/A,,104,89.4,6.7,96,88.5,6.7,95,87.5,7.7,95,90.4,6.7,97,93.3,6.7,100,7.7,0,N/A
Kyrene Del Cielo,public,1350 N. Lakeshore Dr.,Tempe,Maricopa,85226-7208,N/A,,121,97.5,2.5,100,97.5,2.5,100,96.7,3.3,100,96.7,3.3,100,97.5,2.5,100,4.1,0,N/A
Kyrene Del Norte,public,1331 E. Redfield Road,Tempe,Maricopa,85283-,N/A,,77,93.5,6.5,100,92.2,7.8,100,93.5,6.5,100,96.1,3.9,100,100,0,100,7.8,0,N/A
Kyrene Monte Vista,public,15221 S. Ray Rd.,Phoenix,Maricopa,85048-,N/A,,83,96.4,3.6,100,96.4,3.6,100,95.2,4.8,100,97.6,2.4,100,96.4,3.6,100,4.8,0,N/A
Kyrene Traditional Academy Sureno,public,3375 W. Galveston Street,Chandler,Maricopa,85226-,N/A,,90,92.2,7.8,100,93.3,6.7,100,91.1,8.9,100,94.4,5.6,100,96.7,3.3,100,8.9,0,N/A
L.m. Prince Elementary,public,125 E Prince Rd Tucson Az 85705,Tucson,Pima,85705-,N/A,,102,91.2,0,91,88.2,0,88,92.2,0,92,94.1,0,94,97.1,0,97,0,0,N/A
La Paloma Academy (lakeside),charter,8140 E. Golf Links Rd.,Tucson ,Pima,85730-,N/A,,109,95.4,1.8,97,96.3,1.8,98,95.4,1.8,97,98.2,.9,99,99.1,.9,100,1.8,0,N/A
La Paloma Academy - Central,charter,2050 N. Wilmot Rd.,Tucson,Pima,85712-,N/A,,87,97.7,0,98,100,0,100,100,0,100,100,0,100,100,0,100,0,0,N/A
La Paloma Academy South,charter,5660 S. 12th Ave,Tucson,Pima,85706-,N/A,,51,100,0,100,100,0,100,100,0,100,100,0,100,100,0,100,0,0,N/A
La Tierra Community School,charter,124 N Virginia St,Prescott,Yavapai,86301-3224,N/A,,21,38.1,52.4,90,33.3,47.6,81,38.1,47.6,86,42.9,47.6,90,42.9,47.6,90,47.6,0,N/A
Lafe Nelson School,public,1100 10th Ave.,Safford,Graham,85546-,N/A,,86,90.7,3.5,94,93,3.5,97,91.9,3.5,95,96.5,3.5,100,97.7,2.3,100,3.5,0,N/A
Laguna,public,5001 N Shannon Road,Tucson,Pima,85705-,N/A,,52,100,0,100,100,0,100,100,0,100,98.1,0,98,100,0,100,0,0,N/A
Laguna Elementary,public,10475 E Lakewiew Dr ,Scottsdale,Maricopa,85258-,N/A,,76,90.8,5.3,96,89.5,5.3,95,90.8,5.3,96,92.1,5.3,97,100,0,100,5.3,0,N/A
Laird School ,public,1500 North Scovel,Tempe,Maricopa,85281-,N/A,,59,100,0,100,100,0,100,100,0,100,100,0,100,100,0,100,0,0,N/A
Lake Pleasant Elementary,public,31501 N Westland Rd,Peoria,Maricopa,85383-,N/A,,45,93.3,2.2,96,95.6,2.2,98,93.3,2.2,96,93.3,2.2,96,97.8,2.2,100,2.2,0,N/A
Lake Valley Elementary School,public,3900 N. Starlight Dr.,Prescott,Yavapai,86314-,N/A,,47,95.7,2.1,98,97.9,2.1,100,95.7,4.3,100,97.9,2.1,100,97.9,2.1,100,4.3,0,N/A
Lake View Primary,public,Po Box 1927,Page,Coconino,86040-1927,N/A,,217,97.7,0,98,98.2,0,98,97.7,0,98,97.7,0,98,98.2,0,98,1.4,2.3,N/A
Lakeview School,public,3040 W Yucca St,Phoenix,Maricopa,85029-,N/A,,72,91.7,2.8,94,95.8,2.8,99,97.2,2.8,100,98.6,0,99,98.6,1.4,100,2.8,0,N/A
Larkspur Elementary School,charter,2430 East Larkspur,Phoenix,Maricopa,85032-,N/A,,72,88.9,9.7,99,93.1,6.9,100,90.3,9.7,100,94.4,5.6,100,94.4,5.6,100,9.7,0,N/A
Larry C. Kennedy Elementary,public,2702 E. Osborn Rd.,Phoenix,Maricopa,85016-,N/A,,71,97.2,1.4,99,97.2,1.4,99,97.2,1.4,99,95.8,2.8,99,98.6,1.4,100,1.4,1.4,N/A
Las Brisas Elementary School,public,5805 W. Alameda ,Glendale,Maricopa,85310-,N/A,,81,91.4,7.4,99,92.6,7.4,100,91.4,7.4,99,91.4,7.4,99,93.8,6.2,100,7.4,0,N/A
Las Sendas Elementary School,public,3120 N Red Mountain,Mesa,Maricopa,85207-,N/A,,94,96.8,3.2,100,94.7,5.3,100,96.8,3.2,100,95.7,4.3,100,100,0,100,5.3,0,N/A
Lattie Coor,public,1406 N. Central Ave,Avondale,Maricopa,85323-,N/A,,106,96.2,.9,97,98.1,.9,99,97.2,.9,98,98.1,.9,99,99.1,.9,100,.9,0,N/A
Laveen Elementary School,public,4141 W Mcneil,Laveen,Maricopa,85339-,N/A,,94,95.7,4.3,100,95.7,4.3,100,95.7,4.3,100,94.7,4.3,99,96.8,3.2,100,4.3,0,N/A
Leading Edge Academy - Maricopa,charter,17800 N. Porter Rd.,Maricopa,Pinal,85138,N/A,,44,95.5,4.5,100,95.5,4.5,100,95.5,4.5,100,95.5,4.5,100,95.5,4.5,100,4.5,0,N/A
Leading Edge Academy - Queek Creek,charter,4815 W. Hunt Highway,Queen Creek ,Pinal,85142-,N/A,,67,85.1,3,88,83.6,3,87,80.6,4.5,85,79.1,3,82,89.6,3,93,3,0,N/A
Learning Foundation And Performing Arts,charter,5761 E. Brown Rd.,Mesa,Maricopa,85205-,N/A,,21,81,0,81,90.5,0,90,81,0,81,95.2,0,95,100,0,100,0,0,N/A
Learning Foundation And Performing Arts Warner,charter,3939 W. Warner Road,Gilbert,Maricopa,85296-,N/A,,75,89.3,10.7,100,90.7,9.3,100,85.3,14.7,100,92,8,100,92,8,100,14.7,0,N/A
Legacy,charter,7618 E. University Dr.,Mesa,Maricopa,85205-____,N/A,,26,88.5,11.5,100,84.6,15.4,100,76.9,23.1,100,92.3,7.7,100,92.3,7.7,100,23.1,0,N/A
Legacy Traditional,charter,12320 W Van Buren St,Avondale ,Maricopa,85323-,N/A,,123,92.7,7.3,100,92.7,7.3,100,93.5,6.5,100,95.1,4.9,100,93.5,6.5,100,7.3,0,N/A
Legacy Traditional,charter,3500 W. Cortaro Farms Rd.,Tucson,Pima,85742-,N/A,,144,88.2,11.8,100,90.3,9.7,100,88.9,11.1,100,90.3,9.7,100,93.1,6.9,100,5.6,0,N/A
Legacy Traditional Laveen Campus,charter,7900 S 43rd Ave ,Laveen,Maricopa,85339-,N/A,,80,82.5,3.8,86,83.8,3.8,88,83.8,3.8,88,86.3,2.5,89,87.5,2.5,90,6.3,0,N/A
Legacy Traditional School - Casa Grande,charter,1274 E O'neil Dr ,Casa Grande,Pinal,85122-,N/A,,113,95.6,4.4,100,95.6,4.4,100,95.6,4.4,100,97.3,2.7,100,97.3,2.7,100,5.3,0,N/A
Legacy Traditional School - Maricopa,charter,11760 N Regent Dr.,Maricopa ,Pinal,85138-,N/A,,140,96.4,3.6,100,96.4,3.6,100,96.4,3.6,100,95.7,4.3,100,95.7,4.3,100,4.3,0,N/A
"Legacy Traditional School, Athlos",charter,3201 S Gilbert Rd,Chandler,Maricopa,85286-,N/A,,141,92.9,7.1,100,92.9,7.1,100,91.5,8.5,100,92.2,7.8,100,91.5,8.5,100,14.2,0,N/A
Legacy Traditional Schools Gilbert,charter,2747 S Recker Rd,Gilbert,Maricopa,85295-,N/A,,106,90.6,9.4,100,91.5,8.5,100,88.7,11.3,100,92.5,7.5,100,93.4,6.6,100,11.3,0,N/A
Legacy Traditional/ Queen Creek,charter,41800 N. Barnes Pkwy,San Tan Valley,Pinal,85140-,N/A,,110,85.5,14.5,100,84.5,15.5,100,85.5,14.5,100,91.8,8.2,100,93.6,.9,95,13.6,0,N/A
Legend Springs Elementary,public,21150 N. Arrowhead Loop Road,Glendale,Maricopa,85308-,N/A,,90,100,0,100,100,0,100,97.8,2.2,100,98.9,1.1,100,97.8,2.2,100,3.3,1.1,N/A
Lehi Elementary,public,2555 N Stapley Dr,Mesa,Maricopa,85203-,N/A,,56,92.9,7.1,100,96.4,3.6,100,96.4,3.6,100,96.4,3.6,100,100,0,100,3.6,3.6,N/A
Leupp Public School,public,3285 E Sparrow,Flagstaff,Coconino,86004-,N/A,,28,96.4,0,96,96.4,0,96,96.4,0,96,100,0,100,100,0,100,0,0,N/A
Liberty Arts Academy,charter,3015 S. Power Rd.,Mesa,Maricopa,85212-,N/A,,35,80,20,100,80,20,100,77.1,22.9,100,80,20,100,80,20,100,22.9,0,N/A
Liberty Elementary,public,5125 E. Marilyn Rd.,Scottsdale,Maricopa,85254-,N/A,,82,95.1,2.4,98,97.6,2.4,100,96.3,3.7,100,96.3,2.4,99,93.9,6.1,100,4.9,1.2,N/A
Liberty Elementary,public,19818 W Hwy 85,Buckeye,Maricopa,85326-,N/A,,59,89.8,5.1,95,91.5,6.8,98,93.2,3.4,97,93.2,3.4,97,94.9,3.4,98,5.1,1.7,N/A
Liberty Gifted And Talented Magnet School,public,5495 South Liberty Ave.,Tucson,Pima,85706-,N/A,,124,97.6,.8,98,98.4,.8,99,97.6,.8,98,100,0,100,100,0,100,.8,0,N/A
Liberty Traditional Charter - Saddleback Campus,charter,3715 N. Washington Ave,Douglas,Cochise,85607,N/A,,26,100,0,100,100,0,100,96.2,0,96,96.2,0,96,100,0,100,0,0,N/A
Liberty Traditional Charter School,charter,4027 N 45th Ave,Phoenix,Maricopa,85031-,N/A,,29,96.6,0,97,100,0,100,100,0,100,100,0,100,100,0,100,0,0,N/A
Liberty Traditional School,public,3300 N Lake Valley Rd,Prescott Valley,Yavapai,86314-,N/A,,91,95.6,4.4,100,95.6,4.4,100,94.5,5.5,100,95.6,4.4,100,97.8,2.2,100,5.5,1.1,N/A
Lincoln Elementary,public,652 N Tyler Ave,Nogales,Santa Cruz,85621-,N/A,,68,100,0,100,100,0,100,100,0,100,100,0,100,100,0,100,0,0,N/A
Lincoln Elementary School,public,930 S Sirrine,Mesa,Maricopa,85210-,N/A,,108,99.1,0,99,100,0,100,100,0,100,100,0,100,100,0,100,0,0,N/A
Lincoln Elementary School,public,Lincoln Elementary School,Prescott,Yavapai,86303-3719,N/A,,41,85.4,14.6,100,87.8,12.2,100,85.4,14.6,100,80.5,19.5,100,85.4,14.6,100,19.5,0,N/A
Lindbergh Elementary,public,930 S Lazona Ave,Mesa,Maricopa,85204-,N/A,,73,100,0,100,100,0,100,100,0,100,100,0,100,100,0,100,0,0,N/A
Linden Elementary School,public,500 W. Old Linden Rd.,Show Low,Navajo,85901-,N/A,,27,92.6,7.4,100,92.6,7.4,100,92.6,7.4,100,96.3,3.7,100,88.9,11.1,100,7.4,3.7,N/A
Lineweaver Elementary,public,461 S. Bryant,Tucson,Pima,85711-,N/A,,65,98.5,1.5,100,98.5,1.5,100,98.5,1.5,100,96.9,1.5,98,98.5,1.5,100,1.5,1.5,N/A
Litchfield Elementary School,public,255 E Wigwam Blvd,Litchfield Park,Maricopa,85340-,N/A,,126,97.6,1.6,99,96,2.4,98,95.2,4,99,97.6,1.6,99,96.8,3.2,100,3.2,.8,N/A
Little Red School,public,Hc2  Box 50,Nogales,Santa Cruz,85621-,N/A,,22,100,0,100,100,0,100,100,0,100,100,0,100,100,0,100,0,0,N/A
Littleton Elementary School,public,1252 S. Avondale Blvd,Avondale,Maricopa,85323-,N/A,,81,90.1,3.7,94,90.1,3.7,94,92.6,3.7,96,91.4,3.7,95,100,0,100,3.7,0,N/A
Loma Linda School,public,2002 E Clarendon Ave,Phoenix,Maricopa,85016-,N/A,,63,100,0,100,98.4,1.6,100,100,0,100,100,0,100,100,0,100,0,1.6,N/A
Lone Mountain Elementary School,charter,P.o. Box 426,Cave Creek,Maricopa,85327-,N/A,,75,86.7,13.3,100,86.7,13.3,100,86.7,13.3,100,89.3,10.7,100,89.3,10.7,100,13.3,0,N/A
Longfellow Elementary School,public,345 S. Hall St.,Mesa,Maricopa,85204-,N/A,,111,98.2,.9,99,99.1,.9,100,99.1,.9,100,99.1,.9,100,99.1,.9,100,.9,0,N/A
Longview Elementary School,public,1209 E. Indian School Rd.,Phoenix,Maricopa,85014-,N/A,,87,90.8,1.1,92,89.7,1.1,91,88.5,1.1,90,95.4,1.1,97,96.6,1.1,98,1.1,0,N/A
Lookout Mountain,public,15 W. Coral Gables Dr. ,Phoenix,Maricopa,85023-,N/A,,169,94.1,5.3,99,94.7,5.3,100,94.1,5.3,99,95.9,4.1,100,97.6,2.4,100,5.3,0,N/A
Lorettocatholic School,private,1200 14th Street,Douglas,Cochise,85607-,N/A,,22,100,0,100,100,0,100,100,0,100,100,0,100,100,0,100,0,0,N/A
Los Amigos Elementary,public,2200 E Drexel,Tucson,Pima,85706-,N/A,,116,97.4,0,97,98.3,0,98,99.1,0,99,100,0,100,100,0,100,0,0,N/A
Los Ninos Elementary,public,5445 S. Alvernon Way,Tucson,Pima,85706-,N/A,,73,100,0,100,100,0,100,100,0,100,100,0,100,100,0,100,0,0,N/A
Lowell Elementary,public,920 E Broadway Rd,Mesa,Maricopa,85204-,N/A,,81,98.8,0,99,98.8,0,99,100,0,100,98.8,0,99,100,0,100,0,0,N/A
Lowell Elementary School,public,1121 South 3rd Ave.,Phoenix,Maricopa,85003-,N/A,,72,98.6,0,99,98.6,0,99,98.6,0,99,98.6,0,99,100,0,100,0,0,N/A
Luke School,public,7300 N Dysart Rd,Glendale,Maricopa,85307-,N/A,,83,91.6,4.8,96,95.2,2.4,98,95.2,4.8,100,96.4,2.4,99,97.6,2.4,100,10.8,0,N/A
Lulu Walker Elementary,public,1750 W. Roller Coaster Rd,Tucson,Pima,85704-,N/A,,87,98.9,1.1,100,97.7,1.1,99,98.9,1.1,100,98.9,1.1,100,98.9,1.1,100,1.1,0,N/A
Lura Kinsey Elementary,public,1601 S Lone Tree,Flagstaff,Coconino,86001-,N/A,,72,97.2,1.4,99,98.6,1.4,100,100,0,100,100,0,100,100,0,100,1.4,0,N/A
Lynn Urquides Elementary,public,1573 West Ajo Way ,Tucson,Pima,85713-,N/A,,99,96,0,96,100,0,100,100,0,100,99,0,99,100,0,100,0,0,N/A
Mabel Padgett Elementary,public,15430 W. Turney,Goodyear,Maricopa,85395-,N/A,,132,96.2,3.8,100,95.5,4.5,100,95.5,4.5,100,97,3,100,97,3,100,6.8,0,N/A
Macarthur Elementary,public,1435 E. Mclellan Rd.,Mesa,Maricopa,85203-,N/A,,81,92.6,7.4,100,91.4,8.6,100,92.6,7.4,100,93.8,6.2,100,100,0,100,7.4,0,N/A
Madison Camelview,public,2002 E Campbell Ave,Phoenix,Maricopa,85016-,N/A,,138,95.7,4.3,100,97.1,2.9,100,97.8,2.2,100,98.6,1.4,100,98.6,1.4,100,2.2,0,N/A
Madison Elementary,public,849 S. Sunnyvale,Mesa,Maricopa,85206-,N/A,,67,98.5,1.5,100,98.5,1.5,100,98.5,1.5,100,98.5,1.5,100,100,0,100,1.5,0,N/A
Madison Heights School,public,7150 N 22nd Street,Phoenix,Maricopa,85020-,N/A,,97,89.7,10.3,100,91.8,8.2,100,90.7,9.3,100,92.8,7.2,100,92.8,7.2,100,8.2,2.1,N/A
Madison Richard Simis School,public,7302 N. 10th Street,Phoenix,Maricopa,85020-,N/A,,146,89.7,4.8,90,91.8,4.1,92,89,4.8,89,91.1,4.8,91,84.2,6.8,84,8.2,0,N/A
Madison Rose Lane,public,1155 E Rose Lane,Phoenix,Maricopa,85014-,N/A,,174,92.5,6.3,99,93.7,6.3,100,93.1,6.9,100,95.4,4.6,100,94.3,5.7,100,9.8,0,N/A
Madison Traditional Academy,public,925 E Maryland,Phoenix,Maricopa,85014-,N/A,,78,97.4,2.6,100,94.9,5.1,100,92.3,7.7,100,94.9,3.8,99,94.9,5.1,100,9,0,N/A
Magma Ranch K-8,public,10980 E Desert Mountain Blvd,Florence,Pinal,85132-,N/A,,65,92.3,7.7,100,92.3,7.7,100,92.3,7.7,100,92.3,7.7,100,100,0,100,3.1,0,N/A
Magnet Traditional School,public,2602 N. 23rd Avenue,Phoenix,Maricopa,85009-,N/A,,55,100,0,100,100,0,100,100,0,100,100,0,100,100,0,100,0,0,N/A
Maie Bartlett Heard Elementary School,public,2301 W. Thomas Rd,Phoenix,Maricopa,85015-,N/A,,48,97.9,0,98,97.9,0,98,97.9,0,98,100,0,100,97.9,2.1,100,2.1,0,N/A
Maldonado,public,3535 W. Messala Way,Tucson,Pima,85746-,N/A,,55,100,0,100,100,0,100,100,0,100,100,0,100,100,0,100,0,0,N/A
Manuel Demiguel Elementary,public,3500 S. Gillenwater,Flagstaff,Coconino,86005-,N/A,,108,92.6,7.4,100,92.6,7.4,100,93.5,6.5,100,91.7,8.3,100,94.4,5.6,100,8.3,0,N/A
"Many Farms Community School, Inc.",private,2600 Lakeview Drive,Many Farms,Apache,86538-,N/A,,22,100,0,100,100,0,100,95.5,0,95,100,0,100,100,0,100,0,0,N/A
Many Farms Pub.sch./cusd.24 ,public,P.o. Box 587,Chinle,Apache,86503-,N/A,,43,100,0,100,100,0,100,100,0,100,100,0,100,100,0,100,0,0,N/A
Manzanita,public,2601 Detroit Ave,Kingman,Mohave,86401-,N/A,,142,96.5,2.1,99,95.8,2.1,98,96.5,2.1,99,96.5,2.1,99,97.2,2.1,99,2.1,0,N/A
Manzanita Elementary School,public,8430 N 39th Avenue,Phoenix,Maricopa,85051-4799,N/A,,110,96.4,0,96,99.1,0,99,99.1,0,99,98.2,0,98,100,0,100,0,0,N/A
Manzanita Elementary School ,public,3000 E Manzanita Ave ,Tucson ,Pima,85718-,N/A,,73,100,0,100,100,0,100,98.6,1.4,100,97.3,2.7,100,100,0,100,0,2.7,N/A
Manzo Elementary,public,855 N. Melrose Ave,Tucson,Pima,85745-,N/A,,45,93.3,0,93,97.8,0,98,97.8,0,98,100,0,100,100,0,100,0,0,N/A
Maricopa Elementary School,charter,18150 N. Alterra Parkway,Maricopa,Pinal,85139-,N/A,,115,94.8,5.2,100,96.5,3.5,100,95.7,4.3,100,99.1,.9,100,97.4,2.6,100,4.3,0,N/A
Marley Park Elementary School,public,15042 W. Sweetwater Ave,Surprise,Maricopa,85379-,N/A,,98,91.8,8.2,100,91.8,8.2,100,91.8,8.2,100,91.8,8.2,100,91.8,8.2,100,8.2,0,N/A
Marshall,public,9066 E. 29th,Tucson,Pima,85710-,N/A,,37,100,0,100,100,0,100,100,0,100,100,0,100,97.3,2.7,100,0,2.7,N/A
Marshall Ranch Elementary,public,12995 N. Marshall Ranch Dr.,Glendale,Maricopa,85304-,N/A,,59,96.6,0,97,96.6,0,97,96.6,0,97,96.6,0,97,100,0,100,1.7,0,N/A
Mary L Welty Elementary,public,1050 W Cimarron St ,Nogales ,Santa Cruz,85621-,N/A,,77,100,0,100,100,0,100,100,0,100,100,0,100,100,0,100,0,0,N/A
Mary Mcleod Bethune Elementary School,public,1310 S 15th Ave,Phoenix,Maricopa,85014-,N/A,,64,98.4,1.6,100,98.4,1.6,100,98.4,1.6,100,98.4,1.6,100,98.4,1.6,100,1.6,0,N/A
Maryland Elementary School,public,6503 N 21st Ave,Phoenix,Maricopa,85015-,N/A,,100,92,0,92,94,0,94,97,0,97,94,0,94,99,0,99,0,0,N/A
Maryvale Prepratory Academy,public,6301 W. Indian School Rd.,Phoenix,Maricopa,85033-,N/A,,58,91.4,8.6,100,91.4,8.6,100,91.4,8.6,100,91.4,8.6,100,91.4,8.6,100,8.6,0,N/A
Masada Charter School,charter,Po Box 2277,Colorado City,Mohave,86021-2277,N/A,,56,41.1,33.9,75,37.5,33.9,71,32.1,33.9,66,35.7,26.8,63,69.6,26.8,96,26.8,0,N/A
Math And Science Success Academy,charter,434 W. Lerdo Road,Tucson,Pima,85706-,N/A,,49,95.9,0,96,95.9,0,96,98,0,98,98,0,98,98,0,98,0,0,N/A
Maurice C. Cash Elementary School,public,3851 W Roeser,Phoenix,Maricopa,85041-,N/A,,121,95,0,95,94.2,0,94,91.7,0,92,99.2,0,99,99.2,0,99,0,0,N/A
Maxine O Bush Elementary School,public,602 E. Siesta Dr.,Phoenix,Maricopa,85042-,N/A,,50,98,2,100,98,2,100,98,2,100,100,0,100,100,0,100,0,2,N/A
Mayer Elementary School,public,P.o. Box 1059,Mayer,Yavapai,86333-1059,N/A,,35,82.9,17.1,100,82.9,17.1,100,82.9,17.1,100,82.9,17.1,100,82.9,17.1,100,17.1,0,N/A
Mccartney Ranch,public,2631 N. Brown Ave.,Casa Grande,Pinal,85122-,N/A,,124,98.4,1.6,100,98.4,1.6,100,98.4,1.6,100,99.2,.8,100,99.2,.8,100,1.6,0,N/A
Mccorkle Prek-8,public,4455 S Mission Rd,Tucson,Pima,85746-,N/A,,94,97.9,0,98,100,0,100,100,0,100,100,0,100,100,0,100,0,0,N/A
Mcdowell Mountain,public,14825 N Fayette Dr,Fountain Hills,Maricopa,85268-,N/A,,84,90.5,8.3,99,92.9,7.1,100,91.7,8.3,100,94,6,100,95.2,4.8,100,8.3,0,N/A
Melvin E. Sine,public,4932 W. Myrtle Ave. ,Glendale,Maricopa,85301-,N/A,,72,97.2,2.8,100,97.2,2.8,100,97.2,2.8,100,98.6,1.4,100,100,0,100,2.8,0,N/A
Mendoza Elementary,public,5831 Mclellan Road,Mesa,Maricopa,85205-,N/A,,59,91.5,5.1,97,98.3,1.7,100,98.3,1.7,100,98.3,1.7,100,96.6,3.4,100,6.8,0,N/A
Mercury Mine Elementary School,public,9640 N. 28th Street,Phoenix,Maricopa,85028-,N/A,,78,92.3,6.4,99,91,7.7,99,87.2,11.5,99,89.7,10.3,100,91,9,100,12.8,0,N/A
Meridian,public,3900 S. Mountain Road,Mesa,Maricopa,85212-,N/A,,120,95.8,3.3,99,95.8,4.2,100,95.8,4.2,100,96.7,2.5,99,96.7,3.3,100,4.2,0,N/A
Mesa Arts Academy,charter,221 West 6th Avenue,Mesa,Maricopa,85210-,N/A,,25,96,4,100,96,4,100,96,4,100,96,4,100,96,4,100,4,0,N/A
Mesa Verde,public,1661 W. Sage St,Tucson,Pima,85704-,N/A,,43,95.3,4.7,100,95.3,4.7,100,95.3,4.7,100,97.7,2.3,100,97.7,2.3,100,4.7,0,N/A
Mesa View Elementary School,public,P.o. Box 587,Chinle,Apache,86503-,N/A,,60,100,0,100,100,0,100,100,0,100,100,0,100,100,0,100,0,0,N/A
Mesquite Elementary,public,4451 W. 28th St.,Yuma,Yuma,85364-,N/A,,82,100,0,100,100,0,100,98.8,1.2,100,100,0,100,100,0,100,1.2,0,N/A
Mesquite Elementary,charter,9455 E. Rita Rd,Tucson,Pima,85747-,N/A,,123,97.6,2.4,100,98.4,1.6,100,99.2,.8,100,99.2,.8,100,99.2,.8,100,3.3,0,N/A
Mesquite Elementary,public,1000 E Mesquite St,Gilbert,Maricopa,85296-,N/A,,67,97,3,100,97,3,100,97,3,100,95.5,4.5,100,95.5,4.5,100,4.5,0,N/A
Mesquite Elementary School,public,129 N. Arizola Road,Casa Grande,Pinal,85122-,N/A,,72,95.8,2.8,99,94.4,4.2,99,95.8,4.2,100,98.6,1.4,100,97.2,2.8,100,4.2,0,N/A
Metcalf Elementary School,public,Po Box 1060,Morenci,Greenlee,85540-,N/A,,141,95.7,3.5,99,95.7,3.5,99,95.7,3.5,99,95.7,3.5,99,97.9,1.4,99,2.8,.7,N/A
Mexicayotl Academy,charter,667 N. 7th Ave,Tucson,Pima,85705-,N/A,,34,97.1,2.9,100,97.1,2.9,100,97.1,2.9,100,97.1,2.9,100,100,0,100,2.9,0,N/A
Michael Anderson,public,45 S. Third Av.,Avondale,Maricopa,85323-,N/A,,130,97.7,1.5,99,98.5,1.5,100,98.5,1.5,100,98.5,1.5,100,99.2,.8,100,1.5,0,N/A
Midtown Primary Charter School,charter,4735 North 19th Ave,Phoenix,Maricopa,85015-,N/A,,26,84.6,11.5,96,80.8,11.5,92,69.2,11.5,81,80.8,11.5,92,84.6,11.5,96,7.7,3.8,N/A
Miles Elementary,public,1400 E. Broadway Blvd.,Tucson,Pima,85719-,N/A,,26,88.5,7.7,96,88.5,7.7,96,88.5,11.5,100,84.6,11.5,96,92.3,7.7,100,11.5,3.8,N/A
Milestones,charter,4707 E Robert E Lee St,Phoenix,Maricopa,85032-,N/A,,50,96,4,100,96,4,100,96,4,100,96,4,100,96,4,100,4,0,N/A
Miller Elementarty,public,6951 S. Camino De La Tierra,Tucson,Pima,85746-,N/A,,100,98,1,99,99,1,100,98,1,99,98,1,99,99,1,100,1,0,N/A
Miller Valley Elementary,public,900 Iron Springs Road,Prescott,Yavapai,86305-,N/A,,39,92.3,5.1,97,89.7,5.1,95,79.5,5.1,85,89.7,5.1,95,89.7,5.1,95,5.1,0,N/A
Mirage Elementary,public,3910 W. Grovers,Glendale,Maricopa,85308-,N/A,,66,95.5,4.5,100,97,3,100,97,3,100,95.5,4.5,100,98.5,1.5,100,6.1,0,N/A
Mission Manor Elementary School,public,600 West Santa Rosa,Tucson,Pima,85711-,N/A,,79,98.7,0,99,100,0,100,98.7,0,99,100,0,100,100,0,100,0,0,N/A
Mission Montessori.com,charter,12990 E. Shea Blvd,Scottsdale,Maricopa,85259-,N/A,,39,71.8,7.7,79,71.8,7.7,79,69.2,10.3,79,87.2,5.1,92,89.7,7.7,97,10.3,0,N/A
Mission View,public,2600 S. 8th Ave,Tucson,Pima,85713-,N/A,,40,100,0,100,100,0,100,100,0,100,100,0,100,100,0,100,0,0,N/A
Mitchell Elementary,public,1700 North 41st Avenue,Phoenix,Maricopa,85009-,N/A,,134,97,0,97,97,0,97,97,0,97,99.3,0,99,99.3,0,99,0,0,N/A
Mohave Accelerated Learning Center,charter,625 Marina Blvd.,Bullhead City,Mohave,86442-,N/A,,68,91.2,1.5,93,91.2,1.5,93,92.6,1.5,94,98.5,0,99,100,0,100,0,1.5,N/A
Mohave Valley Elementary School,public,1419 E. Willow,Mohave Valley,Mohave,86440-,N/A,,58,89.7,5.2,95,89.7,5.2,95,89.7,5.2,95,94.8,5.2,100,100,0,100,5.2,0,N/A
Monte Vista School,public,3501 E. Osborn Rd.,Phoenix,Maricopa,85018-,N/A,,82,96.3,0,96,98.8,0,99,98.8,0,99,98.8,0,99,100,0,100,0,0,N/A
Montebello School,public,5725 N 27th Ave,Phoenix,Maricopa,85017-,N/A,,149,97.3,.7,98,98.7,.7,99,97.3,.7,98,96.6,1.3,98,99.3,.7,100,.7,.7,N/A
Montessori Academy,charter,6050 N Invergordon Rd.,Paradise Valley,Maricopa,85253-____,N/A,,31,90.3,9.7,100,90.3,9.7,100,83.9,16.1,100,87.1,12.9,100,90.3,9.7,100,3.2,9.7,N/A
Montessori Charter School Of Flagstaff - Campus,charter,575 W University Ave,Flagstaff,Coconino,86001-,N/A,,22,90.9,9.1,100,90.9,9.1,100,90.9,9.1,100,90.9,9.1,100,100,0,100,9.1,0,N/A
Montessori Day Schools,charter,9215 N. 14th Street,Phoenix,Maricopa,85020-,N/A,,33,81.8,18.2,100,81.8,18.2,100,81.8,18.2,100,81.8,18.2,100,81.8,18.2,100,15.2,3,N/A
Montessori Education Centre,charter,2834 E. Southern Avenue,Mesa,Maricopa,85204-____,N/A,,51,62.7,37.3,100,62.7,37.3,100,39.2,60.8,100,58.8,41.2,100,62.7,37.3,100,60.8,0,N/A
"Montessori Education Centre, North",charter,815 N. Gilbert Road,Mesa,Maricopa,85203-,N/A,,62,80.6,19.4,100,80.6,19.4,100,80.6,19.4,100,80.6,19.4,100,80.6,19.4,100,19.4,0,N/A
Montessori School Of Flagstaff - Sunnyside Campus,private,2025 N. East St.,Flagstaff,Coconino,86004-,N/A,,23,100,0,100,100,0,100,100,0,100,100,0,100,100,0,100,0,0,N/A
Moon Mountain Elementary School,public,14325 N. 19th Ave.,Phoenix,Maricopa,85029-,N/A,,115,95.7,1.7,97,97.4,1.7,99,96.5,1.7,98,98.3,1.7,100,98.3,1.7,100,1.7,0,N/A
Morgan Maxwell K-8,public,2802 W. Anklam Rd,Tucson,Pima,85745-,N/A,,44,97.7,0,98,95.5,0,95,97.7,0,98,100,0,100,100,0,100,0,0,N/A
Mosaica Prep Academy Of Chandler,charter,5835 W. Ray Rd,Chandler,Maricopa,85226-,N/A,,37,67.6,32.4,100,73,27,100,67.6,32.4,100,86.5,13.5,100,89.2,10.8,100,35.1,0,N/A
Mountain Meadows Primary,public,Pob 40,Overgaard,Navajo,85933-,N/A,,28,89.3,10.7,100,82.1,17.9,100,85.7,14.3,100,92.9,7.1,100,100,0,100,17.9,0,N/A
"Mountain School, Inc",charter,311 W. Cattle Dr. Trl,Flagstaff,Coconino,86005-____,N/A,,34,82.4,17.6,100,82.4,17.6,100,82.4,17.6,100,82.4,17.6,100,88.2,11.8,100,11.8,8.8,N/A
Mountain Shadows Elementary School,public,19602 N. 45th Avenue,Glendale,Maricopa,85308-,N/A,,58,94.8,5.2,100,93.1,6.9,100,93.1,6.9,100,94.8,5.2,100,94.8,5.2,100,6.9,0,N/A
Mountain View Elementary,public,1374 W. Frontage Rd.,Rio Rico,Santa Cruz,85648-,N/A,,75,100,0,100,100,0,100,100,0,100,100,0,100,100,0,100,0,0,N/A
Mountain View Elementary School,public,18302 W. Burton Ave,Waddell,Maricopa,85355-,N/A,,100,93,7,100,93,7,100,92,8,100,95,5,100,92,8,100,8,0,N/A
Mountain View Elementary School,public,8601 E Loos Dr,Prescott Valley,Yavapai,86314-,N/A,,69,98.6,1.4,100,98.6,1.4,100,98.6,1.4,100,98.6,1.4,100,98.6,1.4,100,1.4,0,N/A
Mountain View Preparatory,charter,1 N. Willard,Cottonwood,Yavapai,86326-,N/A,,46,80.4,19.6,100,82.6,17.4,100,80.4,19.6,100,82.6,17.4,100,87,13,100,19.6,2.2,N/A
Mountain Vista School,public,725 N Carpenter Dr,Oracle,Pinal,85623-,N/A,,43,90.7,7,98,93,7,100,93,7,100,95.3,2.3,98,97.7,2.3,100,7,0,N/A
Moya Elementary,public,406 N 31st Ave,Phoenix,Maricopa,85009-,N/A,,88,97.7,0,98,100,0,100,93.2,0,93,93.2,0,93,92,0,92,0,0,N/A
Mt. Tipton,public,16500 Pierce Ferry Road,Dolan Springs,Mohave,86441-,N/A,,23,91.3,8.7,100,95.7,4.3,100,95.7,4.3,100,95.7,4.3,100,95.7,4.3,100,8.7,0,N/A
Mt. View,public,801 W. Peoria Ave,Phoenix,Maricopa,85029-,N/A,,168,97.6,1.2,99,97.6,1.2,99,98.2,1.2,99,98.2,1.2,99,100,0,100,1.2,0,N/A
Myers/Ganoung Elementary School,public,5000 E. Andrew St.,Tucson,Pima,85711-,N/A,,72,95.8,0,96,97.2,0,97,97.2,0,97,95.8,1.4,97,100,0,100,0,1.4,N/A
Naco Elementary School,public,P.o. Box 397,Naco,Cochise,85620-,N/A,,29,96.6,3.4,100,96.6,3.4,100,96.6,3.4,100,96.6,3.4,100,96.6,3.4,100,3.4,0,N/A
Nadaburg Elementary,public,21419 W. Dove Valley Road,Wittmann,Maricopa,85361-,N/A,,38,97.4,2.6,100,97.4,2.6,100,97.4,2.6,100,97.4,2.6,100,97.4,2.6,100,2.6,0,N/A
Nash Elementary,public,515 W Kelso St,Tucson,Pima,85705-,N/A,,84,100,0,100,100,0,100,100,0,100,100,0,100,100,0,100,0,0,N/A
Nautilus,public,1425 Patrician Dr,Lake Havasu City,Mohave,86404-,N/A,,55,98.2,1.8,100,98.2,1.8,100,96.4,3.6,100,98.2,1.8,100,98.2,1.8,100,3.6,0,N/A
Navajo Elementary School,public,4525 N. Granite Reef Rd,Scottsdale,Maricopa,85251-,N/A,,52,88.5,9.6,98,92.3,7.7,100,92.3,7.7,100,94.2,5.8,100,100,0,100,5.8,3.8,N/A
Navarrete,public,6490 S. Sun Groves Blvd.,Chandler,Maricopa,85249-,N/A,,91,93.4,6.6,100,91.2,8.8,100,90.1,9.9,100,95.6,4.4,100,95.6,4.4,100,9.9,0,N/A
Neely Traditional Academy,public,321 W. Juniper Ave,Gilbert,Maricopa,85233-,N/A,,133,91,9,100,91,9,100,91,9,100,91,9,100,89.5,10.5,100,11.3,0,N/A
Nevitt Elementary School ,public,4525 E. St. Anne Ave,Phoenix,Maricopa,85042-,N/A,,154,95.5,.6,96,97.4,.6,98,96.8,.6,97,99.4,.6,100,100,0,100,.6,0,N/A
New River Elementary School,public,48827 N. Black Canyon Hwy,Phoenix,Maricopa,85087-,N/A,,33,84.8,3,88,90.9,3,94,90.9,3,94,97,3,100,97,3,100,3,0,N/A
New Vistas Center For Education,private,670 N. Arizona Ave Suite 35,Chandler,Maricopa,85225-,N/A,,67,98.5,1.5,100,98.5,1.5,100,95.5,3,99,98.5,1.5,100,98.5,1.5,100,3,0,N/A
Nikolaus Homestead Elementary School,public,761 E. Mcneil,Show Low,Navajo,85901-,N/A,,55,92.7,7.3,100,89.1,3.6,93,90.9,5.5,96,90.9,7.3,98,92.7,5.5,98,5.5,1.8,N/A
Noah Webster Schools Mesa,charter,7301 E Baseline Rd,Mesa,Maricopa,85209-,N/A,,153,88.9,11.1,100,88.9,11.1,100,88.9,11.1,100,88.2,11.8,100,88.9,11.1,100,11.8,0,N/A
Noah Webster Schools-pima,charter,5399 N Pima Road,Scottsdale,Maricopa,85250-,N/A,,56,82.1,17.9,100,82.1,17.9,100,82.1,17.9,100,82.1,17.9,100,83.9,16.1,100,17.9,0,N/A
Norterra Canyon,public,2200 W. Maya Way,Phoenix,Maricopa,85085-,N/A,,160,90,4.4,94,92.5,3.8,96,91.3,4.4,96,93.8,3.8,98,95.6,3.8,99,5.6,0,N/A
North Ranch Elementary School,public,16406 North 61st Place,Scottsdale,Maricopa,85254-,N/A,,65,95.4,4.6,100,96.9,3.1,100,96.9,3.1,100,96.9,3.1,100,96.9,3.1,100,4.6,0,N/A
Northwest Christian School,private,16401 N. 43 Rd Ave,Phoenix,Maricopa,85053-,N/A,,84,82.1,17.9,100,79.8,20.2,100,81,19,100,83.3,16.7,100,85.7,14.3,100,26.2,0,N/A
O. C. Johnson,public,1201 12th Street,Yuma,Yuma,85364-,N/A,,95,90.5,0,91,92.6,0,93,94.7,0,95,100,0,100,100,0,100,0,0,N/A
Oak Creek School,public,1 N. Willard,Cottonwood,Yavapai,86326-,N/A,,34,94.1,2.9,97,97.1,2.9,100,97.1,2.9,100,97.1,0,97,100,0,100,2.9,0,N/A
Oak Tree Elementary School,public,505 W. Houston Ave,Gilbert,Maricopa,85234,N/A,,99,92.9,7.1,100,93.9,6.1,100,94.9,5.1,100,94.9,5.1,100,96,4,100,8.1,0,N/A
Oakwood Elementary,public,12900 N 72nd Ave,Peoria,Maricopa,85381-,N/A,,110,89.1,3.6,93,89.1,3.6,93,88.2,0,88,89.1,3.6,93,88.2,3.6,92,4.5,0,N/A
Oasis Elementary,public,7841 W Sweetwater,Peoria,Maricopa,85381-,N/A,,65,90.8,9.2,100,92.3,7.7,100,92.3,7.7,100,90.8,9.2,100,96.9,3.1,100,10.8,1.5,N/A
Ochoa Elementary School,public,101 W 25th St,Tucson,Pima,85713-,N/A,,33,100,0,100,100,0,100,100,0,100,100,0,100,100,0,100,0,0,N/A
Ocotillo Early Learning Center,public,5702 S Campbell Ave,Tucson,Pima,85706-,N/A,,114,95.6,0,96,95.6,0,96,96.5,0,96,98.2,0,98,98.2,0,98,0,0,N/A
Ocotillo Ridge Elementary,public,10170 S. Whitelighting Lane,Vail,Pima,85641-,N/A,,80,97.5,2.5,100,98.8,1.3,100,98.8,1.3,100,96.3,2.5,99,100,0,100,3.8,0,N/A
Ocotillo School,public,3225 W. Ocotillo Rd.,Phoenix,Maricopa,85017-,N/A,,99,98,2,100,98,2,100,98,2,100,99,1,100,100,0,100,2,1,N/A
Omega Alpha Academy,charter,1402 San Antonio Avenue,Douglas,Cochise,85607-,N/A,,53,83,0,83,90.6,0,91,84.9,0,85,98.1,0,98,100,0,100,0,0,N/A
Open Doors ,charter,13644 N. Sandario Road,Marana,Pima,85653-,N/A,,25,100,0,100,92,0,92,92,0,92,96,0,96,92,0,92,0,0,N/A
Orange Grove Elementary,public,P.o. Box 3200,Somerton,Yuma,85350-,N/A,,46,97.8,0,98,97.8,0,98,97.8,0,98,97.8,0,98,100,0,100,0,0,N/A
Orangewood School,charter,7337 N. 19th Avenue,Phoenix,Maricopa,85021-,N/A,,103,90.3,3.9,94,90.3,3.9,94,92.2,5.8,98,100,0,100,96.1,3.9,100,4.9,1,N/A
Oro Grande Elementary School,public,1250 Pawnee Drive,Lake Havasu City,Mohave,86406,N/A,,55,92.7,7.3,100,92.7,7.3,100,92.7,7.3,100,92.7,7.3,100,94.5,5.5,100,7.3,0,N/A
Otondo Elementary,public,2251 Otondo Drive,Yuma,Yuma,85365-,N/A,,120,100,0,100,100,0,100,99.2,.8,100,100,0,100,99.2,.8,100,0,.8,N/A
Our Lady Of Mt. Carmel School,private,2117 S. Rural Road,Tempe,Maricopa,85282-1409,N/A,,49,98,2,100,98,2,100,95.9,4.1,100,95.9,4.1,100,93.9,6.1,100,4.1,2,N/A
Our Lady Of Perpetual Help Catholic School,private,3801 N. Miller Rd.,Scottsdale,Maricopa,85251-____,N/A,,25,92,8,100,92,8,100,88,8,96,92,8,100,92,8,100,8,0,N/A
Our Mother Of Sorrows Catholic School,private,1800 S Kolb Road,Tucson,Pima,85710-,N/A,,40,100,0,100,100,0,100,100,0,100,100,0,100,100,0,100,0,0,N/A
Oyama Elementary,public,2700 S La Cholla Blvd,Tucson,Pima,85713-,N/A,,73,90.4,2.7,93,97.3,1.4,99,98.6,1.4,100,98.6,1.4,100,98.6,1.4,100,1.4,1.4,N/A
P.t. Coe Elementary,public,3801 W Roanoke,Phoenix,Maricopa,85009-,N/A,,126,100,0,100,100,0,100,100,0,100,100,0,100,98.4,0,98,0,0,N/A
Paideia Academies,charter,7777 S. 15th Terrace,Phoenix,Maricopa,85042-,N/A,,102,97.1,2.9,100,97.1,2.9,100,97.1,2.9,100,99,1,100,97.1,2.9,100,1,2,N/A
Painted Rock Academy,charter,14800 N. 25th Drive,Phoenix,Maricopa,85023-,N/A,,83,95.2,4.8,100,95.2,4.8,100,95.2,4.8,100,94,4.8,99,95.2,4.8,100,4.8,0,N/A
Painted Sky ,public,12620 N. Woodburn Avenue,Oro Valley,Pima,85755-1835,N/A,,82,93.9,6.1,100,95.1,4.9,100,92.7,7.3,100,96.3,3.7,100,96.3,3.7,100,7.3,0,N/A
Palm Lane Elementary,public,2043 North 64th Drive,Phoenix,Maricopa,85035-,N/A,,168,98.8,.6,99,99.4,.6,100,99.4,.6,100,99.4,.6,100,99.4,.6,100,.6,0,N/A
Palm Valley Elementary,public,272 Sagebrush St.,Litchfield Park,Maricopa,85340-,N/A,,126,96,4,100,96,4,100,96,4,100,95.2,4.8,100,96,4,100,4.8,0,N/A
Palmcroft,public,901 Palmcroft Drive,Yuma,Yuma,85364-,N/A,,94,98.9,0,99,98.9,0,99,98.9,0,99,98.9,0,99,100,0,100,0,0,N/A
Palo Verde Elementary School,public,10700 S Palo Verde Rd,Palo Verde,Maricopa,85343-,N/A,,46,95.7,2.2,98,97.8,2.2,100,93.5,2.2,96,100,0,100,100,0,100,2.2,0,N/A
Palo Verde School,public,220 W. Kortsen Rd.,Casa Grande,Pinal,85122-,N/A,,76,94.7,1.3,96,97.4,1.3,99,97.4,1.3,99,97.4,1.3,99,100,0,100,1.3,0,N/A
Palominas School,public,P.o. Box 38,Hereford,Cochise,85615-,N/A,,41,95.1,2.4,98,97.6,2.4,100,97.6,2.4,100,97.6,2.4,100,97.6,2.4,100,2.4,0,N/A
Palomino Primary School,public,15835 N. 29th St.,Phoenix,Maricopa,85032-,N/A,,190,89.5,.5,90,91.1,.5,92,90.5,1.1,92,90.5,.5,91,92.6,1.1,94,.5,.5,N/A
Pan-american Charter School,charter,3001 W. Indian School Road,Phoenix,Maricopa,85017-,N/A,,65,100,0,100,100,0,100,100,0,100,100,0,100,100,0,100,0,0,N/A
Papago,public,2013 N 36th Street,Phoenix,Maricopa,85008-,N/A,,126,100,0,100,100,0,100,100,0,100,100,0,100,100,0,100,0,0,N/A
Paradise Education Center,charter,15533 W. Paradise Ln,Surprise,Maricopa,85374-,N/A,,176,92,8,100,92,8,100,93.2,6.8,100,93.2,6.8,100,92,7.4,99,8.5,0,N/A
Paragon Science Academy,charter,2975 W. Linda Lane,Chandler,Maricopa,85224-,N/A,,39,97.4,2.6,100,94.9,5.1,100,94.9,5.1,100,94.9,5.1,100,94.9,5.1,100,5.1,0,N/A
Paramount Academy,charter,11039 W Olive Ave,Peoria,Maricopa,85345-,N/A,,46,100,0,100,97.8,2.2,100,95.7,4.3,100,100,0,100,100,0,100,0,4.3,N/A
Park Elementary School,public,P.o. Box 640,Holbrook,Navajo,86025-0640,N/A,,101,96,3,99,96,3,99,97,3,100,97,3,100,97,3,100,3,0,N/A
Park Meadows Elementary School,public,20012 N 35th Ave,Glendale,Maricopa,85395-,N/A,,82,89,6.1,95,92.7,4.9,98,93.9,6.1,100,91.5,6.1,98,93.9,6.1,100,6.1,0,N/A
Parkridge Elementary,public,9970 W Beardsley Road,Peoria,Maricopa,85382-,N/A,,91,94.5,5.5,100,95.6,4.4,100,93.4,6.6,100,94.5,5.5,100,98.9,1.1,100,8.8,0,N/A
Parkview Elementary,public,16066 N Parkview Place,Surprise,Maricopa,85374-,N/A,,85,96.5,3.5,100,96.5,3.5,100,95.3,4.7,100,96.5,3.5,100,96.5,3.5,100,5.9,0,N/A
Paseo Hills Elementary,public,3302 W. Louise,Phoenix,Maricopa,85027-,N/A,,101,93.1,5,98,94.1,5,99,92.1,5,97,96,4,100,97,3,100,5,0,N/A
Paseo Verde Elementary,public,7880 West Greenway Road,Peoria,Maricopa,85381-,N/A,,78,92.3,5.1,97,91,5.1,96,92.3,5.1,97,94.9,5.1,100,94.9,5.1,100,5.1,0,N/A
Pathfinder Academy,charter,2542 N 76th Place,Mesa,Maricopa,85207-,N/A,,36,63.9,30.6,94,63.9,30.6,94,66.7,30.6,97,66.7,30.6,97,69.4,30.6,100,30.6,0,N/A
Pathfinder Academy At Eastmark,charter,4816 S. Eastmark Parkway,Mesa,Maricopa,85212-,N/A,,50,94,6,100,92,8,100,88,12,100,92,8,100,90,10,100,12,0,N/A
Patterson Elementary,public,615 S Cheshire Blvd,Mesa,Maricopa,85208-7152,N/A,,98,91.8,7.1,99,92.9,7.1,100,92.9,7.1,100,93.9,6.1,100,100,0,100,7.1,0,N/A
Patterson Elementary School ,public,1211 E. Guadalupe Rd,Gilbert,Maricopa,85234,N/A,,76,98.7,1.3,100,98.7,1.3,100,98.7,1.3,100,100,0,100,100,0,100,1.3,0,N/A
Paul Dunbar Lawrence School,public,707 W. Grant St.,Phoenix,Maricopa,85007-,N/A,,31,100,0,100,100,0,100,96.8,0,97,100,0,100,100,0,100,0,0,N/A
Paulden Community School,charter,P.o. Box 622,Paulden,Yavapai,86334-,N/A,,25,92,4,96,96,4,100,92,4,96,96,4,100,92,8,100,8,0,N/A
Payson Elementary School,public,Payson Elementary School,Payson,Gila,85547-,N/A,,171,90.6,9.4,100,90.6,9.4,100,91.2,8.8,100,91.8,8.2,100,95.3,4.1,99,9.4,0,N/A
"Peak School Inc., The",charter,2016 N 1st Street,Flagstaff,Coconino,86001-,N/A,,34,97.1,2.9,100,97.1,2.9,100,97.1,2.9,100,94.1,2.9,97,97.1,2.9,100,2.9,0,N/A
Pecan Grove Elementary School,public,600 South 21st Avenue,Yuma,Yuma,85364-,N/A,,38,97.4,0,97,100,0,100,94.7,0,95,100,0,100,100,0,100,0,0,N/A
Pena Blanca Elementary,public,1374 W. Frontage Rd.,Rio Rico,Santa Cruz,85648-,N/A,,57,98.2,1.8,100,98.2,1.8,100,100,0,100,100,0,100,100,0,100,1.8,0,N/A
Pendergast,public,3800 N. 91st Ave,Phoenix,Maricopa,85037-,N/A,,89,96.6,3.4,100,96.6,3.4,100,96.6,3.4,100,97.8,2.2,100,100,0,100,3.4,0,N/A
Peralta,public,7125 W. Encanto Blvd,Phoenix,Maricopa,85035-,N/A,,137,95.6,0,96,98.5,0,99,94.9,0,95,96.4,0,96,99.3,0,99,0,.7,N/A
Peralta Trail Elementary School,public,10965 E Peralta Road,Gold Canyon,Pinal,85118-,N/A,,55,100,0,100,100,0,100,96.4,3.6,100,98.2,1.8,100,96.4,3.6,100,7.3,7.3,N/A
Percy L. Julian,public,2149 East Carver St,Phoenix ,Maricopa,85040-,N/A,,91,100,0,100,95.6,2.2,98,97.8,2.2,100,96.7,2.2,99,95.6,2.2,98,1.1,1.1,N/A
Peter Howell Elementary ,public,401 N Irving Ave,Tucson,Pima,85711-,N/A,,50,100,0,100,98,0,98,100,0,100,100,0,100,100,0,100,0,0,N/A
Phoenix Advantage Charter School,charter,3738 N. 16th St.,Phoenix,Maricopa,85016-,N/A,,80,95,0,95,95,0,95,97.5,0,98,100,0,100,100,0,100,0,0,N/A
Phoenix Christian Elementary,private,1751 W Indian School Rd,Phoenix,Maricopa,85015-5298,N/A,,21,100,0,100,100,0,100,95.2,4.8,100,95.2,4.8,100,90.5,9.5,100,19,0,N/A
Phoenix Country Day School,private,3901 E Stanford Drive,Paradise Valley,Maricopa,85253-,N/A,,35,82.9,17.1,100,82.9,17.1,100,80,20,100,80,20,100,85.7,14.3,100,20,0,N/A
Picacho School,public,17865 S. Vail Road,Picacho,Pinal,85141-,N/A,,21,100,0,100,100,0,100,100,0,100,100,0,100,100,0,100,0,0,N/A
Pima Butte Elementary,public,42202 W Rancho El Dorado Parkway,Maricopa,Pinal,85138-,N/A,,70,95.7,4.3,100,95.7,4.3,100,95.7,4.3,100,95.7,4.3,100,95.7,4.3,100,4.3,0,N/A
Pima Elementary,public,192 E. 200 S.,Pima,Graham,85543-,N/A,,72,94.4,1.4,96,94.4,1.4,96,93.1,1.4,94,91.7,1.4,93,100,0,100,1.4,0,N/A
Pine Forest School,charter,1120 W Kaibab Lane,Flagstaff,Coconino,86001-,N/A,,32,75,25,100,75,25,100,68.8,25,94,75,25,100,100,0,100,25,0,N/A
Pinnacle Peak Elementary,charter,7690 E Williams Drive,Scottsdale,Maricopa,85255-,N/A,,69,88.4,11.6,100,91.3,8.7,100,88.4,11.6,100,94.2,5.8,100,94.2,5.8,100,10.1,1.4,N/A
Pinnacle Pointe Academy,charter,6753 W. Pinnacle Peak Road,Glendale,Maricopa,85310-,N/A,,46,93.5,6.5,100,93.5,6.5,100,93.5,6.5,100,91.3,8.7,100,93.5,6.5,100,8.7,0,N/A
Pioneer,public,6315 W. Port Au Prince Ln.,Glendale,Maricopa,85306-,N/A,,34,97.1,2.9,100,97.1,2.9,100,94.1,2.9,97,97.1,2.9,100,97.1,2.9,100,2.9,0,N/A
Pioneer Elementary,public,1535 N Greenfield Road,Gilbert,Maricopa,85234-,N/A,,56,94.6,5.4,100,94.6,5.4,100,94.6,5.4,100,94.6,5.4,100,96.4,3.6,100,5.4,0,N/A
Pioneer Preparatory School,public,6510 W Clarendon Ave,Phoenix,Maricopa,85033-,N/A,,87,100,0,100,100,0,100,100,0,100,100,0,100,98.9,1.1,100,1.1,0,N/A
Playa Del Rey,public,550 N. Horne,Gilbert,Maricopa,85233,N/A,,70,91.4,8.6,100,92.9,7.1,100,92.9,7.1,100,95.7,4.3,100,94.3,5.7,100,8.6,0,N/A
"Plc Arts Academy At Scottsdale, Inc. ",charter,7214 E. Jenan Dr.,Scottsdale,Maricopa,85260-,N/A,,22,90.9,9.1,100,90.9,9.1,100,90.9,9.1,100,90.9,9.1,100,90.9,9.1,100,13.6,0,N/A
Pomeroy Elementary,public,1507 W. Shawnee Dr,Chandler,Maricopa,85224-,N/A,,106,94.3,3.8,98,93.4,4.7,98,93.4,3.8,97,97.2,1.9,99,100,0,100,4.7,0,N/A
Porfirio H. Gonzales Elementary School,public,9401 W. Garfield Street,Tolleson,Maricopa,85353-,N/A,,84,95.2,0,95,97.6,0,98,95.2,0,95,96.4,0,96,98.8,0,99,0,0,N/A
Porter Elementary,public,1350 S. Linsay Rd,Mesa,Maricopa,85204-6229,N/A,,59,94.9,5.1,100,94.9,5.1,100,94.9,5.1,100,96.6,3.4,100,96.6,3.4,100,5.1,0,N/A
Power Ranch Elementary,public,4351 S Ranch House Pkwy,Gilbert,Maricopa,85297-,N/A,,97,97.9,2.1,100,97.9,2.1,100,97.9,2.1,100,99,1,100,99,1,100,2.1,0,N/A
Prescott Valley Charter School,charter,9500 Lorna Lane ,Prescott Valley,Yavapai,86314-,N/A,,72,86.1,6.9,93,88.9,5.6,94,88.9,5.6,94,93.1,6.9,100,94.4,5.6,100,6.9,0,N/A
Presidio School,charter,1695 E. Ft. Lowell,Tucson,Pima,85719-,N/A,,40,97.5,0,98,100,0,100,100,0,100,100,0,100,100,0,100,0,0,N/A
Pueblo Del Sol,public,3449 N 39th Ave,Phoenix,Maricopa,85009-,N/A,,99,100,0,100,100,0,100,100,0,100,100,0,100,100,0,100,0,0,N/A
Pueblo Del Sol Elementary,public,5130 Paseo Las Palmas,Sierra Vista,Cochise,85635-,N/A,,95,98.9,1.1,100,98.9,1.1,100,98.9,1.1,100,98.9,1.1,100,100,0,100,1.1,0,N/A
Pueblo Elementary School,public,2803 W 20th St,Yuma,Yuma,85364-,N/A,,79,98.7,1.3,100,98.7,1.3,100,98.7,1.3,100,98.7,1.3,100,98.7,1.3,100,1.3,0,N/A
Pueblo Elementary School,public,6320 N 82nd St.,Scottsdale,Maricopa,85250-5611,N/A,,91,94.5,3.3,98,94.5,4.4,99,94.5,4.4,99,94.5,5.5,100,95.6,4.4,100,4.4,1.1,N/A
Pueblo Gardens ,public,2210 E. 33rd Street,Tucson ,Pima,85713-,N/A,,48,100,0,100,100,0,100,100,0,100,100,0,100,100,0,100,0,0,N/A
Quail Run Elementary School,public,4600 W Cortaro Farms Road,Tucson,Pima,85742-,N/A,,88,97.7,2.3,100,98.9,1.1,100,97.7,2.3,100,98.9,1.1,100,100,0,100,2.3,1.1,N/A
Quail Run Elementary School,charter,3303 E. Utopia Road,Phoenix,Maricopa,85050-,N/A,,111,91,9,100,91,9,100,89.2,10.8,100,95.5,4.5,100,80.2,14.4,95,9.9,.9,N/A
Quartz Hill Elementary,public,3680 S. Quartz St.,Gilbert,Maricopa,85297-,N/A,,86,96.5,3.5,100,96.5,3.5,100,96.5,3.5,100,96.5,3.5,100,97.7,2.3,100,2.3,1.2,N/A
Queen Creek Elementary,public,23636 S. 204th Street,Queen Creek,Maricopa,85142-,N/A,,78,92.3,6.4,99,92.3,6.4,99,92.3,6.4,99,94.9,3.8,99,94.9,3.8,99,6.4,0,N/A
Quentin Elementary,public,11050 West Whyman Ave,Avondale,Maricopa,85323-,N/A,,105,97.1,0,97,97.1,0,97,98.1,0,98,99,0,99,99,0,99,0,0,N/A
Rainbow Valley Elementary,public,19716 W. Narramore ,Buckeye,Maricopa,85326-,N/A,,63,92.1,3.2,95,95.2,3.2,98,93.7,3.2,97,93.7,4.8,98,95.2,3.2,98,23.8,0,N/A
Ralph Waldo Emerson,public,915 East Palm Lane,Phoenix,Maricopa,85006-,N/A,,58,89.7,1.7,91,91.4,1.7,93,94.8,1.7,97,96.6,1.7,98,100,0,100,1.7,0,N/A
Ranch Elementary School,public,43521 N. Kenworthy Rd.,San Tan Valley,Pinal,85140-,N/A,,66,90.9,9.1,100,92.4,7.6,100,89.4,10.6,100,92.4,7.6,100,93.9,6.1,100,10.6,0,N/A
Rancho Gabriela Elementary,public,15272 W. Gabriela Dr,Surprise,Maricopa,85379-,N/A,,115,96.5,3.5,100,97.4,2.6,100,96.5,3.5,100,96.5,2.6,99,96.5,2.6,99,4.3,0,N/A
Rancho Santa Fe Elementary School,public,2150 N Rancho Sante Fe Blvd,Avondale,Maricopa,85392-,N/A,,120,92.5,4.2,97,94.2,4.2,98,95.8,3.3,99,95.8,3.3,99,96.7,3.3,100,4.2,0,N/A
Rancho Solano Preparatory School,private,5656 E Greenway Rd,Scottsdale,Maricopa,85254-,N/A,,24,100,0,100,91.7,8.3,100,91.7,8.3,100,95.8,4.2,100,100,0,100,8.3,0,N/A
Rattlesnake Ridge Elementary,public,8500 N Continental Reserve Loop,Tucson,Pima,85743-,N/A,,81,97.5,0,98,97.5,1.2,99,97.5,2.5,100,98.8,1.2,100,93.8,3.7,98,3.7,0,N/A
Ray Unified School District,public,Po Box 427,Kearny,Pinal,85137-,N/A,,29,96.6,3.4,100,96.6,3.4,100,96.6,3.4,100,96.6,3.4,100,96.6,3.4,100,3.4,0,N/A
Red Mesa Unified School District,public,Hc 61 Box 40 Highway 191,Teec Nos Pos,Apache,86545-,N/A,,29,100,0,100,100,0,100,100,0,100,100,0,100,100,0,100,0,0,N/A
Red Mountain Ranch Elementary,public,6650 E. Raftriver St,Mesa,Maricopa,85215-,N/A,,80,90,10,100,88.8,11.3,100,90,10,100,88.8,11.3,100,91.3,8.8,100,12.5,0,N/A
Red Rock Elementary School,public,P.o. Box 1010,Red Rock,Pinal,85145-1010,N/A,,24,95.8,0,96,95.8,0,96,100,0,100,95.8,0,96,100,0,100,0,0,N/A
Redbird Elementary School,public,1020 S Extension Rd,Mesa,Maricopa,85210-,N/A,,73,95.9,4.1,100,95.9,4.1,100,95.9,4.1,100,98.6,1.4,100,100,0,100,5.5,0,N/A
Redfield Elementary School,public,9181 E Redfield Rd.,Scottsdale,Maricopa,85260-,N/A,,70,90,10,100,91.4,8.6,100,91.4,8.6,100,92.9,7.1,100,100,0,100,7.1,4.3,N/A
Rice Elementary,public,P.o. Box 207,San Carlos,Gila,85550-,N/A,,167,99.4,.6,100,100,0,100,98.8,0,99,99.4,0,99,100,0,100,0,.6,N/A
Richard B Wilson Jr School,public,2330 West Glover Rd,Tucson,Pima,85742-,N/A,,70,95.7,1.4,97,98.6,1.4,100,98.6,1.4,100,98.6,1.4,100,100,0,100,2.9,0,N/A
Richard Miller,public,2021 W.   Alice Ave,Phoenix,Maricopa,85021-,N/A,,115,98.3,.9,99,98.3,.9,99,98.3,.9,99,98.3,1.7,100,99.1,.9,100,.9,1.7,N/A
"Ridgeline Academy-a Challenge Foundation Academy, Inc.",charter,33625 N. North Valley Parkway,Phoenix,Maricopa,85085-,N/A,,90,91.1,8.9,100,90,10,100,90,10,100,92.2,7.8,100,92.2,7.8,100,12.2,0,N/A
Riggs Elementary,public,6930 S. Seville Blvd W.,Gilbert,Maricopa,85298-,N/A,,130,94.6,5.4,100,94.6,5.4,100,94.6,5.4,100,93.1,6.9,100,95.4,4.6,100,7.7,0,N/A
Rio Colorado Elmentary,public,P.o Box 6870,San Luis,Yuma,85349-,N/A,,66,100,0,100,100,0,100,100,0,100,100,0,100,100,0,100,0,0,N/A
Rio Vista Elementary School,public,1351e. Limberlost,Tucson,Pima,85705-,N/A,,95,100,0,100,100,0,100,100,0,100,100,0,100,100,0,100,0,0,N/A
Rio Vista School,public,10237 West Encanto Blvd.,Avondale,Maricopa,85392-,N/A,,71,97.2,2.8,100,98.6,1.4,100,97.2,2.8,100,100,0,100,100,0,100,2.8,0,N/A
Riverbend Preparatory Academy,charter,5625 S. 51st Ave,Laveen,Maricopa,85339-,N/A,,49,81.6,18.4,100,81.6,18.4,100,85.7,14.3,100,91.8,8.2,100,91.8,8.2,100,18.4,0,N/A
Riverside Traditional,public,1414 S. 51st Ave,Phoenix,Maricopa,85043-,N/A,,81,100,0,100,100,0,100,100,0,100,100,0,100,100,0,100,0,0,N/A
Riverview Elementary School ,public,12701 W. Main Street ,El Mirage ,Maricopa,85335-,N/A,,107,91.6,8.4,100,92.5,7.5,100,92.5,7.5,100,95.3,4.7,100,95.3,4.7,100,5.6,.9,N/A
Roadrunner Elementary,public,16651 W Calle Carmela,Marana,Pima,85653-,N/A,,60,95,1.7,97,95,3.3,98,93.3,5,98,96.7,0,97,95,3.3,98,5,0,N/A
Roadrunner Elementary School,public,7702 N. 39th Ave,Phoenix,Maricopa,85029-,N/A,,118,97.5,.8,98,97.5,1.7,99,98.3,1.7,100,98.3,1.7,100,99.2,.8,100,1.7,0,N/A
Robert And Danell Tarwater Elementary,public,2300 S. Gardner Drive,Chandler,Maricopa,85286-,N/A,,120,96.7,3.3,100,95,5,100,95,5,100,95.8,4.2,100,98.3,1.7,100,6.7,0,N/A
Robert Bracker Elementary School,public,121 Camino Diez Mandamientos,Nogales,Santa Cruz,85621-,N/A,,39,100,0,100,100,0,100,100,0,100,100,0,100,100,0,100,0,0,N/A
Robert Richardson Elementary School,public,6901 N. Camino De La Tierra,Tucson,Pima,85741-,N/A,,62,95.2,3.2,98,95.2,3.2,98,96.8,3.2,100,95.2,4.8,100,96.8,3.2,100,4.8,0,N/A
Roberts-naylor K-8,public,1701 S. Columbus Blvd,Tucson,Pima,85711-,N/A,,63,93.7,0,94,95.2,0,95,100,0,100,95.2,0,95,100,0,100,0,0,N/A
Robins Elementary School,public,3939 N. Magnatite Lane,Tucson,Pima,85746-,N/A,,68,100,0,100,100,0,100,98.5,1.5,100,98.5,1.5,100,100,0,100,1.5,1.5,N/A
Robins K-8,public,3939 N. Magnatite Lane,Tucson,Pima,85745-,N/A,,68,100,0,100,100,0,100,98.5,1.5,100,98.5,1.5,100,100,0,100,1.5,1.5,N/A
Robison Elementary School,public,2745 E 18th Street,Tucson,Pima,85716-,N/A,,48,95.8,4.2,100,95.8,4.2,100,95.8,4.2,100,97.9,2.1,100,97.9,2.1,100,4.2,0,N/A
Robles Elementary,public,10105 S Sasabe Rd,Tucson,Pima,85736-9428,N/A,,63,95.2,4.8,100,96.8,3.2,100,96.8,3.2,100,96.8,3.2,100,98.4,1.6,100,1.6,0,N/A
Robson Elementary School,public,2122 E. Pueblo Ave.,Mesa,Maricopa,85204-,N/A,,100,95,3,98,97,3,100,96,4,100,97,3,100,97,3,100,4,0,N/A
Rogers Ranch School,public,6735 S 47th Ave,Laveen,Maricopa,85339-,N/A,,94,97.9,1.1,99,98.9,1.1,100,95.7,3.2,99,98.9,1.1,100,98.9,1.1,100,3.2,0,N/A
Ronald Reagan School,public,3200 W 16th Street,Yuma,Yuma,85364-,N/A,,82,97.6,0,98,97.6,0,98,95.1,0,95,98.8,0,99,98.8,0,99,1.2,2.4,N/A
Roosevelt School,public,550 W 5th St,Yuma ,Yuma,85364-,N/A,,56,96.4,0,96,94.6,0,95,94.6,0,95,100,0,100,94.6,0,95,0,0,N/A
Rose Linda Elementary School,public,4610 S. 12th Street,Phoenix,Maricopa,85040-,N/A,,62,100,0,100,100,0,100,100,0,100,100,0,100,100,0,100,0,0,N/A
Rosemarie Rivera Elementary,public,5102 S Cherry Avenue,Tucson,Pima,85706-,N/A,,70,94.3,0,94,98.6,0,99,98.6,0,99,98.6,0,99,98.6,0,99,0,0,N/A
Roskruge Bilingual K-8 Magnet School,public,501 E. 6th St.,Tucson,Pima,85705-,N/A,,44,100,0,100,100,0,100,100,0,100,100,0,100,100,0,100,0,0,N/A
Round Valley Elementary,public,P O Box 610,Springerville,Apache,85938-____,N/A,,96,95.8,2.1,98,94.8,3.1,98,96.9,3.1,100,94.8,3.1,98,91.7,6.3,98,3.1,5.2,N/A
Rover Elementary School,public,1300 E Watson Dr,Tempe,Maricopa,85283-,N/A,,81,98.8,1.2,100,98.8,1.2,100,100,0,100,98.8,1.2,100,100,0,100,1.2,0,N/A
Rudy G Bologna Elementary,public,1625 East Frye Road,Chandler,Maricopa,85225-,N/A,,90,93.3,6.7,100,94.4,5.6,100,93.3,6.7,100,93.3,6.7,100,94.4,5.6,100,7.8,0,N/A
Ruth Fisher Elementary School,public,38201 W. Indian School Rd.,Tonopah,Maricopa,85354-,N/A,,66,95.5,4.5,100,95.5,4.5,100,95.5,4.5,100,95.5,4.5,100,95.5,3,98,4.5,0,N/A
Ruth Powell School,public,1041 14th Ave.,Safford,Graham,85546-,N/A,,88,88.6,1.1,90,90.9,1.1,92,86.4,1.1,88,98.9,0,99,97.7,1.1,99,1.1,0,N/A
Sabis International,charter,1903 East Roeser Road,Phoenix,Maricopa,85004-,N/A,,81,98.8,1.2,100,98.8,1.2,100,98.8,1.2,100,98.8,1.2,100,98.8,1.2,100,1.2,0,N/A
Sacaton Elementary,public,P.o. Box 98,Sacaton,Pinal,85147-,N/A,,50,100,0,100,100,0,100,100,0,100,100,0,100,100,0,100,0,0,N/A
Sacred Heart Catholic School,private,131 N Summit Ave,Prescott,Yavapai,86301-2789,N/A,,23,100,0,100,100,0,100,100,0,100,100,0,100,100,0,100,0,0,N/A
Saddleback Elementary School,charter,18600 North Porter Road,Maricopa,Pinal,85138-,N/A,,81,95.1,4.9,100,95.1,4.9,100,92.6,7.4,100,96.3,3.7,100,96.3,3.7,100,7.4,0,N/A
Safford K-8 Magnet School,public,200 E 13th St ,Tucson,Pima,85701-,N/A,,40,100,0,100,100,0,100,100,0,100,100,0,100,100,0,100,0,0,N/A
Saguaro Elementary,public,1501 N Center Ave Nue,Casa Grande,Pinal,85122-,N/A,,63,95.2,3.2,98,95.2,3.2,98,95.2,3.2,98,96.8,1.6,98,98.4,1.6,100,3.2,0,N/A
Sahuarita Primary School,public,350 W Sahuarita Rd,Sahuarita ,Pima,85629-,N/A,,228,98.7,.9,100,98.7,1.3,100,98.2,1.3,100,97.8,1.8,100,99.1,.9,100,1.3,.4,N/A
Sahuaro Ranch Elementary,public,10401 N 63 Rd Ave,Glendale,Maricopa,85302-,N/A,,65,93.8,0,94,90.8,0,91,92.3,0,92,96.9,0,97,100,0,100,1.5,0,N/A
Sahuaro School,public,12835 N.33rd Ave,Phoenix,Maricopa,85029-,N/A,,86,98.8,1.2,100,98.8,1.2,100,98.8,1.2,100,97.7,1.2,99,98.8,1.2,100,1.2,0,N/A
Saint Francis Of Assisi,private,700 W. 18th Street,Yuma,Yuma,85364-,N/A,,27,100,0,100,100,0,100,96.3,0,96,96.3,0,96,100,0,100,0,0,N/A
Saint Francis Xavier,private,4715 North Central Avenue,Phoenix,Maricopa,85012-,N/A,,60,95,5,100,95,5,100,95,5,100,96.7,3.3,100,96.7,3.3,100,5,0,N/A
Salida Del Sol,public,910 S. Ave C,Yuma,Yuma,85364-,N/A,,130,98.5,0,98,98.5,0,98,98.5,0,98,100,0,100,100,0,100,.8,.8,N/A
Salk Elementary School,public,7029 E Brown Road,Mesa,Maricopa,85027-,N/A,,83,92.8,7.2,100,94,6,100,94,6,100,95.2,4.8,100,100,0,100,7.2,0,N/A
San Cayetano Elementary School,public,1374 W. Frontage Rd. ,Rio Rico,Santa Cruz,85648-,N/A,,80,97.5,0,98,98.8,0,99,97.5,0,98,98.8,0,99,100,0,100,0,0,N/A
San Marcos Elementary School,public,451 West Frye Road ,Chandler,Maricopa,85225-,N/A,,73,98.6,1.4,100,98.6,1.4,100,98.6,1.4,100,100,0,100,100,0,100,1.4,0,N/A
San Tan Charter School,charter,3959 East Elliot Road,Gilbert,Maricopa,85234-,N/A,,86,73.3,16.3,90,72.1,16.3,88,72.1,16.3,88,76.7,16.3,93,77.9,16.3,94,16.3,0,N/A
San Tan Elementary,public,3443 E.calistoga Drive,Gilbert,Maricopa,85297-,N/A,,105,97.1,2.9,100,97.1,2.9,100,97.1,2.9,100,97.1,2.9,100,97.1,2.9,100,2.9,0,N/A
San Tan Heights,public,2500 W. San Tan Heights Elementary,San Tan Valley,Pinal,85142-,N/A,,65,96.9,1.5,98,98.5,1.5,100,96.9,1.5,98,96.9,1.5,98,98.5,1.5,100,3.1,0,N/A
Sanborn Elementary School,public,700 North Superstition Blvd,Chandler,Maricopa,85225-,N/A,,98,95.9,3.1,99,96.9,3.1,100,96.9,3.1,100,96.9,3.1,100,99,1,100,3.1,0,N/A
Sanders Elementary,public,P.o Box 250,Sanders,Apache,86512-,N/A,,47,100,0,100,100,0,100,100,0,100,100,0,100,100,0,100,0,0,N/A
Sandpiper Elementary School,charter,6724 E. Hearn Road,Scottsdale,Maricopa,85254-____,N/A,,101,92.1,7.9,100,93.1,6.9,100,92.1,7.9,100,94.1,5.9,100,95,5,100,5.9,2,N/A
Sandra Day O'connor,public,4840 East Adobe Street,Mesa,Maricopa,85207-,N/A,,66,95.5,4.5,100,95.5,4.5,100,95.5,4.5,100,95.5,4.5,100,95.5,4.5,100,6.1,0,N/A
Santa Clara,public,6910 S Santa Clara,Tucson,Pima,85756-,N/A,,117,99.1,0,99,99.1,0,99,98.3,0,98,97.4,0,97,99.1,0,99,0,0,N/A
Santa Cruz Catholic School,private,29 W. 22nd St,Tucson,Pima,85713-,N/A,,21,90.5,4.8,95,95.2,4.8,100,95.2,4.8,100,100,0,100,100,0,100,0,4.8,N/A
Santa Cruz Elementary,public,19845 N. Costa Del Sol,Maricopa,Pinal,85138-,N/A,,68,95.6,4.4,100,97.1,2.9,100,97.1,2.9,100,100,0,100,100,0,100,4.4,0,N/A
Santa Fe,public,9880 N 77th Ave,Peoria,Maricopa,85345-,N/A,,78,97.4,2.6,100,97.4,2.6,100,94.9,5.1,100,97.4,2.6,100,100,0,100,3.8,1.3,N/A
Santa Rosa Elementary School,public,21400 N. Santa Rosa Dr,Maricopa,Pinal,85138-,N/A,,59,89.8,10.2,100,88.1,11.9,100,89.8,10.2,100,94.9,5.1,100,91.5,8.5,100,11.9,0,N/A
Santan Elementary,public,1550 E. Chandler Heights Rd,Chandler,Maricopa,85249-,N/A,,86,96.5,3.5,100,97.7,2.3,100,98.8,1.2,100,100,0,100,100,0,100,3.5,0,N/A
Sarah Marley Elementary,public,735 7th Street,Douglas,Cochise,85607-,N/A,,30,96.7,0,97,96.7,0,97,96.7,0,97,96.7,0,97,96.7,0,97,0,0,N/A
Scales Elementary,public,1115 W. 5th St,Tempe,Maricopa,85281-,N/A,,67,89.6,6,96,89.6,6,96,92.5,6,99,91,7.5,99,95.5,4.5,100,7.5,0,N/A
Scott Libby ,public,272 E. Sagebrush ,Litchfield Park ,Maricopa,85340-,N/A,,109,88.1,3.7,92,88.1,3.7,92,89.9,3.7,94,96.3,3.7,100,95.4,3.7,99,3.7,0,N/A
Scottsdale Christian Academy,private,14400 N. Tatum,Phoenix,Maricopa,85032-,N/A,,38,78.9,21.1,100,78.9,21.1,100,81.6,18.4,100,84.2,15.8,100,92.1,7.9,100,26.3,0,N/A
Self Development Charter School,charter,1709 N Greenfield Rd,Mesa,Maricopa,85205-3103,N/A,,70,97.1,2.9,100,97.1,2.9,100,97.1,2.9,100,95.7,4.3,100,97.1,2.9,100,4.3,0,N/A
Senita Valley ,public,10750 Bilby Rd. ,Tucson,Pima,85747-,N/A,,98,95.9,4.1,100,95.9,4.1,100,95.9,4.1,100,95.9,4.1,100,95.9,4.1,100,4.1,0,N/A
Sequoia Charter School,charter,1460 S. Horne Street,Mesa,Maricopa,85204-,N/A,,77,97.4,0,97,100,0,100,98.7,0,99,100,0,100,100,0,100,0,0,N/A
Sequoia Pathway Academy,charter,19265 N Porter Rd,Maricopa,Pinal,85139-,N/A,,97,97.9,2.1,100,97.9,2.1,100,96.9,3.1,100,95.9,4.1,100,96.9,3.1,100,6.2,0,N/A
Sequoia Village School,charter,982 Full House Ln,Show Low,Navajo,85901-,N/A,,40,90,10,100,87.5,12.5,100,87.5,12.5,100,100,0,100,97.5,2.5,100,0,12.5,N/A
Sequoya Elementary School,public,11808 N. 64th St,Scottsdale,Maricopa,85254-,N/A,,62,91.9,8.1,100,91.9,8.1,100,90.3,9.7,100,95.2,4.8,100,96.8,3.2,100,11.3,0,N/A
Settler's Point Elementary School,public,423 E. Settler's Point Drive,Gilbert,Maricopa,85296-,N/A,,62,91.9,8.1,100,91.9,8.1,100,91.9,8.1,100,93.5,6.5,100,95.2,4.8,100,8.1,0,N/A
Seven Mile Elementary,public,2005 Fort Apache Road,Whiteriver,Navajo,85941-,N/A,,103,98.1,0,98,99,0,99,99,0,99,100,0,100,99,0,99,0,0,N/A
Sevilla Primary,public,3801 W. Missouri ,Phoenix,Maricopa,85019-,N/A,,230,96.5,.9,97,97.4,.9,98,97,3,100,97.8,.9,99,99.1,.9,100,.9,0,N/A
Sewell Elementary,public,425 N Sahuara,Tucson,Pima,85711-,N/A,,65,98.5,1.5,100,98.5,1.5,100,98.5,1.5,100,96.9,1.5,98,98.5,1.5,100,1.5,0,N/A
Shaw Butte Elementary,public,12202 N. 21st Avenue,Phoenix,Maricopa,85029-,N/A,,147,100,0,100,100,0,100,99.3,.7,100,100,0,100,100,0,100,.7,0,N/A
Sheely Farms Elementary School,public,9450 W Encanto Blvd,Phoenix,Maricopa,85037-,N/A,,81,97.5,2.5,100,97.5,2.5,100,97.5,2.5,100,97.5,2.5,100,97.5,2.5,100,2.5,0,N/A
Shumway,public,1325 N. Shumway Ave.,Chandler,Maricopa,85225-,N/A,,73,98.6,1.4,100,98.6,1.4,100,98.6,1.4,100,98.6,1.4,100,98.6,1.4,100,1.4,0,N/A
Sierra Verde School,public,7241 W. Rose Garden Lane,Glendale,Maricopa,85308-,N/A,,84,95.2,3.6,99,96.4,3.6,100,96.4,3.6,100,96.4,3.6,100,96.4,3.6,100,3.6,0,N/A
Silvestre Herrera Elementary School,public,1350 S. 11th St.,Phoenix,Maricopa,85034-,N/A,,75,93.3,6.7,100,94.7,1.3,96,93.3,1.3,95,98.7,1.3,100,98.7,1.3,100,1.3,0,N/A
Simonton Elementary School,public,40300 N Simonton Blvd,San Tan Valley,Pinal,85140-,N/A,,47,87.2,8.5,96,91.5,8.5,100,91.5,8.5,100,91.5,8.5,100,93.6,6.4,100,8.5,0,N/A
Sirrine,public,591 West Mesquite Street,Chandler,Maricopa,85225-2114,N/A,,76,98.7,1.3,100,98.7,1.3,100,96.1,3.9,100,100,0,100,100,0,100,6.6,0,N/A
Sky View Elementary School,public,8624 W. Sweetwater Ave,Peoria,Maricopa,85381-,N/A,,23,100,0,100,100,0,100,100,0,100,100,0,100,100,0,100,0,0,N/A
Skyline Ranch,public,1084 W San Tan Hills Dr,San Tan Valley,Pinal,85143-,N/A,,80,96.3,2.5,99,93.8,2.5,96,85,2.5,88,92.5,2.5,95,97.5,2.5,100,2.5,0,N/A
Skyview School,charter,125 S Rush Street,Prescott,Yavapai,86303,N/A,,27,85.2,7.4,93,92.6,7.4,100,92.6,7.4,100,92.6,7.4,100,100,0,100,7.4,0,N/A
Smoketree Elementary,public,2395 Smoketree Ave. ,Lake Havasu City,Mohave,86403-,N/A,,70,97.1,2.9,100,97.1,2.9,100,97.1,2.9,100,100,0,100,100,0,100,2.9,0,N/A
Solano School,public,1526 W. Missouri,Phoenix,Maricopa,85016-,N/A,,94,80.9,1.1,82,84,1.1,85,76.6,1.1,78,91.5,1.1,93,96.8,1.1,98,1.1,0,N/A
Soleng Tom Elementary,public,10520 E. Camino Quince,Tucson,Pima,85748-,N/A,,76,94.7,5.3,100,94.7,5.3,100,96.1,3.9,100,96.1,3.9,100,97.4,2.6,100,5.3,0,N/A
Solomon Elementary School,public,2250 S Steven Ave ,Solomon,Graham,85551-,N/A,,22,95.5,4.5,100,95.5,4.5,100,95.5,4.5,100,95.5,4.5,100,95.5,4.5,100,4.5,0,N/A
Sonoma Ranch Elementary School,public,601 N Key Biscayne Dr,Gilbert,Maricopa,85234-,N/A,,71,97.2,2.8,100,94.4,5.6,100,95.8,4.2,100,95.8,4.2,100,97.2,2.8,100,5.6,0,N/A
Sonoran Heights Elementary School,public,11405 North Greer Ranch Parkway,Surprise,Maricopa,85379-,N/A,,109,94.5,5.5,100,94.5,5.5,100,96.3,3.7,100,97.2,2.8,100,98.2,1.8,100,5.5,0,N/A
Sonoran Science Academy,charter,2325 W. Sunset Rd.,Tucson,Pima,85741-,N/A,,49,95.9,4.1,100,95.9,4.1,100,95.9,4.1,100,95.9,4.1,100,95.9,4.1,100,6.1,0,N/A
Sonoran Science Academy - Phoenix,charter,4837 E. Mcdowell Road,Phoenix,Maricopa,85008-,N/A,,25,100,0,100,100,0,100,100,0,100,100,0,100,100,0,100,0,0,N/A
Sonoran Science Academy Broadway,charter,6880 E. Broadway,Tucson,Pima,85710-____,N/A,,43,100,0,100,100,0,100,100,0,100,100,0,100,100,0,100,0,0,N/A
Sonoran Science Academy Peoria,charter,17667 N 91st Ave,Peoria,Maricopa,85382-,N/A,,50,96,4,100,96,4,100,96,4,100,96,4,100,96,4,100,4,0,N/A
Sonoran Sky ,public,10150 W Missouri Ave,Glendale,Maricopa,85307-,N/A,,51,88.2,5.9,94,92.2,5.9,98,92.2,5.9,98,92.2,5.9,98,100,0,100,5.9,0,N/A
Sonoran Sky Elementary,charter,12990 N. 75th Street,Scottsdale,Maricopa,85260-,N/A,,88,96.6,3.4,100,95.5,4.5,100,95.5,4.5,100,94.3,5.7,100,97.7,2.3,100,5.7,0,N/A
Sonshine Christian School,private,1916 N. Frank Reed Rd,Nogales,Santa Cruz,85621-,N/A,,21,100,0,100,100,0,100,95.2,4.8,100,95.2,0,95,100,0,100,0,9.5,N/A
Sopori Elementary,public,5000 W. Arivaca Rd.,Amado,Pima,85245-,N/A,,25,80,20,100,80,20,100,88,12,100,84,16,100,84,16,100,12,8,N/A
Sousa Elementary School,public,616 N. Mountain Road,Mesa,Maricopa,85207-2303,N/A,,57,96.5,3.5,100,96.5,3.5,100,96.5,3.5,100,96.5,3.5,100,100,0,100,3.5,0,N/A
South Phoenix Prep And Arts Academy,charter,7450 S. 40th Street,Phoenix,Maricopa,85042-,N/A,,56,80.4,5.4,86,83.9,7.1,91,82.1,7.1,89,89.3,7.1,96,94.6,5.4,100,7.1,0,N/A
South Pointe Elementary School,charter,2033 E. Southern Ave.,Phoenix,Maricopa,85040-,N/A,,53,77.4,0,77,86.8,0,87,71.7,0,72,86.8,0,87,98.1,0,98,0,0,N/A
Southgate Academy,public,850 W. Valencia Rd.,Tucson,Pima,85706-,N/A,,69,100,0,100,100,0,100,100,0,100,100,0,100,100,0,100,0,0,N/A
Southwest,public,1111 W Dobbins Rd,Phoenix,Maricopa,85041-,N/A,,44,100,0,100,100,0,100,100,0,100,100,0,100,100,0,100,0,0,N/A
Spectrum Elementary,public,2846 South Spectrum Way,Gilbert,Maricopa,85295-,N/A,,72,94.4,2.8,97,94.4,2.8,97,95.8,2.8,99,97.2,2.8,100,98.6,1.4,100,2.8,0,N/A
Ss. Simon And Jude School,private,6351 N 27th Ave,Phoenix,Maricopa,85017-,N/A,,39,92.3,7.7,100,92.3,7.7,100,92.3,7.7,100,94.9,5.1,100,94.9,5.1,100,7.7,0,N/A
St Ambrose Catholic School,private,300 S Tucson Blvd ,Tucson,Pima,85716-,N/A,,22,100,0,100,100,0,100,100,0,100,100,0,100,100,0,100,0,0,N/A
St Elizabeth Ann Seton ,private,8650 N Shannon Road,Tucson,Pima,85742-9331,N/A,,45,95.6,4.4,100,97.8,2.2,100,95.6,4.4,100,95.6,4.4,100,97.8,2.2,100,6.7,0,N/A
St John Bosco Catholic School,private,16035 South 48th Street,Phoenix,Maricopa,85048-,N/A,,30,96.7,3.3,100,96.7,3.3,100,96.7,3.3,100,96.7,3.3,100,96.7,3.3,100,3.3,0,N/A
St Louis The King Catholic School,private,4331 W Maryland Ave,Glendale,Maricopa,85301-,N/A,,28,100,0,100,100,0,100,100,0,100,100,0,100,100,0,100,0,0,N/A
St Timothy Catholic School,private,2520 S. Alma School Rd.,Mesa,Maricopa,85210-,N/A,,24,91.7,8.3,100,91.7,8.3,100,91.7,8.3,100,91.7,8.3,100,91.7,8.3,100,8.3,0,N/A
St. Andrews Preschool And Kindergarten,private,7650 N. Paseo Del Norte,Tucson,Pima,85704-4540,N/A,,36,88.9,11.1,100,86.1,13.9,100,88.9,11.1,100,97.2,2.8,100,97.2,2.8,100,16.7,0,N/A
St. Charles Apache Mission,private,P.o Box 339,San Carlos,Gila,85550-,N/A,,21,100,0,100,100,0,100,100,0,100,100,0,100,100,0,100,0,0,N/A
St. Cyril Of Alexandria,private,4725 E. Pima Street,Tucson,Pima,85712-,N/A,,29,100,0,100,100,0,100,96.6,3.4,100,100,0,100,100,0,100,3.4,0,N/A
St. David Elemantary School,public,P.o. Box 70,St. David,Cochise,85630-____,N/A,,27,88.9,3.7,93,92.6,3.7,96,88.9,3.7,93,96.3,3.7,100,100,0,100,3.7,0,N/A
St. Jerome Catholic School,private,10815 N. 35th Ave.,Phoenix,Maricopa,85029-,N/A,,27,100,0,100,100,0,100,100,0,100,100,0,100,100,0,100,0,0,N/A
St. John The Evangelist Catholic School,private,600 W. Ajo Way,Tucson,Pima,85713-,N/A,,48,97.9,2.1,100,97.9,2.1,100,93.8,2.1,96,97.9,2.1,100,97.9,2.1,100,0,2.1,N/A
St. John Xxiii Catholic School,private,16235 N. 60th Street,Scottsdale,Maricopa,85254-,N/A,,71,97.2,2.8,100,97.2,2.8,100,97.2,2.8,100,97.2,2.8,100,95.8,2.8,99,5.6,0,N/A
St. Joseph Catholic School,private,215 S.craycroft Rd.,Tucson,Pima,85711-,N/A,,24,100,0,100,100,0,100,100,0,100,100,0,100,100,0,100,0,0,N/A
St. Mary-basha Catholic,private,200 W. Galveston St. ,Chandler ,Maricopa,85225-,N/A,,45,97.8,2.2,100,97.8,2.2,100,95.6,4.4,100,97.8,2.2,100,95.6,4.4,100,2.2,2.2,N/A
St. Matthew Catholic School,private,320 N 20th Dr.,Phoenix,Maricopa,85009-,N/A,,27,100,0,100,100,0,100,100,0,100,96.3,0,96,100,0,100,0,0,N/A
St. Michael's Parish Day ,private,602 N. Wilmot,Tucson,Pima,85711-2702,N/A,,25,96,4,100,88,12,100,96,4,100,92,8,100,92,8,100,12,0,N/A
St. Theresa Catholic School,private,5001 E. Thomas Rd.,Phoenix,Maricopa,85018-,N/A,,29,100,0,100,100,0,100,100,0,100,100,0,100,100,0,100,0,0,N/A
St. Thomas Aquinas Grade School,private,13720 W. Thomas Rd.,Avondale,Maricopa,85392-,N/A,,37,89.2,10.8,100,89.2,10.8,100,89.2,10.8,100,91.9,8.1,100,94.6,5.4,100,10.8,0,N/A
St. Thomas The Apostle Catholic School,private,4510 N 24th Street,Phoenix,Maricopa,85016-,N/A,,30,93.3,6.7,100,93.3,6.7,100,90,10,100,90,10,100,96.7,3.3,100,10,0,N/A
Stanfield Elementary School,public,515 S. Stanfield Rd,Stanfield,Pinal,85172-,N/A,,48,100,0,100,100,0,100,100,0,100,100,0,100,100,0,100,0,0,N/A
Starlight Park Elementary School,public,7960 W. Osborn Rd,Phoenix,Maricopa,85033-,N/A,,140,100,0,100,100,0,100,100,0,100,100,0,100,100,0,100,.7,0,N/A
Starline Elementary,public,3150 Starline Dr,Lake Havasu City,Mohave,86406-,N/A,,80,95,5,100,95,5,100,95,5,100,95,5,100,95,5,100,5,0,N/A
Stepping Stones Academy,charter,35812 N. 7th Street,Phoenix,Maricopa,85086-,N/A,,25,92,8,100,88,12,100,88,12,100,92,8,100,92,8,100,16,0,N/A
Stetson Hills Elementary,public,25475 N. Stetson Hills Loop Rd,Phoenix,Maricopa,85083-,N/A,,116,93.1,6,99,92.2,6,98,94,4.3,98,94.8,4.3,99,96.6,3.4,100,6,0,N/A
Steven R. Jasinski Elementary,public,4280 S. 246th Ave.,Buckeye,Maricopa,85326-,N/A,,91,95.6,4.4,100,95.6,4.4,100,95.6,4.4,100,95.6,4.4,100,95.6,4.4,100,4.4,0,N/A
Stevenson,public,638 S. 96th St.,Mesa,Maricopa,85208-,N/A,,103,98.1,1,99,100,0,100,99,0,99,100,0,100,100,0,100,0,1,N/A
Stevenson Elementary School,public,2200 11st Street,Douglas,Cochise,85607-,N/A,,77,98.7,1.3,100,98.7,1.3,100,97.4,1.3,99,98.7,1.3,100,98.7,1.3,100,0,1.3,N/A
Sts. Peter And Paul Catholic School,private,1436 N. Campbell Ave.,Tucson,Pima,85719-,N/A,,25,100,0,100,100,0,100,100,0,100,100,0,100,100,0,100,0,0,N/A
Sturgeon Cromer Elementary,public,7150 E. Silver Saddle,Flagstaff,Coconino,86004-,N/A,,95,95.8,4.2,100,95.8,4.2,100,96.8,3.2,100,95.8,4.2,100,97.9,2.1,100,4.2,0,N/A
Summit Academy,public,1550 W. Summit Place,Chandler,Maricopa,85224-,N/A,,84,89.3,6,95,89.3,6,95,88.1,7.1,95,90.5,6,96,96.4,3.6,100,7.1,0,N/A
Summit School Of Ahwatukee,private,4515 E. Muirwood Dr,Phoenix,Maricopa,85048-,N/A,,35,97.1,2.9,100,97.1,2.9,100,94.3,2.9,97,97.1,2.9,100,97.1,2.9,100,2.9,0,N/A
Summit View,public,1900 E. Summit St,Tucson,Pima,85756-,N/A,,78,100,0,100,100,0,100,98.7,0,99,100,0,100,100,0,100,0,0,N/A
Sun Canyon School,public,8150 W. Durango Street,Phoenix,Maricopa,85043-,N/A,,95,96.8,1.1,98,98.9,1.1,100,98.9,1.1,100,97.9,1.1,99,100,0,100,1.1,0,N/A
Sun Valley,public,8361 N 95 Th Ave,Peoria,Maricopa,85345-,N/A,,80,97.5,2.5,100,97.5,2.5,100,97.5,2.5,100,97.5,2.5,100,97.5,2.5,100,2.5,0,N/A
Sun Valley Charter School,charter,5806 South 35th Avenue,Phoenix,Maricopa,85041-4371,N/A,,45,95.6,4.4,100,95.6,4.4,100,93.3,6.7,100,97.8,2.2,100,97.8,2.2,100,6.7,0,N/A
Sunburst Elementary School,public,14218 N. 47th Ave,Glendale,Maricopa,85306-,N/A,,109,95.4,4.6,100,95.4,4.6,100,95.4,4.6,100,96.3,3.7,100,94.5,5.5,100,5.5,0,N/A
Sundance Elementary,public,25555 W Durango,Buckeye,Maricopa,85326-,N/A,,77,100,0,100,98.7,1.3,100,100,0,100,98.7,1.3,100,100,0,100,1.3,0,N/A
Sundance Elementary,public,7051 W Cholla,Peoria,Maricopa,85345-,N/A,,59,94.9,3.4,98,96.6,3.4,100,96.6,3.4,100,94.9,3.4,98,96.6,3.4,100,3.4,0,N/A
Sunland Elementary School,public,5401 S 7th Avenue,Phoenix,Maricopa,85041-,N/A,,86,100,0,100,100,0,100,100,0,100,100,0,100,100,0,100,0,0,N/A
Sunnyslope,public,245 E. Mountain View,Phoenix,Maricopa,85020-2070,N/A,,76,97.4,1.3,99,97.4,1.3,99,98.7,1.3,100,97.4,1.3,99,100,0,100,2.6,0,N/A
Sunridge Elementary,public,6244 W. Roosevelt Street,Phoenix,Maricopa,85043-,N/A,,96,99,0,99,97.9,0,98,99,1,100,99,1,100,99,1,100,0,1,N/A
Sunrise Drive Elementary School,public,5301 E. Sunrise Drive,Tucson,Pima,85718-,N/A,,88,96.6,3.4,100,95.5,4.5,100,96.6,3.4,100,94.3,5.7,100,95.5,4.5,100,6.8,0,N/A
Sunrise Elementary,public,2645 Landon Dr.,Bullhead City,Mohave,86429-,N/A,,63,92.1,4.8,97,93.7,4.8,98,95.2,4.8,100,98.4,1.6,100,98.4,1.6,100,4.8,0,N/A
Sunrise Elementary School,public,9943e 28th St,Yuma,Yuma,85365-,N/A,,94,98.9,0,99,98.9,0,99,100,0,100,100,0,100,100,0,100,0,0,N/A
Sunrise Elementary School,public,17624 N. 31st Ave,Phoenix,Maricopa,85053-,N/A,,91,95.6,2.2,98,96.7,2.2,99,96.7,2.2,99,97.8,1.1,99,98.9,1.1,100,2.2,0,N/A
Sunset Canyon School,public,2727 E. Siesta Ln,Phoenix,Maricopa,85050-,N/A,,49,89.8,6.1,96,91.8,6.1,98,93.9,6.1,100,91.8,6.1,98,93.9,6.1,100,6.1,0,N/A
Sunset Elementary,public,6602 W Osborn Rd,Phoenix,Maricopa,85033-,N/A,,128,100,0,100,100,0,100,100,0,100,100,0,100,100,0,100,0,0,N/A
Sunset Elementary School,public,4626 W Mountain View,Glendale,Maricopa,85302-2609,N/A,,85,97.6,0,98,98.8,0,99,100,0,100,98.8,0,99,100,0,100,0,0,N/A
Sunset Heights,public,9687 W. Adam Ave.,Peoria,Maricopa,85382-,N/A,,98,99,1,100,99,1,100,98,1,99,99,1,100,99,1,100,1,0,N/A
Sunset Hills Elementary,public,17825 W Sierra Montana Loop,Surprise,Maricopa,85388-,N/A,,119,92.4,5,97,93.3,5,98,94.1,5,99,96.6,3.4,100,96.6,3.4,100,5,0,N/A
Sunset Ridge Elementary,public,8490 W. Missouri Ave,Glendale,Maricopa,85305-,N/A,,58,100,0,100,100,0,100,100,0,100,100,0,100,100,0,100,0,0,N/A
Sunset Ridge Elementary,public,35707 N. 33rd. Lane,Phoenix,Maricopa,85086-,N/A,,85,96.5,3.5,100,97.6,2.4,100,96.5,3.5,100,92.9,7.1,100,97.6,2.4,100,8.2,0,N/A
Sunset Vista,public,7775 W. Orangewood Ave,Glendale,Maricopa,85303-,N/A,,113,96.5,2.7,99,96.5,2.7,99,95.6,2.7,98,97.3,2.7,100,100,0,100,2.7,0,N/A
Superstition Mountain Elementary,public,550s. Ironwood Dr. ,Apache Junction,Pinal,85120-,N/A,,83,98.8,1.2,100,98.8,1.2,100,100,0,100,100,0,100,100,0,100,1.2,0,N/A
Superstition Springs Elementary,public,7125 E. Monterey Ave.,Mesa,Maricopa,85213-,N/A,,82,97.6,2.4,100,98.8,1.2,100,98.8,1.2,100,98.8,1.2,100,100,0,100,2.4,0,N/A
Surprise Elementary School,public,12907 W Greenway Rd,El Mirage,Maricopa,85335-,N/A,,93,97.8,1.1,99,98.9,1.1,100,87.1,1.1,88,97.8,1.1,99,98.9,1.1,100,1.1,0,N/A
Sweetwater,charter,4602 W Sweetwater,Glendale,Maricopa,85304-,N/A,,53,98.1,1.9,100,98.1,1.9,100,98.1,1.9,100,98.1,1.9,100,100,0,100,1.9,0,N/A
Sycamore Elementary,public,16701 S. Houghton Road,Carona De Tucson,Pima,84641-,N/A,,146,97.3,2.7,100,96.6,3.4,100,95.9,4.1,100,96.6,3.4,100,97.9,2.1,100,3.4,.7,N/A
T G Barr,public,2041 E Vineyard,Phoenix,Maricopa,85042-,N/A,,47,100,0,100,95.7,0,96,97.9,0,98,100,0,100,100,0,100,0,0,N/A
T. Dale Hancock Elementary School,public,2425 S. Pleasant Drive,Chandler ,Maricopa,85286-,N/A,,112,96.4,3.6,100,96.4,3.6,100,95.5,4.5,100,96.4,3.6,100,96.4,3.6,100,3.6,1.8,N/A
Taft Elementary School,public,9800 E. Quarterline Road,Mesa,Maricopa,85207-6228,N/A,,60,96.7,1.7,98,98.3,1.7,100,95,5,100,96.7,3.3,100,98.3,1.7,100,6.7,0,N/A
Tanque Verde Elementary School,public,2600 N Fennimore,Tucson,Pima,85749-,N/A,,83,97.6,2.4,100,98.8,1.2,100,97.6,2.4,100,98.8,1.2,100,100,0,100,3.6,0,N/A
Tartesso Elementary School,charter,29677 W Indianola Ave,Buckeye,Maricopa,85396-,N/A,,42,97.6,0,98,100,0,100,100,0,100,100,0,100,100,0,100,0,0,N/A
Tavan Elementary,public,4610 E. Osborn Rd,Phoenix,Maricopa,85018-,N/A,,109,88.1,5.5,94,89.9,2.8,93,86.2,3.7,90,97.2,1.8,99,99.1,0,99,3.7,.9,N/A
Taylor Elementary,public,682 School Bus Lane,Snowflake,Navajo,85937-,N/A,,77,88.3,10.4,99,87,11.7,99,87,11.7,99,90.9,9.1,100,90.9,7.8,99,14.3,0,N/A
Taylor Hicks Elementary,public,1845 Campbell Drive,Prescott,Yavapai,86301-,N/A,,73,90.4,9.6,100,94.5,5.5,100,89,11,100,95.9,1.4,97,97.3,2.7,100,1.4,0,N/A
Teleos Preparatory Academy,charter,1401 E. Jefferson Street ,Phoenix,Maricopa,85339-,N/A,,26,84.6,0,85,84.6,0,85,88.5,0,88,88.5,0,88,84.6,0,85,0,0,N/A
"Telesis Center For Learning, Inc.",charter,2598 Starlite Lane,Lake Havasu City,Mohave,86403-,N/A,,39,87.2,2.6,90,87.2,2.6,90,87.2,2.6,90,97.4,2.6,100,84.6,2.6,87,2.6,0,N/A
Terramar Elementary,public,7000 W. Happy Valley Road,Peoria,Maricopa,85383-,N/A,,75,98.7,1.3,100,97.3,2.7,100,98.7,0,99,98.7,1.3,100,98.7,1.3,100,4,0,N/A
Territorial Kinder Center,public,1088 Mahan Lane,Chino Valley,Yavapai,86323-,N/A,,168,94.6,5.4,100,91.7,8.3,100,90.5,9.5,100,95.8,4.2,100,97.6,2.4,100,10.7,0,N/A
Tesseract School Doubletree Campus,private,4800 E. Doubletree Ranch Road,Paradise Valley,Maricopa,85253-,N/A,,34,97.1,2.9,100,97.1,2.9,100,97.1,2.9,100,94.1,5.9,100,97.1,2.9,100,5.9,0,N/A
The Montessori Schoolhouse,charter,1127 N. 6th Avenue,Tucson,Pima,85705-,N/A,,22,100,0,100,100,0,100,100,0,100,95.5,4.5,100,100,0,100,4.5,0,N/A
The Odyssey Preparatory Academy Buckeye Campus,charter,6500 S. Apache Rd.,Buckeye,Maricopa,85326-,N/A,,111,93.7,6.3,100,93.7,6.3,100,92.8,7.2,100,94.6,5.4,100,92.8,7.2,100,6.3,.9,N/A
The Odyssey Preparatory Academy Casa Grande Campus,charter,950 N. Peart Rd.,Casa Grande,Maricopa,85122-,N/A,,60,98.3,1.7,100,98.3,1.7,100,98.3,1.7,100,98.3,1.7,100,98.3,1.7,100,1.7,0,N/A
The Odyssey Preparatory Academy Goodyear Campus,charter,17532 W. Harrison St.,Goodyear,Maricopa,85338-,N/A,,105,93.3,6.7,100,94.3,5.7,100,94.3,5.7,100,93.3,6.7,100,94.3,5.7,100,6.7,0,N/A
Theodore Roosevelt Elementary,public,828 S. Valencia St.,Mesa,Maricopa,85202-,N/A,,91,94.5,4.4,99,95.6,4.4,100,96.7,3.3,100,96.7,3.3,100,94.5,0,95,2.2,2.2,N/A
Thomas Edison Elementary School,public,804 North 18th Street,Phoenix,Maricopa,85006-,N/A,,83,96.4,0,96,95.2,0,95,100,0,100,98.8,0,99,100,0,100,0,0,N/A
Thomas M Knoles Elementary School,public,4005 E Butler Ave.,Flagstaff,Coconino,86004-,N/A,,112,96.4,3.6,100,96.4,3.6,100,98.2,1.8,100,98.2,1.8,100,99.1,.9,100,3.6,0,N/A
Thompson Ranch Elementary,public,11800 West Thompson Ranch Rd,El Mirage,Maricopa,85335-,N/A,,106,97.2,.9,98,97.2,.9,98,98.1,.9,99,98.1,.9,99,98.1,.9,99,.9,0,N/A
Thornydale Elementary School,public,7651 N. Oldfather Dr.,Tucson,Pima,85741-,N/A,,40,90,7.5,98,92.5,7.5,100,95,5,100,92.5,7.5,100,100,0,100,7.5,0,N/A
Tolson Elementary,public,1000 S. Greasewood Rd.,Tucson,Pima,85745-,N/A,,48,93.8,6.3,100,95.8,4.2,100,93.8,6.3,100,93.8,4.2,98,95.8,4.2,100,6.3,0,N/A
Toltec Elementary School,public,3315 N. Toltec Rd. ,Eloy,Pinal,85131-,N/A,,54,96.3,3.7,100,96.3,3.7,100,96.3,3.7,100,96.3,3.7,100,100,0,100,3.7,0,N/A
Tomahawk School,public,7820 W Turney Ave,Phoenix,Maricopa,85033-,N/A,,155,96.1,1.3,97,96.1,1.3,97,98.7,1.3,100,98.7,1.3,100,98.7,1.3,100,1.3,0,N/A
Tonalea Elementary School,public,6801 E. Oak Street,Scottsdale,Maricopa,85257-,N/A,,52,98.1,1.9,100,98.1,1.9,100,98.1,1.9,100,98.1,1.9,100,98.1,1.9,100,1.9,0,N/A
Town & Country Elementary School,public,1313 S. Lenzner Ave,Sierra Vista ,Cochise,85635-,N/A,,52,100,0,100,100,0,100,100,0,100,100,0,100,100,0,100,0,0,N/A
Towne Meadown Elementary School,public,1101 N. Recker Rd.,Gilbert,Maricopa,85234-,N/A,,86,96.5,3.5,100,95.3,4.7,100,96.5,3.5,100,96.5,3.5,100,96.5,3.5,100,5.8,0,N/A
Trailside Point Elementary,public,7275 W Vineyard,Laveen,Maricopa,85339-,N/A,,120,97.5,.8,98,88.3,.8,89,90,.8,91,97.5,.8,98,97.5,.8,98,.8,0,N/A
Tres Rios Elementary School,public,5025 S 103rd Ave,Tolleson,Maricopa,85353-,N/A,,102,98,0,98,99,0,99,98,0,98,99,0,99,100,0,100,0,0,N/A
Tri-city Christian Academy,private,2211 W. Germann Rd.,Chandler,Maricopa,85286-,N/A,,24,91.7,8.3,100,91.7,8.3,100,91.7,8.3,100,91.7,8.3,100,91.7,8.3,100,8.3,0,N/A
Trinity Christian School,private,1071 Mogollon Rd.,Prescott,Yavapai,86301-,N/A,,29,62.1,37.9,100,62.1,37.9,100,62.1,37.9,100,62.1,37.9,100,62.1,37.9,100,37.9,0,N/A
Trinity School ,private,830 E Plaza Circle ,Litchfield Park ,Maricopa,85340-,N/A,,23,91.3,8.7,100,91.3,8.7,100,91.3,8.7,100,95.7,4.3,100,91.3,8.7,100,8.7,0,N/A
Tsaile Public School,public,Chinle Unified School Dist#24,Chinle,Apache,86503-,N/A,,46,100,0,100,100,0,100,100,0,100,100,0,100,100,0,100,0,0,N/A
Tsehootsooi Dine Biolta School,public,P.o Box 559,Fort Defiance,Apache,86504-,N/A,,37,100,0,100,100,0,100,100,0,100,100,0,100,100,0,100,0,0,N/A
Tsehootsooi Primary Learning Center,public,P.o Box 559,Fort Defiance,Apache,86504-,N/A,,133,100,0,100,100,0,100,100,0,100,100,0,100,100,0,100,0,0,N/A
Tsinaabaas Habitiin Elementary School,public,P.o. Box 67,Tuba City,Coconino,86045-0067,N/A,,23,100,0,100,100,0,100,100,0,100,100,0,100,100,0,100,0,0,N/A
Tucson Country Day School,charter,9239 E. Wrightstown Rd.,Tucson,Pima,85730-,N/A,,87,98.9,1.1,100,97.7,2.3,100,97.7,2.3,100,97.7,2.3,100,97.7,2.3,100,2.3,0,N/A
Tucson Waldorf School,private,3605 E. River Rd,Tucson,Pima,85718,N/A,,47,53.2,46.8,100,57.4,42.6,100,46.8,53.2,100,53.2,46.8,100,100,46.8,100,53.2,0,N/A
Tully Elementary,public,1701 W El Rio Dr,Tucson,Pima,85745-,N/A,,64,95.3,0,95,96.9,1.6,98,98.4,1.6,100,100,0,100,98.4,1.6,100,1.6,0,N/A
Tumbleweed,public,4001 West Laurel Lane,Phoenix,Maricopa,85029-,N/A,,65,96.9,3.1,100,96.9,3.1,100,96.9,3.1,100,95.4,4.6,100,96.9,3.1,100,3.1,1.5,N/A
Tuscano,public,3850 S. 79th Ave,Phoenix,Maricopa,85043-,N/A,,104,99,0,99,100,0,100,100,0,100,100,0,100,100,0,100,0,0,N/A
Twin Peaks Elementary,public,7995 W Twin Peaks,Tucson,Pima,85743-,N/A,,94,92.6,7.4,100,85.1,7.4,93,92.6,7.4,100,94.7,5.3,100,100,0,100,7.4,1.1,N/A
Vail Academy & High School,charter,7762 E Science Park Dr,Tucson,Pima,85747-,N/A,,23,100,0,100,100,0,100,100,0,100,95.7,0,96,100,0,100,0,0,N/A
Val Vista Academy,charter,4120 S. Val Vista Dr.,Gilbert,Maricopa,85297-4607,N/A,,62,100,0,100,100,0,100,100,0,100,100,0,100,100,0,100,0,0,N/A
Val Vista Lakes Elementary,public,1030 N. Blue Grotto Dr.,Gilbert ,Maricopa,85234-,N/A,,64,95.3,4.7,100,95.3,4.7,100,95.3,4.7,100,95.3,4.7,100,95.3,4.7,100,4.7,0,N/A
Valle Del Encanto Learning Center,public,P.o. Box 3200,Somerton,Yuma,85350-3200,N/A,,228,100,0,100,100,0,100,100,0,100,99.6,0,100,100,0,100,0,0,N/A
Valley Academy,charter,1520 W. Rose Garden Ln.,Phoenix,Maricopa,85027-,N/A,,105,97.1,2.9,100,98.1,1.9,100,97.1,2.9,100,96.2,3.8,100,98.1,1.9,100,4.8,0,N/A
Valley Horizon Elementary,public,4501 W. 20h Street,Yuma,Yuma,85364-,N/A,,72,100,0,100,100,0,100,100,0,100,100,0,100,100,0,100,0,0,N/A
Valley View Elementary School,public,8220 S. 7th Avenue,Phoenix,Maricopa,85041-,N/A,,60,100,0,100,100,0,100,100,0,100,100,0,100,100,0,100,0,0,N/A
Van Buskirk Elementary,public,725 E. Fair,Tucson,Pima,85714-,N/A,,68,94.1,0,94,95.6,0,96,92.6,0,93,95.6,0,96,97.1,0,97,0,0,N/A
Vasquez De Coronado Francisco School,public,2301 N. Al Harrison Rd ,Nogales ,Santa Cruz,85621-,N/A,,98,99,1,100,100,0,100,100,0,100,100,0,100,100,0,100,1,0,N/A
Vector Prep And Arts Academy,charter,2020 N Arizona Ave Suite 5,Chandler,Maricopa,85225-,N/A,,25,96,0,96,100,0,100,96,0,96,96,0,96,100,0,100,0,0,N/A
Ventana Vista Elementary,public,6085 N Kolb Road,Tucson,Pima,85750-,N/A,,76,93.4,6.6,100,93.4,6.6,100,93.4,6.6,100,96.1,3.9,100,98.7,1.3,100,6.6,0,N/A
Verrado Elementary School,public,20873 W. Sunrise Ln,Buckeye,Maricopa,85396-,N/A,,145,85.5,6.9,92,85.5,6.9,92,86.2,6.9,93,91,6.9,98,93.1,6.9,100,6.2,.7,N/A
Vesey Elementary,public,5005 S. Butts Road,Tucson,Pima,85757-,N/A,,84,100,0,100,100,0,100,100,0,100,100,0,100,100,0,100,0,0,N/A
Vh Lassen,public,909 W. Vineyard,Phoenix,Maricopa,85042-5500,N/A,,49,100,0,100,100,0,100,93.9,0,94,95.9,0,96,93.9,0,94,0,0,N/A
Villa De Paz Elementary School,public,4940 N. 103rd Avenue,Phoenix,Maricopa,85037-,N/A,,66,93.9,6.1,100,95.5,4.5,100,93.9,6.1,100,97,0,97,100,0,100,4.5,0,N/A
Village Meadows Elementary,public,2020 W Morningside Dr,Phoenix,Maricopa,85023-,N/A,,53,94.3,5.7,100,94.3,5.7,100,94.3,5.7,100,96.2,3.8,100,96.2,3.8,100,5.7,0,N/A
Village Meadows Elementary School,public,905 El Camino Real Ave,Sierra Vista,Cochise,85635-,N/A,,76,98.7,0,99,97.4,0,97,100,0,100,100,0,100,100,0,100,1.3,0,N/A
Vista College Preparatory ,charter,812 South 6th Avenue,Phoenix,Maricopa,85003-,N/A,,38,100,0,100,100,0,100,100,0,100,100,0,100,100,0,100,0,0,N/A
Vista Del Sur Traditional School,public,3908 W South Mountain,Laveen,Maricopa,85339-,N/A,,91,98.9,1.1,100,98.9,1.1,100,98.9,1.1,100,98.9,1.1,100,100,0,100,1.1,0,N/A
Vistancia Elementary School,public,300009 N. Sunrise Point,Peoria,Maricopa,85383-,N/A,,87,97.7,2.3,100,96.6,3.4,100,90.8,9.2,100,95.4,4.6,100,96.6,3.4,100,9.2,0,N/A
W F Killip Elementary School,public,2300 E 6th Ave,Flagstaff,Coconino,86004-,N/A,,79,97.5,2.5,100,96.2,2.5,99,96.2,2.5,99,98.7,1.3,100,97.5,2.5,100,2.5,0,N/A
Walker Butte K-8,public,P.o. Box 2850 ,Florence,Pinal,85132-,N/A,,92,91.3,8.7,100,91.3,8.7,100,90.2,8.7,99,91.3,8.7,100,91.3,8.7,100,8.7,0,N/A
Walter Douglas Elementary School,public,3302 North Flowing Wells Road,Tucson,Pima,85705-,N/A,,92,98.9,1.1,100,98.9,1.1,100,98.9,1.1,100,98.9,1.1,100,100,0,100,1.1,0,N/A
Ward Traditional Academy,public,1965 E Hermosa Drive,Tempe,Maricopa,85282-,N/A,,48,95.8,4.2,100,93.8,6.3,100,93.8,6.3,100,93.8,6.3,100,95.8,4.2,100,6.3,0,N/A
Warren Elementary,public,5505 W. Milton Rd.,Tucson,Pima,85735-,N/A,,52,100,0,100,100,0,100,98.1,0,98,100,0,100,100,0,100,0,0,N/A
Washington Elementary School,public,8033 N 27th Ave,Phoenix,Maricopa,85051-,N/A,,127,92.1,3.1,95,95.3,3.1,98,96.9,3.1,100,96.1,3.1,99,96.9,3.1,100,3.1,0,N/A
Washington Elementary School,public,2260 W Isabella ,Mesa,Maricopa,85202-,N/A,,60,91.7,6.7,98,93.3,6.7,100,90,6.7,97,91.7,6.7,98,93.3,6.7,100,6.7,0,N/A
Washington Traditional School,public,Washington Traditional School,Prescott,Yavapai,86301-,N/A,,42,92.9,0,93,92.9,7.1,100,92.9,7.1,100,95.2,4.8,100,100,0,100,9.5,0,N/A
Webster Elementary School,public,202 N. Sycamore,Mesa,Maricopa,85201-,N/A,,81,98.8,1.2,100,97.5,1.2,99,98.8,1.2,100,98.8,1.2,100,98.8,1.2,100,1.2,0,N/A
Weinberg Elementary,public,5245 S. Val Vista Drive ,Gilbert,Maricopa,85298-,N/A,,135,92.6,7.4,100,93.3,6.7,100,94.8,5.2,100,91.9,8.1,100,94.8,5.2,100,8.1,0,N/A
Weitzel's Puente De Hozho Bilingual Magnet School,public,3401 N. Fourth Street,Flagstaff,Coconino,86004-,N/A,,82,98.8,1.2,100,97.6,2.4,100,95.1,4.9,100,95.1,4.9,100,97.6,2.4,100,6.1,0,N/A
West Elementary School,public,460 S. 7th Street,Coolidge,Pinal,85128-,N/A,,80,100,0,100,100,0,100,100,0,100,100,0,100,100,0,100,0,0,N/A
West Park Elementary,public,2700 S. 257th,Buckeye,Maricopa,85326-,N/A,,80,95,5,100,95,5,100,92.5,5,98,95,5,100,95,5,100,5,0,N/A
West Point Elementary,public,13700 W Greenway Rd,Surprise,Maricopa,85374-,N/A,,94,92.6,7.4,100,94.7,5.3,100,95.7,4.3,100,97.9,2.1,100,97.9,2.1,100,6.4,0,N/A
West Sedona Elementary,public,570 Posse Grounds Road,Sedona,Yavapai,86336-,N/A,,59,91.5,6.8,98,91.5,6.8,98,91.5,6.8,98,91.5,6.8,98,93.2,6.8,100,6.8,0,N/A
West Valley Christian School,private,16260 W Van Buren St,Goodyear,Maricopa,85338-,N/A,,25,56,0,56,52,0,52,56,0,56,84,0,84,100,0,100,0,0,N/A
West Wind,public,9040 W Campbell Ave,Phoenix,Maricopa,85037-,N/A,,132,98.5,1.5,100,98.5,1.5,100,98.5,1.5,100,98.5,1.5,100,100,0,100,1.5,0,N/A
West Wing,public,26716 N. High Desert Drive,Peoria,Maricopa,85383-,N/A,,90,94.4,5.6,100,94.4,5.6,100,94.4,5.6,100,92.2,5.6,98,97.8,2.2,100,5.6,5.6,N/A
Westar Elementary,public,17777 W. Westar Drive,Goodyear,Maricopa,85338-,N/A,,52,86.5,5.8,92,92.3,5.8,98,92.3,5.8,98,90.4,5.8,96,98.1,1.9,100,5.8,0,N/A
Western Peaks Elementary,public,18063 W. Surprise Farms Loop South,Surprise,Maricopa,85388-,N/A,,90,91.1,2.2,93,92.2,2.2,94,91.1,2.2,93,95.6,1.1,97,97.8,2.2,100,1.1,1.1,N/A
Western Valley Elementary School,public,6250 W Durango St,Phoenix,Maricopa,85043-,N/A,,79,97.5,1.3,99,98.7,1.3,100,96.2,2.5,99,98.7,1.3,100,98.7,1.3,100,2.5,0,N/A
Westwood Primary School,public,4711 N 23rd Avenue,Phoenix,Maricopa,85015-,N/A,,260,95.4,.4,96,97.7,.4,98,98.8,.4,99,98.1,.4,98,99.6,.4,100,.4,0,N/A
Wheeler Elementary,public,1818 S. Avenuda Del Sol,Tucson,Pima,85710-,N/A,,79,97.5,1.3,99,98.7,1.3,100,93.7,5.1,99,97.5,2.5,100,96.2,3.8,100,5.1,1.3,N/A
Whipple Ranch Elementary School,public,500 W. Old Linden Rd.,Show Low,Navajo,85901-,N/A,,101,88.1,11.9,100,88.1,9.9,98,90.1,5.9,96,92.1,7.9,100,94.1,5.9,100,5.9,5.9,N/A
Whispering Wind Academy,charter,15844 N. 43rd St,Phoenix,Maricopa,85032-,N/A,,69,94.2,4.3,99,94.2,5.8,100,97.1,2.9,100,92.8,2.9,96,97.1,2.9,100,2.9,2.9,N/A
White Elementary,public,2315 W. Canada St,Tucson,Pima,85746-,N/A,,104,100,0,100,100,0,100,99,1,100,100,0,100,99,1,100,0,1,N/A
Whiteriver Elementary School,public,P.o. Box 190,Whiteriver,Navajo,85941-,N/A,,104,98.1,1.9,100,99,1,100,99,1,100,100,0,100,100,0,100,1,0,N/A
Whitman Elementary,public,1829 N. Grand,Mesa,Maricopa,85201-1706,N/A,,93,96.8,0,97,100,0,100,98.9,0,99,98.9,0,99,100,0,100,0,0,N/A
Whitmore Elementary,public,5330 E. Glenn,Tucson,Pima,85712-,N/A,,74,94.6,5.4,100,97.3,2.7,100,97.3,2.7,100,95.9,4.1,100,97.3,2.7,100,4.1,1.4,N/A
Whittier Elementary School,public,2000 N 16th Street,Phoenix,Maricopa,85006-,N/A,,60,96.7,1.7,98,96.7,0,97,95,3.3,98,96.7,0,97,100,0,100,1.7,0,N/A
Whittier Elementary School,public,733 N. Longmore,Mesa,Maricopa,85201-,N/A,,79,98.7,0,99,98.7,0,99,98.7,0,99,96.2,2.5,99,100,0,100,2.5,0,N/A
Wildfire Elementary School,public,3997 E. Lockwood Dr. ,Phoenix ,Maricopa,85050-,N/A,,91,92.3,7.7,100,91.2,7.7,99,87.9,9.9,98,91.2,5.5,97,94.5,5.5,100,11,0,N/A
Wildflower School,public,325 S Wildflower Dr,Goodyear,Maricopa,85338-,N/A,,54,90.7,5.6,96,92.6,5.6,98,92.6,7.4,100,94.4,5.6,100,94.4,5.6,100,9.3,0,N/A
Willcox Elementary School,public,501 W Delos St,Willcox,Cochise,85643-,N/A,,71,95.8,1.4,97,95.8,4.2,100,95.8,4.2,100,95.8,4.2,100,94.4,5.6,100,5.6,0,N/A
William C Jack School,public,6600 W. Missouri Ave.,Glendale,Maricopa,85301-,N/A,,181,100,0,100,100,0,100,99.4,0,99,99.4,0,99,100,0,100,0,0,N/A
William R Sullivan Elementary School,public,2 N. 31st Ave,Phoenix,Maricopa,85009-____,N/A,,62,100,0,100,100,0,100,100,0,100,100,0,100,100,0,100,0,0,N/A
William T. Machan Elementary,public,2140 E. Virginia Ave.,Phoenix,Maricopa,85006-,N/A,,56,100,0,100,100,0,100,100,0,100,100,0,100,100,0,100,0,0,N/A
Williams Elementary Middle School,public,Po Box 427,Williams,Coconino,86046-,N/A,,37,78.4,18.9,97,83.8,10.8,95,83.8,13.5,97,97.3,2.7,100,89.2,10.8,100,16.2,2.7,N/A
Wilson Elementary School,public,5619 E. Glade Ave,Mesa,Maricopa,85206-,N/A,,113,91.2,7.1,98,92.9,7.1,100,92,7.1,99,92,7.1,99,100,0,100,6.2,.9,N/A
Winifred Harelson Elementary School,public,826 W Chapala,Tucson,Pima,85704-,N/A,,68,98.5,1.5,100,98.5,1.5,100,98.5,1.5,100,98.5,1.5,100,98.5,1.5,100,2.9,0,N/A
Wood School,public,727 W. Cornell Dr.,Tempe,Maricopa,85283-,N/A,,102,94.1,2,96,96.1,2,98,95.1,2,97,96.1,2,98,100,0,100,3.9,1,N/A
Yavapai Elementary School,public,701 N. Miller Rd.,Scottsdale,Maricopa,85257-,N/A,,59,96.6,1.7,98,98.3,1.7,100,98.3,1.7,100,100,0,100,100,0,100,1.7,0,N/A
Young Scholars Academy,charter,1501 E. Valencia Road,Bullhead City,Mohave,86426-,N/A,,48,95.8,2.1,98,97.9,2.1,100,95.8,2.1,98,97.9,2.1,100,97.9,2.1,100,2.1,0,N/A
Zaharis,public,9410 E Mckellips,Mesa,Maricopa,85207-,N/A,,126,91.3,8.7,100,92.1,7.9,100,91.3,8.7,100,92.1,7.9,100,100,0,100,9.5,0,N/A
Zuni Hills Elementary,public,10851 W. Williams Road,Sun City,Maricopa,85373-3375,N/A,,61,96.7,1.6,98,96.7,1.6,98,96.7,1.6,98,98.4,1.6,100,98.4,1.6,100,1.6,0,N/A
