SCHOOL_NAME,SCHOOL_TYPE,SCHOOL_ADDRESS_ONE,CITY,COUNTY,ZIP_CODE,HAS_NURSE,NURSE_TYPE,ENROLLED,PCT_IMMUNE_DTAP,PCT_EXEMPT_DTAP,PCT_COMPLIANCE_DTAP,PCT_IMMUNE_TDAP,PCT_EXEMPT_TDAP,PCT_COMPLIANCE_TDAP,PCT_IMMUNE_MVMVC,PCT_EXEMPT_MVMVC,PCT_COMPLIANCE_MVMVC,PCT_IMMUNE_POLIO,PCT_EXEMPT_POLIO,PCT_COMPLIANCE_POLIO,PCT_IMMUNE_MMR,PCT_EXEMPT_MMR,PCT_COMPLIANCE_MMR,PCT_IMMUNE_HEPB,PCT_EXEMPT_HEPB,PCT_COMPLIANCE_HEPB,PCT_IMMUNE_VAR,PCT_EXEMPT_VAR,PCT_COMPLIANCE_VAR,PCT_PBE,PCT_MEDICAL_EXEMPT,PCT_PBE_EXEMPT_ALL
91st Psalm Christian School,n/a,2020 E BASELINE RD,PHOENIX,MARICOPA,85042,n,,< 20,na,na,na,na,na,na,na,na,na,na,na,na,na,na,na,na,na,na,na,na,na,na,na,na
Abraham Lincoln School,n/a,10444 N 39TH AVE,PHOENIX,MARICOPA,85051,n,,49,98,2,100,100,0,100,96,4.1,100,98,2,100,98,2,100,98,2,100,98,2,100,4.1,0,2
Academy Del Sol - Hope,n/a,7102 W VALLEY CREST PL,TUCSON,PIMA,85757,n,,57,100,0,100,98,1.8,100,75,1.8,102,100,0,100,98,1.8,100,100,0,100,100,0,100,1.8,0,0
Academy Of Excellence,n/a,425 N 36TH ST,PHOENIX,MARICOPA,85008,n,,< 20,na,na,na,na,na,na,na,na,na,na,na,na,na,na,na,na,na,na,na,na,na,na,na,na
Academy Of Math And Science,n/a,1557 W PRINCE RD,TUCSON,PIMA,85705,n,,44,100,0,100,80,18.2,98,80,18.2,98,100,0,100,100,0,100,100,0,100,100,0,100,18.2,0,0
Academy Of Math and Science Camelback,n/a,6633 W CAMELBACK RD,PHOENIX,MARICOPA,85033,n,,57,98,0,98,90,0,91,88,0,90,98,0,98,98,0,98,97,1.8,98,100,0,100,1.8,0,0
Academy Of Mathematics And Science South,n/a,3335 W FLOWER ST,PHOENIX,MARICOPA,85017,n,,66,94,3,97,94,3,100,86,6.1,100,97,3,100,97,3,100,97,3,100,97,3,100,3,0,0
Academy Of Tucson Middle School,n/a,7310 E 22ND ST,TUCSON,PIMA,85710,n,,72,100,0,100,86,2.8,89,85,2.8,88,99,0,99,97,1.4,99,99,0,99,99,0,99,4.2,1.4,0
Accel,n/a,10251 N 35TH AVE,PHOENIX,MARICOPA,85051,y,rn,< 20,na,na,na,na,na,na,na,na,na,na,na,na,na,na,na,na,na,na,na,na,na,na,na,na
Accel - East Campus,n/a,1430 E BASELINE RD,TEMPE,MARICOPA,85283,n,,< 20,na,na,na,na,na,na,na,na,na,na,na,na,na,na,na,na,na,na,na,na,na,na,na,na
Accelerated Learning Laboratory,n/a,5245 N CAMINO DE OESTE,TUCSON,PIMA,85745,n,,< 20,na,na,na,na,na,na,na,na,na,na,na,na,na,na,na,na,na,na,na,na,na,na,na,na
Acclaim Academy,n/a,7624 W INDIAN SCHOOL RD,PHOENIX,MARICOPA,85033,n,,47,11,0,11,4,0,4,4,0,4,81,0,81,83,0,83,83,0,83,96,0,96,0,100,0
Acorn Montessori Charter School,n/a,8556 E LOOS DR,PRESCOTT VALLEY,YAVAPAI,86314,n,,38,100,0,100,100,0,100,100,0,100,100,0,100,100,0,100,100,0,100,100,0,100,0,0,0
Adams Elementary School,n/a,738 S LONGMORE,MESA,MARICOPA,85202,y,rn,88,99,0,99,98,1.1,100,98,1.1,100,100,0,100,100,0,100,100,0,100,99,1.1,100,2.3,1.1,0
Adams Traditional Academy,n/a,2323 W PARKSIDE LN,PHOENIX,MARICOPA,85027,y,rn,61,98,1.6,100,89,11.5,100,85,14.8,100,98,1.6,100,95,4.9,100,98,1.6,100,97,3.3,100,50.8,0,1.6
Agua Caliente Elementary School,n/a,11420 E LIMBERLOST RD,TUCSON,PIMA,85749,y,rn,80,99,1.3,100,99,1.3,100,99,1.3,100,99,1.3,100,99,1.3,100,99,1.3,100,99,1.3,100,1.3,0,0
Aguila Elementary School,n/a,50023 N. 51ST AVE,AGUILA,MARICOPA,85320,n,,< 20,na,na,na,na,na,na,na,na,na,na,na,na,na,na,na,na,na,na,na,na,na,na,na,na
Aire Libre Elementary School,n/a,16428 N 21ST ST,PHOENIX,MARICOPA,85022,y,rn,61,93,4.9,98,97,0,97,95,4.9,100,98,1.6,100,97,3.3,100,98,1.6,100,98,0,98,4.9,0,1.6
Alfred F Garcia School,n/a,1441 S 27TH AVE,PHOENIX,MARICOPA,85009,y,lpn,55,100,0,100,93,0,93,93,0,93,98,0,98,100,0,100,100,0,100,100,0,100,0,0,0
Alhambra Traditional School,n/a,3736 W OSBORN RD,PHOENIX,MARICOPA,85019,y,lpn,76,99,1.3,100,96,2.6,99,96,2.6,99,99,1.3,100,99,1.3,100,100,0,100,100,0,100,2.6,0,0
Alice Vail Middle School,n/a,5350 E 16TH ST,TUCSON,PIMA,85711,y,rn,267,100,.4,100,97,1.5,99,97,1.1,99,99,.4,100,99,.7,100,99,.7,100,99,.7,100,1.5,0,0
All Saints Catholic School,n/a,1425 E YAQUI ST,SIERRA VISTA,COCHISE,85650,n,,< 20,na,na,na,na,na,na,na,na,na,na,na,na,na,na,na,na,na,na,na,na,na,na,na,na
All Saints Episcopal Day School,n/a,6300 N CENTRAL AVE,PHOENIX,MARICOPA,85012,y,rn,58,100,0,100,100,0,100,97,0,98,100,0,100,100,0,100,100,0,100,100,0,100,0,0,0
Alpine Elementary School,n/a,"COUNTY RD 2311, #101",ALPINE,APACHE,85920,n,,< 20,na,na,na,na,na,na,na,na,na,na,na,na,na,na,na,na,na,na,na,na,na,na,na,na
Alta Loma School,n/a,9750 N 87TH AVE,PEORIA,MARICOPA,85345,y,rn,89,98,1.1,99,90,1.1,91,90,1.1,91,96,1.1,97,99,1.1,100,98,1.1,99,99,1.1,100,1.1,0,1.1
Alta Vista Elementary,n/a,8710 N 31ST AVE,PHOENIX,MARICOPA,85051,y,rn,75,84,0,84,99,0,100,97,1.3,100,92,0,92,100,0,100,93,0,93,100,0,100,1.3,0,0
Altadena Middle School,n/a,14620 S DESERT FOOTHILLS PKWY,PHOENIX,MARICOPA,85048,n,,343,96,4.1,100,90,6.1,97,90,6.4,97,96,4.4,100,95,5,100,95,4.7,100,97,2.9,100,7.6,0,1.5
Altar Valley Middle School,n/a,16350 W AJO HWY,TUCSON,PIMA,85735,y,rn,80,99,1.3,100,96,1.3,100,96,1.3,100,99,1.3,100,99,1.3,100,98,2.5,100,99,1.3,100,2.5,0,1.3
Ambassador Academy,n/a,3820 E RAY RD,PHOENIX,MARICOPA,85044,n,,< 20,na,na,na,na,na,na,na,na,na,na,na,na,na,na,na,na,na,na,na,na,na,na,na,na
Amberlea Elementary,n/a,8455 W VIRGINIA AVE,PHOENIX,MARICOPA,85037,n,,85,99,1.2,100,99,1.2,100,98,1.2,100,99,1.2,100,99,1.2,100,100,0,100,99,0,99,1.2,0,0
American Heritage Academy - Camp Verde,n/a,132 W GENERAL CROOK TRL,CAMP VERDE,YAVAPAI,86322,n,,< 20,na,na,na,na,na,na,na,na,na,na,na,na,na,na,na,na,na,na,na,na,na,na,na,na
American Heritage Academy - Cottonwood,n/a,2030 E CHERRY ST,COTTONWOOD,YAVAPAI,86326,n,,22,82,9.1,91,41,9.1,50,41,9.1,50,82,9.1,91,86,9.1,96,82,9.1,91,86,9.1,96,9.1,0,9.1
American Leadership Academy - Gilbert,n/a,3155 S SAN TAN VILLAGE PKWY,GILBERT,MARICOPA,85295,n,,57,86,14,100,70,26.3,100,67,29.8,100,86,14,100,83,17.5,100,84,15.8,100,86,14,100,36.8,0,12.3
American Leadership Academy - Mesa,n/a,4507 S MOUNTAIN RD,MESA,MARICOPA,85212,n,,47,92,8.5,100,83,17,100,85,14.9,100,92,8.5,100,92,8.5,100,92,8.5,100,94,6.4,100,19.1,0,6.4
American Leadership Academy - San Tan,n/a,34969 N VILLAGE LN,SAN TAN VALLEY,MARICOPA,85142,n,,59,92,6.8,98,81,16.9,100,78,20.3,100,93,5.1,98,95,5.1,100,92,6.8,98,98,1.7,100,23.7,0,1.7
American Leadership Academy Anthem South Campus,n/a,4380 N HUNT HWY,FLORENCE,PINAL,85132,n,,48,94,6.3,100,92,6.3,100,92,6.3,100,94,6.3,100,94,6.3,100,94,6.3,100,94,6.3,100,6.3,0,6.3
American Leadership Academy Ironwood Elementary Campus,n/a,650 W COMBS RD,QUEEN CREEK,PINAL,85140,n,,113,91,8,99,83,8.8,100,81,10.6,100,92,8,100,93,7.1,100,90,9.7,100,95,5.3,100,14.2,0,.9
American Leadership Acadmey - Queen Creek Elementary,n/a,19843 E CHANDLER HEIGHTS RD,CHANDLER HTS,MARICOPA,85142,n,,121,96,4.1,100,75,21.5,100,73,24,100,91,9.1,100,91,9.1,100,95,4.1,99,95,5,100,24.8,3.3,4.1
Amerischools Academy - Camelback,n/a,1333 W CAMELBACK RD,PHOENIX,MARICOPA,85013,n,,23,96,4.3,100,83,4.3,91,83,4.3,91,96,4.3,100,96,4.3,100,96,4.3,100,96,4.3,100,4.3,0,4.3
Amerischools Academy - Country Club,n/a,1150 N COUNTRY CLUB RD,TUCSON,PIMA,85716,n,,25,100,0,100,100,0,100,100,0,100,100,0,100,100,0,100,100,0,100,100,0,100,0,0,0
Amerischools Academy - Yuma South Campus,n/a,2098 S 3RD AVE,YUMA,YUMA,85364,n,,< 20,na,na,na,na,na,na,na,na,na,na,na,na,na,na,na,na,na,na,na,na,na,na,na,na
Amerischools Academy North,n/a,1220 S 4TH AVE,YUMA,YUMA,85364,n,,22,100,0,100,91,0,96,91,0,96,100,0,100,100,0,100,100,0,100,100,0,100,0,0,0
Amphitheater Middle School,n/a,315 E PRINCE RD,TUCSON,PIMA,85705,y,,241,100,0,100,98,0,100,98,0,100,100,0,100,100,0,100,100,0,100,100,0,100,0,0,0
Amy L. Houston Academy,n/a,7139 S 10TH ST,PHOENIX,MARICOPA,85042,y,lpn,< 20,na,na,na,na,na,na,na,na,na,na,na,na,na,na,na,na,na,na,na,na,na,na,na,na
Andalucia Middle School,n/a,4730 W CAMPBELL AVE,PHOENIX,MARICOPA,85031,n,,222,100,0,100,99,0,100,98,0,100,100,0,100,100,0,100,100,0,100,100,0,100,0,0,0
Anna Lawrence Intermediate School,n/a,4850 W JEFFREY RD,TUCSON,PIMA,85757,y,rn,58,100,0,100,97,1.7,100,97,1.7,100,100,0,100,100,0,100,100,0,100,100,0,100,8.6,0,3.4
Anna Marie Jacobson  Elementary School,n/a,1515 NW JACARANDA PKWY,CHANDLER,MARICOPA,85248,n,,164,96,3.7,100,92,5.5,100,92,5.5,100,97,3,100,97,3,100,96,3.7,100,97,3,100,6.1,.6,3
Annunciation Catholic School,n/a,32648 N CAVE CREEK RD,CAVE CREEK,MARICOPA,85331,y,rn,22,100,0,100,96,4.5,100,86,13.6,100,100,0,100,100,0,100,100,0,100,100,0,100,13.6,0,0
Anthem K-8 School,n/a,2700 N ANTHEM WAY,FLORENCE,PINAL,85232,n,,105,96,3.8,100,89,7.6,98,84,7.6,93,94,4.8,99,96,3.8,100,96,3.8,100,100,0,100,3.8,2.9,0
Anthem Preparatory Academy,n/a,39808 N GAVILAN PEAK PKWY,ANTHEM,MARICOPA,85086,n,,77,95,5.2,100,81,10.4,95,78,13,95,94,6.5,100,94,6.5,100,94,5.2,99,94,6.5,100,14.3,0,5.2
Anza Trail School,n/a,15490 S RANCHO SAHUARITA BLVD,SAHUARITA,PIMA,85629,n,,215,83,.9,84,83,.9,86,86,.9,88,99,.9,100,99,.9,100,99,.9,100,99,.9,100,.9,0,0
Apache School,n/a,8633 W JOHN CABOT RD,PEORIA,MARICOPA,85382,y,rn,82,96,3.7,100,95,4.9,100,95,4.9,100,96,3.7,100,96,3.7,100,96,3.7,100,100,0,100,2.4,2.4,0
Apollo Middle School,n/a,265 W NEBRASKA ST,TUCSON,PIMA,85706,y,rn,< 20,na,na,na,na,na,na,na,na,na,na,na,na,na,na,na,na,na,na,na,na,na,na,na,na
Arcadia Neighborhood Learning Center,n/a,4330 N 62ND ST,SCOTTSDALE,MARICOPA,85251,y,rn,66,92,7.6,100,88,7.6,97,83,13.6,99,92,7.6,100,92,7.6,100,92,7.6,100,92,7.6,100,13.6,0,7.6
Arete Preparatory Academy,n/a,4525 E BASELINE RD,GILBERT,MARICOPA,85234,y,rn,99,96,4,100,86,13.1,100,86,13.1,100,93,7.1,100,93,7.1,100,95,5.1,100,97,3,100,16.2,0,2
Arizona Academy Of Science And Technology,n/a,1875 N CENTRAL AVE,PHOENIX,MARICOPA,85004,n,,< 20,na,na,na,na,na,na,na,na,na,na,na,na,na,na,na,na,na,na,na,na,na,na,na,na
Arizona Autism Charter School,n/a,4433 N 7TH ST,PHOENIX,MARICOPA,85014,n,,24,71,8.3,79,100,0,100,42,8.3,50,75,8.3,83,71,8.3,79,79,8.3,88,92,0,92,8.3,0,0
Arizona Charter Academy,n/a,16011 N DYSART RD,SURPRISE,MARICOPA,85374,n,,76,91,3.9,95,92,3.9,96,92,3.9,96,95,3.9,99,95,3.9,99,96,3.9,100,93,3.9,97,3.9,0,3.9
Arizona Connections Academy,n/a,335 E GERMANN RD STE 140,GILBERT,MARICOPA,85297,n,,182,85,14.8,100,63,15.9,80,63,22.5,87,84,16.5,100,84,16.5,100,85,15.4,100,86,13.7,100,20.9,1.6,15.4
Arizona Conservatory For Arts And Academi,n/a,2820 W KELTON LN,PHOENIX,MARICOPA,85053,n,,63,95,4.8,100,94,6.3,100,87,12.7,100,91,9.5,100,92,7.9,100,92,7.9,100,92,7.9,100,14.3,0,0
Arizona Cultural Academy,n/a,7810 S 42ND PL,PHOENIX,MARICOPA,85042,y,rn,< 20,na,na,na,na,na,na,na,na,na,na,na,na,na,na,na,na,na,na,na,na,na,na,na,na
Arizona Desert Elementary School,n/a,8803 W VAN BUREN ST,TOLLESON,MARICOPA,85353,y,,65,100,0,100,79,0,79,79,0,79,100,0,100,100,0,100,100,0,100,100,0,100,0,0,0
Arizona Desert Elementary School,n/a,1245 N MAIN ST,SAN LUIS,YUMA,85349,n,,131,100,0,100,95,0,100,95,0,100,100,0,100,100,0,100,100,0,100,100,0,100,0,0,0
Arizona School For The Arts,n/a,1410 N 3RD ST,PHOENIX,MARICOPA,85004,n,,112,100,0,100,91,0,93,91,0,100,89,0,89,94,0,94,94,0,94,99,0,99,7.1,0,0
Arizona School For The Deaf And Blind,n/a,1200 W SPEEDWAY BLVD,TUCSON,PIMA,85745,y,rn,< 20,na,na,na,na,na,na,na,na,na,na,na,na,na,na,na,na,na,na,na,na,na,na,na,na
Arlington Elementary School,n/a,9410 S 355TH AVE,ARLINGTON,MARICOPA,85322,n,,32,100,0,100,100,0,100,100,0,100,100,0,100,100,0,100,100,0,100,100,0,100,0,0,0
Arrowhead Christian Academy,n/a,4030 W YORKSHIRE DR,GLENDALE,MARICOPA,85308,n,,< 20,na,na,na,na,na,na,na,na,na,na,na,na,na,na,na,na,na,na,na,na,na,na,na,na
Arrowhead Elementary School,n/a,3820 E NISBET RD,PHOENIX,MARICOPA,85032,y,rn,57,100,0,100,97,1.8,98,98,1.8,100,100,0,100,100,0,100,100,0,100,100,0,100,1.8,0,0
Arrowhead Elementary School,n/a,7490 W UNION HILLS DR,GLENDALE,MARICOPA,85308,y,lpn,75,99,1.3,100,96,4,100,96,2.7,100,99,1.3,100,99,1.3,100,99,1.3,100,99,1.3,100,4,0,1.3
Arroyo School,n/a,4535 W CHOLLA ST,GLENDALE,MARICOPA,85304,n,,75,99,0,99,97,1.3,99,97,1.3,99,100,0,100,100,0,100,100,0,100,100,0,100,1.3,0,0
Arthur M. Hamilton School,n/a,2020 W DURANGO ST,PHOENIX,MARICOPA,85009,n,,28,100,0,100,100,0,100,100,0,100,100,0,100,100,0,100,100,0,100,100,0,100,0,0,0
Arts Academy At Estrella Mountain,n/a,2504 S 91ST AVE,TOLLESON,MARICOPA,85353,n,,121,100,0,100,65,0,100,64,0,100,98,0,98,98,0,98,99,0,99,99,0,99,0,0,0
Ash Creek Elementary,n/a,6460 E HIGHWAY 181,PEARCE,COCHISE,85625,n,,< 20,na,na,na,na,na,na,na,na,na,na,na,na,na,na,na,na,na,na,na,na,na,na,na,na
Ash Fork Joint Unified,n/a,4699 N. 5TH STREET,ASH FORK,YAVAPAI,86320,y,rn,21,95,4.8,100,95,4.8,100,95,4.8,100,95,4.8,100,95,4.8,100,95,4.8,100,100,0,100,4.8,0,4.8
Ashland Elementary,n/a,1945 S ASHLAND RANCH RD,GILBERT,MARICOPA,85295,y,rn,114,95,5.3,100,90,4.4,100,94,6.1,100,97,3.5,100,97,3.5,100,96,4.4,100,100,0,100,7.9,.9,0
Ashton Ranch Elementary School,n/a,14898 W ACOMA DR,SURPRISE,MARICOPA,85379,y,lpn,81,95,3.7,99,93,3.7,98,90,7.4,98,95,3.7,99,94,4.9,99,96,1.2,98,95,0,95,11.1,1.2,1.2
Asu Preparatory Academy - Phoenix Elementary,n/a,735 E FILLMORE ST,PHOENIX,MARICOPA,85006,y,rn,90,100,0,100,92,0,99,92,0,99,100,0,100,100,0,100,100,0,100,100,0,100,0,0,0
Asu Preparatory Academy Polytechnic Elementary,n/a,6950 E WILLIAMS FIELD RD,MESA,MARICOPA,85212,n,,74,93,6.8,100,91,6.8,100,91,6.8,100,93,6.8,100,93,6.8,100,95,5.4,100,95,5.4,100,6.8,0,5.4
Athos Traditional Academy,n/a,3201 S GILBERT RD BLDG B,CHANDLER,MARICOPA,85286,n,,133,96,4.5,100,82,15.8,100,80,18,100,93,6.8,100,93,7.5,100,96,4.5,100,95,5.3,100,14.3,0,4.5
Atonement Lutheran School,n/a,4001 W BEARDSLEY RD,GLENDALE,MARICOPA,85308,n,,< 20,na,na,na,na,na,na,na,na,na,na,na,na,na,na,na,na,na,na,na,na,na,na,na,na
Audrey And Robert Ryan Elementary,n/a,4600 S BRIGHT ANGEL WAY,CHANDLER,MARICOPA,85249,n,,129,98,1.6,100,92,6.2,100,91,7,100,98,1.6,100,98,1.6,100,100,0,100,98,1.6,100,9.3,0,1.6
Augusta Ranch Elementary,n/a,9430 E NEVILLE AVE,MESA,MARICOPA,85209,y,rn,141,97,2.8,99,92,4.3,99,92,5,99,96,3.5,99,97,2.8,100,96,3.5,99,95,5,100,7.1,0,1.4
Augustus H Shaw Jr School,n/a,123 N 13TH ST,PHOENIX,MARICOPA,85034,y,rn,21,95,4.8,100,86,9.5,95,86,9.5,95,91,9.5,100,91,9.5,100,91,9.5,100,95,4.8,100,9.5,0,4.8
Avalon Elementary,n/a,1045 S SAN MARCOS DR,APACHE JUNCTION,PINAL,85220,n,,24,92,8.3,100,88,8.3,100,71,8.3,79,92,8.3,100,92,8.3,100,92,8.3,100,92,8.3,100,12.5,4.2,0
Avondale Middle School,n/a,1406 N CENTRAL AVE,AVONDALE,MARICOPA,85323,y,rn,146,99,0,99,93,.7,93,93,.7,93,99,0,99,99,0,99,98,0,98,99,0,99,.7,0,0
B.e.s.d.#26 - Bouse Elementary School,n/a,44936 JOSHUA DR,BOUSE,LA PAZ,85325,n,,< 20,na,na,na,na,na,na,na,na,na,na,na,na,na,na,na,na,na,na,na,na,na,na,na,na
Bagdad Elementary School,n/a,515 BREEZY CIR,BAGDAD,YAVAPAI,86321,n,,32,94,3.1,97,94,6.3,100,94,6.3,100,94,6.3,100,94,6.3,100,100,0,100,100,0,100,6.3,0,0
Bales Elementary School,n/a,25400 W MARICOPA RD,BUCKEYE,MARICOPA,85326,n,,101,98,2,100,94,0,97,92,2,97,98,0,98,98,0,98,96,0,96,100,0,100,3,0,0
Balsz Elementary School,n/a,4309 E BELLEVIEW ST,PHOENIX,MARICOPA,85008,y,rn,62,100,0,100,100,0,100,100,0,100,100,0,100,100,0,100,100,0,100,100,0,100,0,0,0
Barbara Bush Elementary School,n/a,4925 E INGRAM ST,MESA,MARICOPA,85205,y,rn,83,95,4.8,100,92,8.4,100,94,6,100,95,4.8,100,95,4.8,100,95,4.8,100,98,2.4,100,6,0,1.2
Barcelona Middle School,n/a,6530 N 44TH AVE,GLENDALE,MARICOPA,85301,n,,157,98,2.5,100,97,2.5,100,97,2.5,100,98,2.5,100,98,2.5,100,99,.6,100,98,2.5,100,1.9,.6,0
Basha Elementary,n/a,3535 S BASHA RD,CHANDLER,MARICOPA,85248,n,,134,96,4.5,100,78,16.4,100,78,20.1,100,96,4.5,100,96,4.5,100,100,0,100,96,3.7,100,19.4,0,3.7
Basha High School,n/a,5990 S VAL VISTA DR,CHANDLER,MARICOPA,85249,y,rn,64,100,0,100,97,3.1,100,97,3.1,100,98,1.6,100,100,0,100,100,0,100,100,0,100,4.7,0,0
Basis - Ahwatukee,n/a,10210 S 50TH PL,PHOENIX,MARICOPA,85044,n,,138,99,1.4,100,99,1.4,100,96,3.6,100,98,1.4,99,98,1.4,99,98,1.4,99,97,1.4,99,5.8,0,0
Basis - Chandler,n/a,4825 S ARIZONA AVE,CHANDLER,MARICOPA,85248,n,,178,98,1.1,99,81,9.6,97,80,10.7,97,97,2.2,99,97,2.8,99,99,.6,99,98,1.1,99,11.2,5.1,0
Basis - Mesa,n/a,5010 S EASTMARK PKWY,MESA,MARICOPA,85212,n,,113,97,3.5,100,81,11.5,100,80,13.3,100,95,5.3,100,95,5.3,100,94,6.2,100,96,4.4,100,17.7,.9,0
Basis - Peoria,n/a,25950 N LAKE PLEASANT PKWY,PEORIA,MARICOPA,85383,n,,158,98,1.9,100,85,7.6,100,85,7.6,100,99,1.3,100,99,1.3,100,98,1.9,100,99,1.3,100,7.6,0,1.3
Basis - Scottsdale,n/a,10400 N 128TH ST,SCOTTSDALE,MARICOPA,85259,n,,187,97,2.7,100,90,7,100,90,7,100,97,3.2,100,96,3.7,100,97,2.7,100,97,2.7,100,8,0,2.7
Basis - Tucson North,n/a,5740 E RIVER RD,TUCSON,PIMA,85750,n,,180,99,1.1,100,92,5,100,90,6.7,100,98,1.7,100,99,1.1,100,98,1.7,100,98,1.7,100,3.3,1.1,1.1
Basis Flagstaff,n/a,1700 N GEMINI DR,FLAGSTAFF,COCONINO,86001,n,,89,96,4.5,100,89,9,100,85,12.4,100,93,6.7,100,94,5.6,100,91,9,100,93,6.7,100,13.5,0,3.4
Basis Goodyear,n/a,15800 W SHERMAN ST,GOODYEAR,MARICOPA,85338,n,,86,100,0,100,91,4.7,100,88,7,100,100,0,100,100,0,100,100,0,100,100,0,100,7,0,0
Basis Oro Valley,n/a,11155 N ORACLE RD,ORO VALLEY,PIMA,85737,n,,125,98,1.6,100,96,1.6,100,90,7.2,100,98,2.4,100,98,2.4,100,97,3.2,100,98,1.6,100,4,4.8,0
Basis Phoenix Central,n/a,201 E INDIANOLA AVE,PHOENIX,MARICOPA,85012,n,,55,95,5.5,100,93,7.3,100,89,10.9,100,96,3.6,100,95,5.5,100,95,5.5,100,96,3.6,100,10.9,0,1.8
Basis Phoenix Charter School,n/a,11850 N 32ND ST,PHOENIX,MARICOPA,85028,n,,123,99,.8,100,84,13.8,100,82,14.6,100,99,.8,100,99,.8,100,98,1.6,100,100,0,100,17.9,0,0
Basis Prescott,n/a,1901 PRESCOTT LAKES PKWY,PRESCOTT,YAVAPAI,86301,n,,92,89,10.9,100,80,18.5,100,76,22.8,100,88,12,100,90,9.8,100,90,9.8,100,94,6.5,100,32.6,0,3.3
Bayer  School,n/a,23555 N 67TH AVE,GLENDALE,MARICOPA,85310,y,rn,< 20,na,na,na,na,na,na,na,na,na,na,na,na,na,na,na,na,na,na,na,na,na,na,na,na
Beaver Creek School,n/a,4810 E BEAVER CREEK RD,RIMROCK,YAVAPAI,86335,n,,36,100,0,100,97,2.8,100,97,2.8,100,100,0,100,97,2.8,100,100,0,100,100,0,100,2.8,0,0
Beaver Dam Elementary,n/a,3436 RIO VIRGIN RD,LITTLEFIELD,MOHAVE,86432,n,,35,97,2.9,100,83,5.7,91,83,5.7,91,97,2.9,100,97,2.9,100,97,2.9,100,97,2.9,100,2.9,2.9,2.9
Bella Vista Academy,n/a,33401 N 56TH STREET,SCOTTSDALE,MARICOPA,85266,n,,< 20,na,na,na,na,na,na,na,na,na,na,na,na,na,na,na,na,na,na,na,na,na,na,na,na
Bella Vista Elementary School,n/a,801 N LENZNER AVE,SIERRA VISTA,COCHISE,85635,n,,46,98,0,98,96,2.2,98,96,2.2,98,100,0,100,100,0,100,100,0,100,100,0,100,2.2,0,0
Bellair Elementary School,n/a,4701 W GROVERS AVE,GLENDALE,MARICOPA,85308,y,lpn,63,92,7.9,100,92,6.3,100,92,6.3,100,97,3.2,100,97,3.2,100,95,4.8,100,97,3.2,100,7.9,0,0
Benchmark School,n/a,4120 E ACOMA DR,PHOENIX,MARICOPA,85032,n,,49,88,10.2,98,22,10.2,33,22,10.2,33,88,10.2,98,88,10.2,98,88,10.2,98,88,10.2,98,10.2,0,10.2
Benjamin Franklin Charter School - Gilbert,n/a,1475 S VAL VISTA DR,GILBERT,MARICOPA,85296,y,rn,49,92,8.2,100,84,16.3,100,82,18.4,100,88,12.2,100,88,12.2,100,88,12.2,100,94,6.1,100,24.5,0,6.1
Benjamin Franklin Charter School - Power,n/a,22951 S POWER RD,GILBERT,MARICOPA,85298,y,rn,94,87,12.8,100,75,23.4,100,75,23.4,100,88,11.7,100,86,13.8,100,85,14.9,100,88,11.7,100,26.6,1.1,7.4
Benjamin Franklin Charter School - Queen,n/a,22120 E QUEEN CREEK RD,QUEEN CREEK,MARICOPA,85242,y,rn,120,89,10.8,100,73,24.2,100,71,26.7,100,88,12.5,100,89,10.8,100,91,9.2,100,90,10,100,29.2,0,7.5
Bennett Academy,n/a,2930 W BETHANY HOME RD,PHOENIX,MARICOPA,85017,n,,39,97,2.6,100,74,7.7,87,77,7.7,87,97,2.6,100,97,2.6,100,97,2.6,100,97,2.6,100,7.7,0,2.6
Benson Middle Schiool,n/a,360 S PATAGONIA ST,BENSON,COCHISE,85602,y,rn,82,95,4.9,100,90,6.1,99,90,6.1,99,95,4.9,100,93,4.9,98,95,4.9,100,95,4.9,100,6.1,0,6.1
Bernard Black Elementary,n/a,6550 S 27TH AVE,PHOENIX,MARICOPA,85041,y,rn,88,98,2.3,100,99,1.1,100,99,1.1,100,98,2.3,100,99,1.1,100,99,1.1,100,99,1.1,100,3.4,0,0
Bethany Christian School,n/a,6304 S PRICE RD,TEMPE,MARICOPA,85283,y,rn,< 20,na,na,na,na,na,na,na,na,na,na,na,na,na,na,na,na,na,na,na,na,na,na,na,na
Bicentennial North School,n/a,7237 W MISSOURI AVE,GLENDALE,MARICOPA,85303,y,rn,173,97,.6,98,97,.6,99,95,.6,97,100,0,100,100,0,100,100,0,100,100,0,100,.6,0,.6
Big Park Community School,n/a,25 W SADDLEHORN CT,SEDONA,YAVAPAI,86351,n,,41,81,19.5,100,81,19.5,100,81,19.5,100,81,19.5,100,81,19.5,100,100,0,100,81,19.5,100,19.5,0,14.6
Biltmore Prep,n/a,4601 N 34TH ST,PHOENIX,MARICOPA,85018,y,lpn,39,100,0,100,97,2.6,100,97,2.6,100,97,2.6,100,97,2.6,100,97,2.6,100,100,0,100,2.6,0,0
Bisbee Middle School,n/a,100 OLD DOUGLAS RD,BISBEE,COCHISE,85603,n,,49,92,8.2,100,88,12.2,100,88,12.2,100,94,6.1,100,92,8.2,100,94,6.1,100,94,6.1,100,10.2,0,4.1
Black Mountain Elementary School,n/a,33016 N 60TH ST,CAVE CREEK,MARICOPA,85327,y,rn,81,91,8.6,100,91,8.6,100,85,14.8,100,91,8.6,100,91,8.6,100,91,8.6,100,91,8.6,100,14.8,0,3.7
Black Mountain Elementary School,n/a,3404 N SANTA MARIA RD,GOLDEN VALLEY,MOHAVE,86413,y,lpn,71,97,2.8,100,96,2.8,99,96,2.8,99,97,2.8,100,97,2.8,100,97,2.8,100,97,2.8,100,2.8,0,2.8
Blue Elementary School,n/a,80 TURKEY CREEK RD,BLUE,GREENLEE,85922,n,,< 20,na,na,na,na,na,na,na,na,na,na,na,na,na,na,na,na,na,na,na,na,na,na,na,na
Blue Ridge Middle School,n/a,3050 PORTER MOUNTAIN RD,LAKESIDE,NAVAJO,85929,y,,192,97,.5,97,97,.5,97,66,1,67,95,.5,95,95,.5,95,96,.5,97,96,0,96,1,0,0
Bonita Elementary School,n/a,18008 S FORT GRANT RD,WILLCOX,GRAHAM,85643,n,,< 20,na,na,na,na,na,na,na,na,na,na,na,na,na,na,na,na,na,na,na,na,na,na,na,na
Booth-fickett Math/science Magnet School,n/a,450 S MONTEGO DR,TUCSON,PIMA,85710,y,rn,176,99,.6,100,99,.6,100,98,1.7,100,99,.6,100,99,.6,100,99,.6,100,99,.6,100,2.3,0,.6
Borman Elementary School,n/a,6630 E LIGHTNING DR,TUCSON,PIMA,85708,y,rn,< 20,na,na,na,na,na,na,na,na,na,na,na,na,na,na,na,na,na,na,na,na,na,na,na,na
Boulder Creek Elementary,n/a,8045 E PORTOBELLO AVE,MESA,MARICOPA,85212,y,rn,112,93,7.1,100,89,8.9,100,89,8.9,100,93,7.1,100,93,7.1,100,92,8,100,92,7.1,99,8,0,7.1
Boulder Creek Elementary School,n/a,22801 N 22ND ST,PHOENIX,MARICOPA,85024,y,rn,119,93,6.7,100,95,5,100,93,6.7,100,95,5,100,94,5.9,100,98,2.5,100,96,4.2,100,5.9,.8,5.9
Bowie Elementary School,n/a,315 W 5TH ST,BOWIE,COCHISE,85605,n,,< 20,na,na,na,na,na,na,na,na,na,na,na,na,na,na,na,na,na,na,na,na,na,na,na,na
Bridges Elementary,n/a,5205 S SOBOBA ST,GILBERT,MARICOPA,85298,n,,64,98,1.6,100,92,3.1,95,92,3.1,95,98,1.6,100,98,1.6,100,98,1.6,100,97,3.1,100,4.7,0,1.6
Bright Beginnings School #1,n/a,400 N ANDERSEN BLVD,CHANDLER,MARICOPA,85224,n,,< 20,na,na,na,na,na,na,na,na,na,na,na,na,na,na,na,na,na,na,na,na,na,na,na,na
Brunson-lee Elementary,n/a,1350 N 48TH ST,PHOENIX,MARICOPA,85008,y,rn,59,100,0,100,100,0,100,100,0,100,100,0,100,100,0,100,100,0,100,100,0,100,0,0,0
Buckeye Primary School,n/a,210 S 6TH ST,BUCKEYE,MARICOPA,85326,y,lpn,92,97,3.3,100,98,2.2,100,99,1.1,100,97,3.3,100,95,5.4,100,97,3.3,100,94,6.5,100,8.7,0,0
Bullhead City Jr High School,n/a,1062 HANCOCK RD,BULLHEAD CITY,MOHAVE,86442,y,,151,100,0,100,97,3.3,100,44,3.3,48,100,0,100,100,0,100,100,0,100,100,0,100,3.3,0,3.3
Burk Elementary School,n/a,545 N BURK ST,GILBERT,MARICOPA,85234,y,rn,59,97,3.4,100,95,5.1,100,95,5.1,100,97,3.4,100,97,3.4,100,98,1.7,100,98,1.7,100,5.1,0,1.7
Burke Basic School,n/a,131 E SOUTHERN AVE,MESA,MARICOPA,85210,y,lpn,119,99,.8,100,85,.8,92,81,.8,88,99,.8,100,99,.8,100,100,0,100,99,.8,100,.8,0,0
Butterfield Elementary School,n/a,43800 W HONEYCUTT RD,MARICOPA,PINAL,85239,y,rn,108,96,1.9,98,93,3.7,99,82,3.7,89,94,3.7,98,94,3.7,98,94,3.7,98,96,3.7,100,3.7,0,3.7
Butterfield Elementary School,n/a,3400 W MASSINGALE RD,TUCSON,PIMA,85741,n,,63,100,0,100,89,6.3,95,84,11.1,95,98,1.6,100,100,0,100,100,0,100,100,0,100,4.8,6.3,0
C E Rose Elementary School,n/a,710 W MICHIGAN ST,TUCSON,PIMA,85714,y,rn,88,100,0,100,100,0,100,100,0,100,100,0,100,100,0,100,100,0,100,100,0,100,0,0,0
C J Jorgensen School,n/a,1701 W ROESER RD,PHOENIX,MARICOPA,85041,y,lpn,54,100,0,100,98,0,100,98,0,100,100,0,100,100,0,100,100,0,100,100,0,100,0,0,0
C O Greenfield School,n/a,7009 S 10TH ST,PHOENIX,MARICOPA,85042,n,,100,100,0,100,98,0,98,97,0,97,98,0,98,100,0,100,100,0,100,98,0,98,1,1,0
C.u.s.d. #24 - Tsaile Public School,n/a,HWY 12 and HWY 64,CHINLE,APACHE,86556,n,,45,100,0,100,100,0,100,100,0,100,100,0,100,100,0,100,100,0,100,100,0,100,0,0,0
Cactus Middle School,n/a,1220 E KORTSEN RD,CASA GRANDE,PINAL,85222,y,rn,305,99,1,100,95,1.3,100,95,1.3,100,98,2,100,98,1.3,100,99,1.3,100,99,.7,100,2,.7,1.3
Cactus View School,n/a,17602 N CENTRAL AVE,PHOENIX,MARICOPA,85022,y,rn,55,98,1.8,100,93,5.5,98,93,5.5,98,100,0,100,100,0,100,100,0,100,100,0,100,5.5,0,0
Cactus Wren Elementary,n/a,9650 N 39TH AVE,PHOENIX,MARICOPA,85051,n,,85,100,0,100,97,2.4,100,95,2.4,100,100,0,100,100,0,100,100,0,100,100,0,100,2.4,0,0
Calabasas Middle School,n/a,131 CAMINO MARICOPA,RIO RICO,SANTA CRUZ,85648,y,rn,136,99,.7,100,99,.7,100,99,.7,100,99,.7,100,99,.7,100,99,.7,100,100,0,100,.7,0,0
Calibre Academy,n/a,15688 W ACOMA DR,SURPRISE,MARICOPA,85379,n,,58,97,3.4,100,97,3.4,100,97,3.4,100,97,3.4,100,97,3.4,100,97,3.4,100,97,3.4,100,3.4,0,3.4
Calvary Chapel Christian School,n/a,8725 E SPEEDWAY BLVD,TUCSON,PIMA,85710,n,,< 20,na,na,na,na,na,na,na,na,na,na,na,na,na,na,na,na,na,na,na,na,na,na,na,na
Calvary Christian Academy,n/a,1605 MCCULLOCH BLVD S,LAKE HAVASU CITY,MOHAVE,86406,n,,< 20,na,na,na,na,na,na,na,na,na,na,na,na,na,na,na,na,na,na,na,na,na,na,na,na
Cambridge Academy - Mesa Campus,n/a,9412 E BROWN RD,MESA,MARICOPA,85207,n,,33,97,3,100,97,3,100,97,3,100,97,3,100,97,3,100,97,3,100,97,3,100,3,0,3
Cambridge Academy - Queen Creek,n/a,20365 E OCOTILLO RD,MESA,MARICOPA,85207,n,,< 20,na,na,na,na,na,na,na,na,na,na,na,na,na,na,na,na,na,na,na,na,na,na,na,na
Camelback Academy,n/a,7634 W CAMELBACK RD,GLENDALE,MARICOPA,85303,n,,58,100,0,100,38,0,38,36,0,36,100,0,100,100,0,100,100,0,100,100,0,100,0,0,0
Camp Verde Middle School,n/a,370 CAMP LINCOLN RD,CAMP VERDE,YAVAPAI,86322,y,rn,147,96,4.1,100,79,13.6,93,78,15.6,94,92,7.5,99,91,8.2,99,93,7.5,100,96,3.4,99,18.4,0,1.4
Camp Verde United Christian School,n/a,903 W FINNIE FLAT RD,CAMP VERDE,YAVAPAI,86322,n,,< 20,na,na,na,na,na,na,na,na,na,na,na,na,na,na,na,na,na,na,na,na,na,na,na,na
Campo Bello Elementary,n/a,2650 E CONTENTION MINE RD,PHOENIX,MARICOPA,85032,y,rn,71,99,1.4,100,97,1.4,99,96,1.4,97,99,1.4,100,99,1.4,100,99,1.4,100,99,1.4,100,1.4,0,1.4
Candeo Schools,n/a,9965 W CALLE LEJOS,PEORIA,MARICOPA,85383,n,,67,90,10.4,100,87,10.4,97,85,10.4,96,90,10.4,100,90,10.4,100,90,10.4,100,90,10.4,100,9,1.5,9
Canon School,n/a,18800 E SCHOOL HOUSE RD,BLACK CANYON CITY,YAVAPAI,85324,n,,< 20,na,na,na,na,na,na,na,na,na,na,na,na,na,na,na,na,na,na,na,na,na,na,na,na
Canyon Breeze Elementary,n/a,11675 W ENCANTO BLVD,AVONDALE,MARICOPA,85392,n,,115,96,0,96,94,5.2,100,94,0,94,97,0,97,97,0,97,98,0,98,100,0,100,5.2,0,0
Canyon De Chelly Elementary School,n/a,HWY 191,CHINLE,APACHE,86503,y,,44,100,0,100,5,0,5,96,0,96,100,0,100,100,0,100,100,0,100,100,0,100,0,0,0
Canyon Elementary,n/a,5490 W PARADISE LN,GLENDALE,MARICOPA,85306,y,rn,42,100,0,100,69,0,69,67,0,67,100,0,100,100,0,100,100,0,100,100,0,100,0,0,0
Canyon Pointe Academy,n/a,4941 W UNION HILLS DR,GLENDALE,MARICOPA,85308,n,,41,95,4.9,100,90,9.8,100,85,14.6,100,88,12.2,100,98,2.4,100,98,2.4,100,98,2.4,100,17.1,0,0
Canyon Ridge Elementary,n/a,17359 W SURPRISE FARMS LOOP,SURPRISE,MARICOPA,85388,y,rn,118,98,2.5,100,89,10.2,100,90,9.3,100,98,2.5,100,96,4.2,100,98,2.5,100,97,3.4,100,11,0,1.7
Canyon Rim Elementary,n/a,3045 S CANYON RIM,MESA,MARICOPA,85212,y,rn,136,99,.7,100,96,.7,99,86,8.8,99,99,.7,100,99,1.5,100,99,.7,100,96,3.7,100,12.5,0,.7
Canyon Springs School,n/a,42901 N 45TH AVE,PHOENIX,MARICOPA,85087,y,rn,95,98,2.1,100,87,11.6,100,90,9.5,100,96,2.1,98,96,2.1,98,98,2.1,100,98,2.1,100,11.6,1.1,0
Capitol Elementary School,n/a,330 N 16TH AVE,PHOENIX,MARICOPA,85007,y,rn,76,99,0,99,100,0,100,100,0,100,99,0,99,100,0,100,100,0,100,100,0,100,0,0,0
Capps Middle School,n/a,3375 BUCKSKIN CANYON RD,HEBER,NAVAJO,85928,y,rn,34,97,2.9,100,85,14.7,100,85,14.7,100,97,2.9,100,97,2.9,100,97,2.9,100,97,2.9,100,14.7,0,2.9
Carden Christian Academy Central,n/a,2727 N SWAN RD,TUCSON,PIMA,85712,n,,< 20,na,na,na,na,na,na,na,na,na,na,na,na,na,na,na,na,na,na,na,na,na,na,na,na
Carden Of Tucson,n/a,5260 N ROYAL PALM DR,TUCSON,PIMA,85705,n,,< 20,na,na,na,na,na,na,na,na,na,na,na,na,na,na,na,na,na,na,na,na,na,na,na,na
Career Success Schools - Sage Elementary,n/a,3120 N 32ND ST,PHOENIX,MARICOPA,85018,n,,< 20,na,na,na,na,na,na,na,na,na,na,na,na,na,na,na,na,na,na,na,na,na,na,na,na
Carmichael Elementary School,n/a,701 NE CARMICHAEL AVE,SIERRA VISTA,COCHISE,85635,y,rn,52,96,3.8,100,96,3.8,100,96,3.8,100,96,0,96,96,3.8,100,98,1.9,100,100,0,100,3.8,0,0
Carol Rae Ranch Elementary,n/a,3777 E HOUSTON AVE,GILBERT,MARICOPA,85234,y,rn,97,94,6.2,100,86,8.2,99,86,9.3,99,94,6.2,100,94,6.2,100,93,7.2,100,95,5.2,100,14.4,1,4.1
Carpe Diem Collegiate E-learning Communit,n/a,3777 W 22ND LN,YUMA,YUMA,85364,n,,33,100,0,100,94,0,94,94,0,94,100,0,100,100,0,100,100,0,100,100,0,100,0,0,0
Cartwright Elementary School,n/a,5833 W THOMAS RD,PHOENIX,MARICOPA,85031,y,lpn,100,99,0,99,99,0,99,99,0,99,99,0,99,99,0,99,99,0,99,98,1,99,1,0,0
Casa Grande Middle School,n/a,300 W MC MURRAY BLVD,CASA GRANDE,PINAL,85222,y,rn,194,100,0,100,93,1,96,93,1,96,100,0,100,100,0,100,100,0,100,99,0,99,1,0,0
Casas Christian School,n/a,10801 N LA CHOLLA BLVD,ORO VALLEY,PIMA,85742,n,,< 20,na,na,na,na,na,na,na,na,na,na,na,na,na,na,na,na,na,na,na,na,na,na,na,na
Castle Dome Middle School,n/a,2353 S OTONDO DR,YUMA,YUMA,85365,n,,328,100,0,100,83,.3,83,83,.3,83,100,.3,100,99,.6,100,100,0,100,99,.6,100,.3,.3,0
Catalina Ventura School,n/a,6331 N 39TH AVE,PHOENIX,MARICOPA,85019,y,rn,145,99,1.4,100,96,2.1,99,96,2.1,99,99,1.4,100,99,1.4,100,99,1.4,100,99,1.4,100,3.4,0,0
Caurus Academy,n/a,41900 N 42ND AVE,ANTHEM,MARICOPA,85086,n,,29,83,17.2,100,35,17.2,52,0,17.2,17,83,17.2,100,83,17.2,100,83,17.2,100,86,13.8,100,17.2,0,17.2
Cedar Hills School,n/a,9501 E NELLIE DR,KINGMAN,MOHAVE,86401,n,,< 20,na,na,na,na,na,na,na,na,na,na,na,na,na,na,na,na,na,na,na,na,na,na,na,na
Centennial Elemantary,n/a,3507 S RANCH HOUSE PKWY,GILBERT,MARICOPA,85297,n,,122,97,3.3,100,93,6.6,100,93,7.4,100,99,.8,100,98,2.5,100,99,.8,100,98,1.6,100,8.2,0,8.2
Centennial Elementary School,n/a,2200 W WETMORE RD,TUCSON,PIMA,85705,n,,81,98,2.5,100,93,2.5,100,93,2.5,100,98,2.5,100,98,2.5,100,98,2.5,100,98,2.5,100,2.5,4.9,2.5
Center For Academic Success,n/a,900 CARMELITA DR,SIERRA VISTA,COCHISE,85635,n,,45,100,0,100,100,0,100,96,4.4,100,100,0,100,100,0,100,100,0,100,100,0,100,4.4,0,0
Center For Educational Excellence,n/a,1700 E ELLIOT RD,TEMPE,MARICOPA,85284,n,,42,91,9.5,100,100,0,100,91,9.5,100,91,9.5,100,91,9.5,100,91,9.5,100,100,0,100,9.5,0,9.5
Centerra Mirage Elementary,n/a,15151 W CENTERRA DR S,GOODYEAR,MARICOPA,85338,y,lpn,61,100,0,100,100,0,100,100,0,100,100,0,100,100,0,100,100,0,100,95,4.9,100,4.9,0,0
Cesar Chavez Elementary,n/a,1130 N 10TH AVE,SAN LUIS,YUMA,85349,y,,114,100,0,100,97,0,100,97,0,100,100,0,100,100,0,100,100,0,100,100,0,100,0,0,0
Cesar Chavez Elementary School,n/a,4001 S 3RD ST,PHOENIX,MARICOPA,85040,y,lpn,55,100,0,100,100,0,100,100,0,100,100,0,100,100,0,100,100,0,100,100,0,100,0,0,0
Challenge Charter School,n/a,5801 W GREENBRIAR DR,GLENDALE,MARICOPA,85308,n,,50,96,4,100,88,10,100,86,12,100,96,4,100,96,4,100,96,4,100,98,2,100,14,0,0
Challenger Basic School,n/a,1315 N GREENFIELD RD,GILBERT,MARICOPA,85234,n,,33,91,9.1,100,30,36.4,100,30,33.3,100,88,12.1,100,91,9.1,100,85,9.1,94,91,9.1,100,42.4,0,6.1
Challenger Middle School,n/a,6905 W MARYLAND AVE,GLENDALE,MARICOPA,85303,y,rn,136,90,0,90,96,0,97,96,0,96,97,0,97,100,0,100,99,0,99,100,0,100,0,0,0
Challenger Middle School,n/a,100 E ELVIRA RD,TUCSON,PIMA,85756,y,rn,< 20,na,na,na,na,na,na,na,na,na,na,na,na,na,na,na,na,na,na,na,na,na,na,na,na
Champion Schools,n/a,7900 S JESSE OWENS PKWY,PHOENIX,MARICOPA,85042,n,,66,77,0,77,96,0,100,67,0,86,88,0,88,88,0,88,97,0,97,96,0,96,0,0,0
Champion Schools,n/a,250 S MCQUEEN RD,CHANDLER,MARICOPA,85225,n,,60,98,0,98,93,3.3,98,93,3.3,98,100,0,100,97,0,97,100,0,100,100,0,100,3.3,0,0
Chandler Christian Academy,n/a,19620 S MCQUEEN RD,CHANDLER,MARICOPA,85286,n,,< 20,na,na,na,na,na,na,na,na,na,na,na,na,na,na,na,na,na,na,na,na,na,na,na,na
Chandler Preparatory Academy,n/a,1951 N ALMA SCHOOL RD,CHANDLER,MARICOPA,85224,n,,120,93,6.7,100,85,9.2,100,84,10,100,93,6.7,100,93,6.7,100,93,7.5,100,94,5.8,100,10,0,6.7
Chandler Traditional Academy - Freedom,n/a,6040 S JOSLYN LN,GILBERT,MARICOPA,85298,n,,81,99,1.2,100,88,7.4,100,88,7.4,100,98,2.5,100,99,1.2,100,98,2.5,100,99,1.2,100,9.9,0,1.2
Chandler Traditional Academy - Goodman Ca,n/a,2600 W KNOX RD,CHANDLER,MARICOPA,85224,n,,82,98,2.4,100,89,6.1,100,92,8.5,100,98,2.4,100,98,2.4,100,96,3.7,100,98,2.4,100,11,0,2.4
Chandler Traditional Academy - Independen_corrected_data,n/a,1405 W LAKE DR,SUN LAKES,MARICOPA,85248,y,rn,71,97,2.8,100,87,8.5,100,87,8.5,100,97,2.8,100,99,1.4,100,97,2.8,100,99,1.4,100,9.9,0,1.4
Chandler Traditional Academy - Liberty Ca,n/a,550 N EMMETT DR,CHANDLER,MARICOPA,85225,n,,63,95,4.8,100,91,9.5,100,91,9.5,100,95,4.8,100,95,4.8,100,95,4.8,100,95,4.8,100,9.5,0,1.6
Chandler Traditional Junior High School,n/a,191 W OAKLAND ST,CHANDLER,MARICOPA,85225,n,,128,99,.8,100,95,2.3,100,95,3.1,100,100,0,100,99,.8,100,100,0,100,100,0,100,3.1,0,0
Chaparral Elementary School,n/a,3808 W JOAN D`ARC,PHOENIX,MARICOPA,85029,n,,73,100,0,100,100,0,100,100,0,100,100,0,100,100,0,100,100,0,100,100,0,100,0,0,0
Chaparral Elementary School,n/a,3380 E FRYE RD,GILBERT,MARICOPA,85295,n,,108,94,4.6,99,92,7.4,100,92,7.4,100,95,4.6,100,94,5.6,100,94,5.6,100,94,5.6,99,8.3,0,4.6
Charles W Harris Elementary School,n/a,2252 N 55TH AVE,PHOENIX,MARICOPA,85035,y,rn,126,99,0,99,96,0,96,96,0,96,100,0,100,100,0,100,100,0,100,99,.8,100,.8,.8,0
Charlotte Patterson Elementary,n/a,7520 S. ADORA BVLD.,GILBERT,MARICOPA,85298,n,,132,94,6.1,100,88,9.8,100,88,9.8,100,93,6.8,100,94,6.1,100,91,9.1,100,95,5.3,100,13.6,0,5.3
Cheatham Elementary School,n/a,4725 W SOUTH MOUNTAIN RD,LAVEEN,MARICOPA,85339,y,rn,91,98,2.2,100,95,2.2,100,93,2.2,100,98,2.2,100,98,2.2,100,96,2.2,98,98,2.2,100,2.2,0,0
Cheyenne Elementary,n/a,11806 N 87TH AVE,PEORIA,MARICOPA,85345,y,rn,83,98,2.4,100,95,4.8,100,94,4.8,99,98,2.4,100,99,1.2,100,99,0,99,100,0,100,4.8,1.2,0
Cheyenne Traditional Elementary School,n/a,13636 N 100TH ST,SCOTTSDALE,MARICOPA,85260,y,rn,97,98,2.1,100,97,2.1,100,95,4.1,100,98,2.1,100,98,2.1,100,97,3.1,100,97,2.1,99,6.2,0,2.1
Children First Leadership Academy,n/a,1648 S 16TH ST,PHOENIX,MARICOPA,85034,y,rn,25,100,0,100,96,0,100,92,0,100,100,0,100,100,0,100,100,0,100,100,0,100,0,0,0
Chinle Boarding School,n/a,2600 LAKE VIEW DR,MANY FARMS,APACHE,86538,n,,37,100,0,100,78,0,100,70,0,97,100,0,100,100,0,100,100,0,100,100,0,100,0,0,0
Chinle Elementary School,n/a,HWY 191 AND NAVAJO ROUTE 7,CHINLE,APACHE,86503,y,rn,70,100,0,100,100,0,100,100,0,100,100,0,100,100,0,100,100,0,100,100,0,100,0,0,0
Christ Lutheran School,n/a,3901 E INDIAN SCHOOL RD,PHOENIX,MARICOPA,85018,y,rn,51,98,2,100,96,3.9,100,96,3.9,100,98,2,100,94,5.9,100,96,3.9,100,98,2,100,9.8,0,2
Christ The King Catholic Elementary School,n/a,1551 E DANA AVE,MESA,MARICOPA,85204,y,rn,25,100,0,100,96,4,100,96,4,100,100,0,100,100,0,100,100,0,100,100,0,100,4,0,0
Christ's Greenfield Lutheran School,n/a,425 N GREENFIELD RD,GILBERT,MARICOPA,85234,n,,21,95,4.8,100,91,4.8,100,91,4.8,100,95,4.8,100,95,4.8,100,95,4.8,100,95,4.8,100,4.8,0,4.8
Christian Academy Of Prescott,n/a,148 S MARINA ST,PRESCOTT,YAVAPAI,86303,n,,< 20,na,na,na,na,na,na,na,na,na,na,na,na,na,na,na,na,na,na,na,na,na,na,na,na
Cicero Preparatory Academy,n/a,7205 N PIMA RD,SCOTTSDALE,MARICOPA,85258,y,rn,141,96,3.5,99,82,5,87,79,5,84,95,3.5,99,96,2.8,99,97,2.8,99,97,2.8,99,5.7,0,2.8
Cimarron Springs Elementary School,n/a,17032 W SURPRISE FARMS LOOP S,SURPRISE,MARICOPA,85388,y,lpn,116,99,.9,100,92,6,100,92,6,100,99,.9,100,99,.9,100,99,.9,100,99,.9,100,6,0,.9
Circle Cross Ranch K-8 School,n/a,35900 N CHARBRAY,QUEEN CREEK,MARICOPA,85242,n,,105,98,1.9,100,83,3.8,90,74,3.8,81,94,1.9,96,94,1.9,96,98,1.9,100,100,0,100,1.9,1.9,0
Civano Community School,n/a,10625 E DREXEL RD,TUCSON,PIMA,85747,n,,< 20,na,na,na,na,na,na,na,na,na,na,na,na,na,na,na,na,na,na,na,na,na,na,na,na
Clarendon School,n/a,1225 W CLARENDON AVE,PHOENIX,MARICOPA,85013,y,lpn,134,100,0,100,99,.7,100,99,.7,100,100,0,100,100,0,100,100,0,100,100,0,100,.7,0,0
Cloves Campbell Elementary School,n/a,2624 E SOUTH MOUNTAIN AVE,PHOENIX,MARICOPA,85042,n,,57,98,1.8,100,98,1.8,100,98,1.8,100,98,1.8,100,98,1.8,100,98,1.8,100,98,1.8,100,1.8,0,0
Coatimundi Middle School,n/a,450 AVENIDA COATIMUNDI,RIO RICO,SANTA CRUZ,85648,y,rn,116,100,0,100,100,0,100,99,0,99,100,0,100,99,0,99,99,.9,100,100,0,100,1.7,0,0
Cochise Elementary School,n/a,5025 BOWIE AVE,COCHISE,COCHISE,85606,n,,< 20,na,na,na,na,na,na,na,na,na,na,na,na,na,na,na,na,na,na,na,na,na,na,na,na
Cochise Sda Christian School,n/a,4162 S. NACO HIGHWAY,BISBEE,COCHISE,85603,n,,< 20,na,na,na,na,na,na,na,na,na,na,na,na,na,na,na,na,na,na,na,na,na,na,na,na
Cocopah Middle School,n/a,6615 E CHOLLA ST,SCOTTSDALE,MARICOPA,85254,y,rn,317,98,2.5,100,97,.6,99,93,4.7,99,97,3.2,100,97,3.2,100,96,3.8,100,100,0,100,8.2,1.6,1.9
Collier Elementary,n/a,350 S 118TH AVE,AVONDALE,MARICOPA,85323,y,rn,112,99,.9,100,99,.9,100,98,1.8,100,99,0,99,99,.9,100,99,0,99,99,.9,100,1.8,0,.9
Colonel Smith Middle School,n/a,5651 E SMITH AVE,FORT HUACHUCA,COCHISE,85613,y,rn,95,100,0,100,98,0,100,98,0,100,100,0,100,100,0,100,100,0,100,100,0,100,0,0,0
Combs Traditional School,n/a,37327 N GANTZEL RD,SAN TAN VALLEY,PINAL,85240,y,rn,22,91,9.1,100,91,9.1,100,91,9.1,100,91,9.1,100,86,13.6,100,91,9.1,100,91,9.1,100,13.6,0,9.1
Concho Elementary School,n/a,HWY 61 AND CINDER RD,CONCHO,APACHE,85924,n,,< 20,na,na,na,na,na,na,na,na,na,na,na,na,na,na,na,na,na,na,na,na,na,na,na,na
Congress Elementary School,n/a,26400 S TENDERFOOT HILL RD,CONGRESS,YAVAPAI,85332,n,,< 20,na,na,na,na,na,na,na,na,na,na,na,na,na,na,na,na,na,na,na,na,na,na,na,na
Connolly Middle School,n/a,2002 E CONCORDA DR,TEMPE,MARICOPA,85282,y,rn,352,98,2.3,100,85,5.4,100,85,5.4,100,97,3.4,100,97,3.1,100,97,3.4,100,97,3.1,100,6.5,0,3.1
Constitution Elementary School,n/a,18440 N 15TH AVE,PHOENIX,MARICOPA,85023,y,rn,76,93,5.3,99,95,3.9,100,92,5.3,99,97,2.6,100,97,2.6,100,97,2.6,100,99,1.3,100,5.3,0,2.6
Continental Elementary School,n/a,1991 E WHITEHOUSE CANYON RD,GREEN VALLEY,PIMA,85614,y,rn,56,100,0,100,93,1.8,100,93,1.8,100,100,0,100,100,0,100,100,0,100,100,0,100,1.8,0,0
Copper Basin K-8,n/a,28682 N MAIN ST,SAN TAN VALLEY,PINAL,85143,y,rn,105,94,5.7,100,68,5.7,73,64,5.7,70,94,5.7,100,94,5.7,100,94,5.7,100,94,5.7,100,5.7,0,5.7
Copper Canyon Academy,n/a,7785 W PEORIA AVE,PEORIA,MARICOPA,85345,n,,23,96,0,96,100,0,100,100,0,100,100,0,100,100,0,100,100,0,100,100,0,100,0,0,0
Copper Canyon Elementary School,n/a,17630 N 54TH ST,SCOTTSDALE,MARICOPA,85254,y,,86,99,1.2,100,100,0,100,99,0,100,99,1.2,100,99,1.2,100,99,1.2,100,100,0,100,2.3,0,0
Copper Creek Elementary,n/a,7071 W HILLCREST BLVD,GLENDALE,MARICOPA,85310,y,rn,111,99,.9,100,97,1.8,100,97,1.8,100,99,.9,100,99,.9,100,99,.9,100,99,.9,100,1.8,0,.9
Copper King School,n/a,10730 W CAMPBELL AVE,PHOENIX,MARICOPA,85037,n,,106,96,3.8,100,98,0,99,95,4.7,100,97,2.8,100,97,2.8,100,100,0,100,100,0,100,2.8,.9,0
Copper Ridge School,n/a,10101 E THOMPSON PEAK PKWY,SCOTTSDALE,MARICOPA,85255,y,rn,143,96,4.2,100,94,5.6,100,91,8.4,100,97,2.8,100,96,4.2,100,96,4.2,100,97,3.5,100,5.6,1.4,2.8
Copper Trail Elementary,n/a,16875 W CANYON TRAILS BLVD,GOODYEAR,MARICOPA,85338,y,lpn,110,97,2.7,100,94,6.4,100,93,7.3,100,98,1.8,100,98,1.8,100,98,1.8,100,100,0,100,6.4,0,0
Copperwood,n/a,11232 N 65TH AVE,GLENDALE,MARICOPA,85304,y,rn,107,99,.9,100,73,.9,74,74,.9,75,99,.9,100,99,.9,100,99,.9,100,99,.9,100,.9,0,0
Cordova,n/a,5631 N 35TH AVE,PHOENIX,MARICOPA,85017,n,,110,100,0,100,100,0,100,99,0,99,100,0,100,100,0,100,100,0,100,100,0,100,0,.9,0
Corona Foothills Middle School,n/a,16705 S HOUGHTON RD,CORONA DE TUCSON,PIMA,85641,n,,164,97,3,100,93,6.7,100,93,6.7,100,97,3,100,97,3,100,96,3.7,100,97,3,100,4.3,0,4.3
Coronado Elementary,n/a,4333 S DEANZA BLVD,GILBERT,MARICOPA,85297,n,,104,98,1.9,100,91,5.8,100,91,5.8,100,95,4.8,100,95,4.8,100,96,3.8,100,97,2.9,100,7.7,0,0
Coronado K-8 School,n/a,3401 E WILDS RD,TUCSON,PIMA,85739,y,rn,143,97,2.8,100,97,2.8,100,97,2.8,100,100,0,100,100,0,100,100,0,100,100,0,100,2.8,0,0
Coronado School,n/a,5148 S CORONADO SCHOOL DR,SIERRA VISTA,COCHISE,85650,y,rn,53,94,5.7,100,96,3.8,100,94,5.7,100,100,0,100,98,1.9,100,100,0,100,100,0,100,5.7,0,0
Cortez Park Charter Middle School,n/a,3535 W DUNLAP AVE,PHOENIX,MARICOPA,85051,n,,76,100,0,100,96,1.3,99,96,1.3,99,100,0,100,100,0,100,97,2.6,100,100,0,100,1.3,0,1.3
Cortina Elementary,n/a,19680 S. 188TH ST,QUEEN CREEK,MARICOPA,85242,y,rn,153,97,2.6,100,93,5.9,100,92,6.5,100,98,2,100,98,2,100,97,2,99,98,2,100,6.5,0,6.5
Cotton Boll Elementary,n/a,8540 W BUTLER DR,PEORIA,MARICOPA,85345,y,rn,127,99,.8,100,95,3.9,100,95,3.9,100,99,.8,100,99,.8,100,100,0,100,100,0,100,3.9,0,0
Cottonwood Middle School,n/a,500 E MINGUS AVE,COTTONWOOD,YAVAPAI,86326,n,,160,97,2.5,99,86,9.4,96,0,10,97,96,3.1,99,95,4.4,99,94,3.1,98,96,0,96,10.6,0,10.6
Country Gardens Charter School,n/a,6313 W SOUTHERN AVE,LAVEEN,MARICOPA,85339,n,,47,100,0,100,89,6.4,98,89,2.1,98,98,2.1,100,98,2.1,100,98,2.1,100,98,2.1,100,2.1,0,0
Country Meadows Elementary School,n/a,8409 N 111TH AVE,PEORIA,MARICOPA,85345,y,rn,139,99,.7,100,96,.7,97,96,0,96,99,.7,100,99,.7,99,99,.7,99,98,2.2,100,2.9,0,.7
Country Place Elementary,n/a,10207 W COUNTRY PLACE BLVD,TOLLESON,MARICOPA,85353,y,lpn,112,100,0,100,96,.9,100,96,.9,100,100,0,100,99,.9,100,99,.9,100,100,0,100,.9,0,0
Countryside Elementary,n/a,15034 N PARKVIEW PL,SURPRISE,MARICOPA,85379,y,lpn,116,97,2.6,100,97,2.6,100,97,2.6,100,97,2.6,100,98,1.7,100,100,0,100,99,.9,100,4.3,0,1.7
Coyote Hills Elementary,n/a,21180 N 87TH AVE,PEORIA,MARICOPA,85382,y,rn,112,97,2.7,100,83,4.5,88,83,4.5,88,97,2.7,100,96,3.6,100,98,1.8,100,100,0,100,4.5,0,0
Coyote Ridge School,n/a,7677 W BETHANY HOME RD,GLENDALE,MARICOPA,85303,y,rn,104,99,1,100,100,0,100,97,0,97,99,1,100,99,1,100,99,1,100,100,0,100,1.9,0,0
Coyote Springs Elementary School,n/a,6625 E. CATTLETRACK,PRESCOTT VALLEY,YAVAPAI,86314,y,lpn,74,96,4.1,100,96,4.1,100,96,0,100,96,4.1,100,95,5.4,100,95,5.4,100,96,4.1,100,5.4,0,4.1
Coyote Trail Elementary School,n/a,8000 N SILVERBELL RD,TUCSON,PIMA,85743,n,,59,100,0,100,97,3.4,100,93,6.8,100,100,0,100,100,0,100,97,3.4,100,100,0,100,6.8,3.4,0
Creighton Elementary School,n/a,2802 E MCDOWELL RD,PHOENIX,MARICOPA,85008,y,lpn,80,100,0,100,100,0,100,100,0,100,100,0,100,100,0,100,100,0,100,100,0,100,0,0,0
Crismon Elementary School,n/a,825 W MEDINA AVE,MESA,MARICOPA,85210,y,rn,80,98,1.3,99,96,1.3,99,94,2.5,98,99,1.3,100,99,1.3,100,98,2.5,100,100,0,100,3.8,0,1.3
Crockett Elementary School,n/a,501 N 36TH ST,PHOENIX,MARICOPA,85008,y,lpn,45,100,0,100,100,0,100,100,0,100,100,0,100,100,0,100,100,0,100,100,0,100,0,0,0
Crown Charter School,n/a,12450 W MARYLAND AVE,LITCHFIELD PARK,MARICOPA,85340,n,,24,100,0,100,100,0,100,100,0,100,100,0,100,100,0,100,100,0,100,100,0,100,0,0,0
Crown King Elementary School District#41,n/a,188 TOWER MOUNTAIN RD .,CROWN KING,YAVAPAI,86343,n,rn,< 20,na,na,na,na,na,na,na,na,na,na,na,na,na,na,na,na,na,na,na,na,na,na,na,na
D.v.u.s.d.#97 - Anthem School,n/a,41020 N FREEDOM WAY,ANTHEM,MARICOPA,85086,y,lpn,93,95,5.4,100,88,10.8,100,87,10.8,99,93,7.5,100,95,5.4,100,95,5.4,100,95,5.4,100,10.8,0,0
Dan Hinton School,n/a,150 E 400 S,PIMA,GRAHAM,85543,y,rn,< 20,na,na,na,na,na,na,na,na,na,na,na,na,na,na,na,na,na,na,na,na,na,na,na,na
Degrazia Elementary School,n/a,5051 W OVERTON RD,TUCSON,PIMA,85742,y,rn,90,98,2.2,100,94,3.3,99,92,4.4,98,98,2.2,100,98,2.2,100,99,1.1,100,100,0,100,6.7,1.1,1.1
Dennehotso Boarding School,n/a,EAST HIGHWAY 160,DENNEHOTSO,APACHE,86535,n,,21,100,0,100,100,0,100,100,0,100,100,0,100,100,0,100,100,0,100,100,0,100,100,0,0
Desert Canyon Middle School,n/a,10203 E MCDOWELL MOUNTAIN RANCH RD,SCOTTSDALE,MARICOPA,85255,y,rn,166,98,1.8,99,85,5.4,90,84,6,90,98,2.4,100,98,2.4,100,98,2.4,100,97,3,100,10.8,0,2.4
Desert Christian Schools K-8,n/a,9415 E WRIGHTSTOWN RD,TUCSON,PIMA,85715,n,,30,97,3.3,100,97,3.3,100,93,6.7,100,97,3.3,100,97,3.3,100,97,3.3,100,97,3.3,100,6.7,0,3.3
Desert Cove Elementary School,n/a,11020 N 28TH ST,PHOENIX,MARICOPA,85028,n,,75,96,4,100,92,5.3,99,91,5.3,99,96,4,100,96,4,100,96,4,100,96,4,100,5.3,0,5.3
Desert Garden Montessori,n/a,5130 E WARNER RD,PHOENIX,MARICOPA,85044,n,,< 20,na,na,na,na,na,na,na,na,na,na,na,na,na,na,na,na,na,na,na,na,na,na,na,na
Desert Heights Preparatory Academy,n/a,3540 W UNION HILLS DR,GLENDALE,MARICOPA,85308,n,,71,96,4.2,100,94,4.2,100,94,4.2,100,97,2.8,100,96,4.2,100,97,2.8,100,96,4.2,100,4.2,0,4.2
Desert Horizon Elementary School,n/a,8525 W OSBORN RD,PHOENIX,MARICOPA,85037,y,lpn,110,96,0,96,100,0,100,99,0,100,96,0,96,96,0,96,95,0,95,96,0,96,0,0,0
Desert Jewish Academy,n/a,3400 N DOBSON RD,CHANDLER,MARICOPA,85224,n,,< 20,na,na,na,na,na,na,na,na,na,na,na,na,na,na,na,na,na,na,na,na,na,na,na,na
Desert Meadows Elementary School,n/a,6855 W MEADOWS LOOP E,LAVEEN,MARICOPA,85339,y,rn,99,95,5.1,100,89,4,98,85,9.1,99,96,4,100,96,4,100,96,4,100,99,0,99,5.1,7.1,0
Desert Mirage Elementary School,n/a,8605 W MARYLAND AVE,GLENDALE,MARICOPA,85305,n,,77,99,0,99,92,3.9,100,91,3.9,100,99,0,99,97,2.6,100,99,0,99,100,0,100,3.9,0,0
Desert Mountain Middle School,n/a,35959 N 7TH AVE,DESERT HILLS,MARICOPA,85086,y,rn,75,91,9.3,100,93,5.3,100,96,4,100,92,8,100,93,6.7,100,96,4,100,97,2.7,100,14.7,0,0
Desert Oasis Elementary School,n/a,17161 W BAJADA RD,SURPRISE,MARICOPA,85387,y,rn,51,96,2,98,86,9.8,100,84,9.8,98,96,2,98,98,2,100,96,2,98,98,2,100,9.8,0,0
Desert Oasis Elementary School,n/a,8802 W MCDOWELL RD,PHOENIX,MARICOPA,85037,y,lpn,106,99,.9,100,98,.9,100,98,.9,100,99,.9,100,99,.9,100,99,.9,100,99,.9,100,.9,0,0
Desert Palms School,n/a,11441 N 55TH AVE,GLENDALE,MARICOPA,85304,y,lpn,50,96,0,96,82,2,84,76,2,78,100,0,100,100,0,100,100,0,100,98,0,98,4,0,0
Desert Sage Elementary School,n/a,4035 W ALAMEDA RD,GLENDALE,MARICOPA,85310,y,rn,88,94,5.7,100,88,11.4,100,86,11.4,100,93,6.8,100,93,6.8,100,94,5.7,100,96,4.5,100,11.4,0,3.4
Desert Sands Middle School,n/a,6308 W CAMPBELL AVE,PHOENIX,MARICOPA,85033,y,rn,393,99,.8,100,91,0,91,89,.8,90,100,.8,100,99,.8,100,99,.8,100,100,0,100,.8,.5,0
Desert Shadows Elementary School,n/a,5902 E SWEETWATER AVE,SCOTTSDALE,MARICOPA,85254,y,rn,88,98,2.3,100,96,3.4,99,96,3.4,99,98,2.3,100,98,2.3,100,98,2.3,100,96,4.5,100,4.5,0,2.3
Desert Shadows Middle School,n/a,340 BOULEVARD DEL REY DAVID,NOGALES,SANTA CRUZ,85621,y,rn,234,100,0,100,100,0,100,100,0,100,100,0,100,100,0,100,100,0,100,99,1.3,100,.4,.9,0
Desert Sky Middle School,n/a,9850 E RANKIN LOOP,TUCSON,PIMA,85747,n,,231,98,1.7,100,98,2.2,100,98,2.2,100,98,1.7,100,98,1.7,100,97,3.5,100,98,1.7,100,4.3,0,0
Desert Spirit School,n/a,7355 W ORANGEWOOD AVE,GLENDALE,MARICOPA,85303,y,rn,114,96,0,96,97,0,97,91,0,91,97,0,97,99,0,99,97,0,97,99,0,99,0,0,0
Desert Springs Preparatory Elementary School,n/a,6010 E ACOMA DR,SCOTTSDALE,MARICOPA,85254,y,rn,65,89,9.2,99,88,10.8,100,88,10.8,100,89,10.8,100,89,10.8,100,91,9.2,100,92,7.7,100,15.4,3.1,9.2
Desert Star Elementary School,n/a,2131 S 157TH AVE,GOODYEAR,MARICOPA,85338,y,rn,69,99,1.4,100,94,4.3,100,94,4.3,100,99,1.4,100,99,1.4,100,99,1.4,100,99,1.4,100,1.4,0,1.4
Desert Sun Academy,n/a,27880 N 64TH ST,SCOTTSDALE,MARICOPA,85266,n,,61,90,8.2,98,90,4.9,97,92,4.9,98,92,8.2,100,92,8.2,100,95,4.9,100,93,6.6,100,9.8,0,1.6
Desert Thunder School,n/a,16750 W GARFIELD ST,GOODYEAR,MARICOPA,85338,y,lpn,95,99,1.1,100,95,2.1,100,95,2.1,100,99,1.1,100,99,1.1,100,99,1.1,100,99,1.1,100,2.1,0,1.1
Desert Trails Elementary School,n/a,4315 E CASHMAN DR,PHOENIX,MARICOPA,85050,y,rn,91,98,2.2,100,90,7.7,100,87,2.2,100,99,1.1,100,98,2.2,100,96,4.4,100,99,1.1,100,20.9,0,20.9
Desert Valley Elementary,n/a,12901 N 63RD AVE,GLENDALE,MARICOPA,85304,y,rn,75,89,8,97,87,8,95,85,8,93,91,8,99,92,6.7,99,91,8,99,93,6.7,100,8,0,8
Desert View Elementary,n/a,1508 N 10TH AVE,SAN LUIS,YUMA,85349,n,,127,100,0,100,100,0,100,100,0,100,100,0,100,100,0,100,100,0,100,100,0,100,0,0,0
Desert Vista Elementary School,n/a,3701 E BROADWAY AVE,APACHE JUNCTION,PINAL,85119,y,lpn,107,100,0,100,97,2.8,100,97,2.8,100,100,0,100,100,0,100,100,0,100,100,0,100,2.8,0,2.8
Desert Willow Elementary,n/a,4322 E DESERT WILLOW PKWY,CAVE CREEK,MARICOPA,85331,n,,78,94,6.4,100,89,9,97,89,9,97,94,6.4,100,94,6.4,100,94,5.1,99,95,5.1,100,9,0,3.8
Desert Wind Middle School,n/a,35565 W HONEYCUTT RD,MARICOPA,PINAL,85239,y,rn,38,100,0,100,87,0,100,87,0,100,100,0,100,100,0,100,100,0,100,100,0,100,0,0,0
Destiny School,n/a,798 E PRICKLY PEAR DR,GLOBE,GILA,85501,n,,28,89,10.7,100,89,10.7,100,89,10.7,100,89,10.7,100,89,10.7,100,89,10.7,100,89,10.7,100,10.7,0,10.7
Devereux Of Arizona,n/a,6436 E SWEETWATER AVE,SCOTTSDALE,MARICOPA,85254,y,rn,< 20,na,na,na,na,na,na,na,na,na,na,na,na,na,na,na,na,na,na,na,na,na,na,na,na
Diamond Canyon Elementary,n/a,40004 N LIBERTY BELL WAY,ANTHEM,MARICOPA,85086,y,rn,122,95,4.9,100,89,11.5,100,89,11.5,100,96,3.3,99,95,4.9,100,95,4.1,99,98,0,98,13.9,.8,13.9
Dietz Elementary School,n/a,7575 E PALMA ST,TUCSON,PIMA,85710,y,rn,62,94,0,94,98,1.6,100,98,1.6,100,94,0,94,98,1.6,100,97,0,97,100,0,100,1.6,0,0
Dilworth Brinton Elementary,n/a,11455 E SUNLAND AVE,MESA,MARICOPA,85208,n,rn,83,100,0,100,100,0,100,99,0,99,100,0,100,100,0,100,100,0,100,100,0,100,0,0,0
Discover U,n/a,13226 N 113TH AVE,YOUNGTOWN,MARICOPA,85363,n,,< 20,na,na,na,na,na,na,na,na,na,na,na,na,na,na,na,na,na,na,na,na,na,na,na,na
Discovery Elementary,n/a,7910 W MARYLAND AVE,GLENDALE,MARICOPA,85303,y,rn,79,100,0,100,100,0,100,98,2.5,100,100,0,100,100,0,100,99,1.3,100,100,0,100,1.3,1.3,1.3
"Dishcii""bikosh Community School",n/a,211 S. ELM ST.,CIBECUE,NAVAJO,85911,y,rn,42,100,0,100,98,0,100,98,0,100,100,0,100,100,0,100,100,0,100,100,0,100,0,0,0
Dobson Academy A-ball Charter School,n/a,2207 N DOBSON RD,CHANDLER,MARICOPA,85224,n,,44,91,9.1,100,66,9.1,75,61,9.1,71,91,9.1,100,91,9.1,100,89,9.1,98,93,6.8,100,9.1,0,0
Dobson Montessori K-12,n/a,745 S EXTENSION RD,MESA,MARICOPA,85210,n,,< 20,na,na,na,na,na,na,na,na,na,na,na,na,na,na,na,na,na,na,na,na,na,na,na,na
Dodge Traditional Magnet Middle School,n/a,5831 E PIMA ST,TUCSON,PIMA,85712,y,rn,145,98,.7,99,97,.7,100,95,1.4,99,98,.7,99,98,.7,99,99,.7,100,100,0,100,1.4,0,1.4
Don Mensendick,n/a,5535 N 67TH AVE,GLENDALE,MARICOPA,85301,y,lpn,197,100,.5,100,99,0,100,98,.5,100,100,.5,100,100,.5,100,100,.5,100,100,0,100,.5,0,0
Doolen Middle School,n/a,2400 N COUNTRY CLUB RD,TUCSON,PIMA,85716,y,rn,214,94,.9,94,97,.9,100,87,.9,90,98,1.9,100,98,1.9,100,97,1.9,99,99,1.4,100,.9,.9,.9
Dorothy Stinson School,n/a,2013 S 8TH AVE,SAFFORD,GRAHAM,85546,y,rn,73,99,1.4,100,97,2.7,100,96,4.1,100,99,1.4,100,99,1.4,100,100,0,100,99,1.4,100,2.7,1.4,2.7
Dos Rios,n/a,2150 S 87TH AVE,TOLLESON,MARICOPA,85353,n,,75,99,1.3,100,91,0,92,92,0,100,96,0,96,99,1.3,100,99,0,99,100,0,100,1.3,0,0
Double Adobe Elementary School,n/a,7081 N CENTRAL HWY,MC NEAL,COCHISE,85617,n,,< 20,na,na,na,na,na,na,na,na,na,na,na,na,na,na,na,na,na,na,na,na,na,na,na,na
Dr Howard K Conley Elementary School,n/a,500 S ARROWHEAD DR,CHANDLER,MARICOPA,85224,n,,102,95,4.9,100,89,4.9,100,89,4.9,100,95,4.9,100,94,5.9,100,95,4.9,100,95,4.9,100,5.9,0,4.9
Dr. Gary And Annette Auxier Elementary School,n/a,22700 S POWER RD,QUEEN CREEK,MARICOPA,85142,n,,144,97,3.5,100,76,20.8,100,76,20.8,100,97,3.5,100,94,5.6,100,96,4.2,100,97,3.5,100,24.3,0,1.4
Drachman Primary Magnet School,n/a,1085 S 10TH AVE,TUCSON,PIMA,85701,y,rn,22,100,0,100,100,0,100,100,0,100,100,0,100,100,0,100,96,4.5,100,100,0,100,0,4.5,0
Drexel Elementary School,n/a,801 E DREXEL RD,TUCSON,PIMA,85706,y,rn,95,100,0,100,100,0,100,100,0,100,100,0,100,100,0,100,100,0,100,100,0,100,0,0,0
Duncan Elementary School,n/a,101 MCGRATH AVE,DUNCAN,GREENLEE,85534,n,,35,94,0,94,86,0,86,77,0,77,94,0,94,94,0,94,100,0,100,94,0,94,0,0,0
Dwight Patterson Elementary,n/a,615 S CHESHIRE,MESA,MARICOPA,85208,y,rn,87,94,5.7,100,92,4.6,97,92,5.7,98,95,4.6,100,95,4.6,100,95,3.4,99,100,0,100,6.9,0,0
Dysart Elementary School,n/a,12950 W VARNEY RD,EL MIRAGE,MARICOPA,85335,y,lpn,108,98,1.9,100,96,1.9,100,96,1.9,100,98,1.9,100,98,1.9,100,98,1.9,100,98,1.9,100,1.9,0,1.9
Eagle College Prep,n/a,2450 W SOUTH MOUNTAIN AVE,PHOENIX,MARICOPA,85041,n,,82,98,2.4,100,68,7.3,76,68,7.3,76,96,2.4,99,96,2.4,99,96,2.4,99,96,2.4,99,7.3,0,7.3
Eagle College Prep Harmony,n/a,2435 E PECAN RD,PHOENIX,MARICOPA,85040,n,,32,100,0,100,84,0,100,84,0,100,100,0,100,100,0,100,100,0,100,100,0,100,0,0,0
Eagle Ridge Elementary School,n/a,19801 N 13TH ST,PHOENIX,MARICOPA,85024,y,rn,77,97,2.6,100,94,5.2,100,92,5.2,99,97,2.6,100,97,2.6,100,99,1.3,100,97,2.6,100,6.5,0,2.6
Eagleridge Enrichment Program,n/a,1313 W MEDINA AVE,MESA,MARICOPA,85202,y,rn,78,80,20.5,100,63,32.1,100,60,39.7,100,80,20.5,100,78,21.8,100,80,20.5,100,100,0,100,34.6,3.8,0
East Fork Lutheran School,n/a,4325 FORT APACHE RD,WHITERIVER,NAVAJO,85941,n,,< 20,na,na,na,na,na,na,na,na,na,na,na,na,na,na,na,na,na,na,na,na,na,na,na,na
East Valley Academy,n/a,1858 E BROWN RD,MESA,MARICOPA,85203,n,,< 20,na,na,na,na,na,na,na,na,na,na,na,na,na,na,na,na,na,na,na,na,na,na,na,na
Echo Mountain Intermediate School,n/a,1811 E MICHIGAN AVE,PHOENIX,MARICOPA,85022,y,rn,125,98,.8,99,90,8,99,90,8,99,98,.8,99,99,.8,100,99,.8,100,100,0,100,8,.8,0
Ed Pastor Elementary 4,n/a,985 N 6TH AVE,SAN LUIS,YUMA,85349,y,lpn,38,100,0,100,100,0,100,100,0,100,100,0,100,100,0,100,100,0,100,100,0,100,0,0,0
Ed and Verma Pastor Elementary School,n/a,2101 W ALTA VISTA RD,PHOENIX,MARICOPA,85041,y,lpn,76,99,1.3,100,99,0,99,99,1.3,100,99,1.3,100,99,1.3,100,99,1.3,100,99,0,99,1.3,0,1.3
Edison Elementary School,n/a,545 N HORNE,MESA,MARICOPA,85203,y,rn,99,98,0,98,93,2,99,94,2,100,98,1,99,98,0,98,97,0,97,100,0,100,4,4,0
Edupreneurship Student Center (esc) Phoenix,n/a,7310 N 27TH AVE,PHOENIX,MARICOPA,85051,n,,< 20,na,na,na,na,na,na,na,na,na,na,na,na,na,na,na,na,na,na,na,na,na,na,na,na
Eduprize School,n/a,4567 W ROBERTS RD,QUEEN CREEK,PINAL,85142,y,rn,201,93,2.5,96,87,12.9,100,87,12.9,100,93,7.5,100,93,7.5,100,94,6,100,94,6,100,10.9,0,5
Eduprize School Gilbert,n/a,580 W MELODY AVE,GILBERT,MARICOPA,85233,y,rn,188,95,5.3,100,91,6.9,98,91,6.9,98,95,4.8,100,95,4.8,100,95,4.8,100,95,4.8,100,5.9,0,2.1
Eisenhower Elementary School,n/a,848 N MESA DR,MESA,MARICOPA,85201,y,rn,61,98,1.6,100,95,1.6,100,90,1.6,95,98,1.6,100,98,1.6,100,97,1.6,98,98,1.6,100,1.6,0,1.6
El Dorado Private School K - 8,n/a,20624 N 76TH ST,SCOTTSDALE,MARICOPA,85255,n,,< 20,na,na,na,na,na,na,na,na,na,na,na,na,na,na,na,na,na,na,na,na,na,na,na,na
El Mirage Elementary,n/a,13500 N EL MIRAGE RD,EL MIRAGE,MARICOPA,85335,y,lpn,76,100,0,100,100,0,100,97,1.3,99,100,0,100,100,0,100,99,1.3,100,100,0,100,1.3,1.3,0
Elfrida Elementary School,n/a,4070 W JEFFERSON RD,ELFRIDA,COCHISE,85610,n,,< 20,na,na,na,na,na,na,na,na,na,na,na,na,na,na,na,na,na,na,na,na,na,na,na,na
Elgin Elementary School,n/a,293 UPPER ELGIN RD,ELGIN,SANTA CRUZ,85611,y,rn,< 20,na,na,na,na,na,na,na,na,na,na,na,na,na,na,na,na,na,na,na,na,na,na,na,na
Elite Performance Academy - Cusd #80,n/a,1825 S ALMA SCHOOL RD,CHANDLER,MARICOPA,85286,n,,33,100,0,100,85,15.2,100,85,15.2,100,97,3,100,100,0,100,100,0,100,97,3,100,15.2,0,0
Ellsworth Elementary,n/a,1651 E PIMA RD,SAN TAN VALLEY,PINAL,85140,n,,108,97,2.8,100,80,6.5,86,82,6.5,88,97,2.8,100,97,2.8,100,97,2.8,100,94,1.9,96,9.3,0,1.9
Eloy Junior High School,n/a,404 E PHOENIX AVE,ELOY,PINAL,85131,n,,98,100,0,100,100,0,100,100,0,100,99,0,99,100,0,100,100,0,100,100,0,100,0,0,0
Elvira Elementary,n/a,250 W ELVIRA RD,TUCSON,PIMA,85756,y,rn,78,100,0,100,100,0,100,100,0,100,100,0,100,100,0,100,100,0,100,100,0,100,0,0,0
Emerson,n/a,415 N WESTWOOD,MESA,MARICOPA,85201,y,,108,99,.9,100,99,0,99,97,1.9,99,99,.9,100,99,.9,100,99,.9,100,100,0,100,.9,2.8,0
Emmanuel Christian Academy,n/a,3120 HUALAPAI MOUNTAIN RD,KINGMAN,MOHAVE,86401,n,,< 20,na,na,na,na,na,na,na,na,na,na,na,na,na,na,na,na,na,na,na,na,na,na,na,na
Emmanuel Lutheran School,n/a,715 W SOUTHERN AVE,TEMPE,MARICOPA,85282,n,,< 20,na,na,na,na,na,na,na,na,na,na,na,na,na,na,na,na,na,na,na,na,na,na,na,na
Emmaus Lutheran School,n/a,3841 W SWEETWATER AVE,PHOENIX,MARICOPA,85029,n,,< 20,na,na,na,na,na,na,na,na,na,na,na,na,na,na,na,na,na,na,na,na,na,na,na,na
Empower College Prep,n/a,5757 N CENTRAL AVE,PHOENIX,MARICOPA,85012,n,,106,94,0,94,63,0,63,63,0,63,98,0,98,94,4.7,99,97,0,97,95,0,95,0,.9,0
Entz Elementary School,n/a,4132 E ADOBE ST,MESA,MARICOPA,85205,y,rn,92,95,5.4,100,90,7.6,99,91,6.5,99,94,6.5,100,94,6.5,100,97,3.3,100,95,5.4,100,15.2,0,2.2
Esmond Station School,n/a,9400 S ATTERBURY WASH WAY,TUCSON,PIMA,85747,n,,56,98,1.8,100,98,1.8,100,98,1.8,100,98,1.8,100,98,1.8,100,98,1.8,100,100,0,100,1.8,0,0
Esperanza Elementary School,n/a,2353 E BANTAM RD,TUCSON,PIMA,85706,y,rn,84,99,1.2,100,99,0,99,99,0,99,100,0,100,100,0,100,100,0,100,100,0,100,0,1.2,0
Esperanza Elementary School,n/a,251 W MOHAWK LN,PHOENIX,MARICOPA,85027,y,,74,92,4.1,96,92,4.1,96,92,4.1,96,95,4.1,99,96,4.1,100,95,4.1,99,96,4.1,100,4.1,0,0
Esperero Canyon Middle School,n/a,5801 N SABINO CANYON RD,TUCSON,PIMA,85750,y,rn,202,98,2.5,100,93,5.4,99,92,7.4,100,96,4,100,96,3.5,99,97,2.5,100,96,4,100,5.4,1,2
Estrella Middle School,n/a,3733 N 75TH AVE,PHOENIX,MARICOPA,85033,y,rn,465,100,0,100,93,.4,94,93,.6,94,100,.2,100,99,.6,100,100,0,100,99,.6,100,.6,.2,0
Estrella Mountain Elementary School,n/a,10301 S SAN MIGUEL AVE,GOODYEAR,MARICOPA,85338,n,,67,99,1.5,100,93,4.5,100,93,4.5,100,99,1.5,100,99,1.5,100,99,1.5,100,99,1.5,100,4.5,0,1.5
Estrella Vista Elementary,n/a,11905 W COCOPAH CIR,AVONDALE,MARICOPA,85323,y,rn,111,99,.9,100,94,4.5,100,94,4.5,100,99,.9,100,99,.9,100,99,.9,100,100,0,100,7.2,0,0
Ethos Academy,n/a,7614 N 43RD AVE,GLENDALE,MARICOPA,85301,n,,< 20,na,na,na,na,na,na,na,na,na,na,na,na,na,na,na,na,na,na,na,na,na,na,na,na
Evans Learning Center,n/a,4525 S COLLEGE AVE,TEMPE,MARICOPA,85282,n,,< 20,na,na,na,na,na,na,na,na,na,na,na,na,na,na,na,na,na,na,na,na,na,na,na,na
Excelencia School,n/a,2181 E MCDOWELL RD,PHOENIX,MARICOPA,85006,y,lpn,104,100,0,100,97,0,100,97,0,100,100,0,100,100,0,100,100,0,100,100,0,100,0,0,0
Fairbanks Middle School,n/a,1056 FAIRBANKS RD,MORENCI,GREENLEE,85540,n,,97,100,0,100,100,0,100,97,1,98,100,0,100,99,1,100,100,0,100,100,0,100,0,1,0
Faith Christian Academy,n/a,2555 W VALENCIA RD,TUCSON,PIMA,85746,n,,< 20,na,na,na,na,na,na,na,na,na,na,na,na,na,na,na,na,na,na,na,na,na,na,na,na
Faith Christian School,n/a,6659 E UNIVERSITY DR,MESA,MARICOPA,85205,n,,< 20,na,na,na,na,na,na,na,na,na,na,na,na,na,na,na,na,na,na,na,na,na,na,na,na
Faith Community Acad,n/a,2551 W ORANGE GROVE RD,TUCSON,PIMA,85741,n,,< 20,na,na,na,na,na,na,na,na,na,na,na,na,na,na,na,na,na,na,na,na,na,na,na,na
Faith Lutheran Church And School And Preschool,n/a,3925 E 5TH ST,TUCSON,PIMA,85711,n,,< 20,na,na,na,na,na,na,na,na,na,na,na,na,na,na,na,na,na,na,na,na,na,na,na,na
Falcon Hill Elementary School,n/a,1645 N STERLING,MESA,MARICOPA,85207,n,,82,96,0,96,90,8.5,100,90,9.8,100,95,4.9,100,96,3.7,100,98,2.4,100,96,3.7,100,9.8,3.7,9.8
Family Life Academy,n/a,530 S PANTANO RD,TUCSON,PIMA,85710,n,,< 20,na,na,na,na,na,na,na,na,na,na,na,na,na,na,na,na,na,na,na,na,na,na,na,na
Fees Middle School,n/a,1600 E WATSON DR,TEMPE,MARICOPA,85283,y,rn,263,99,.8,100,94,.8,100,94,.8,100,99,.8,100,99,.8,100,99,.8,100,99,.8,100,1.1,0,.8
Festival Foothills Elementary School,n/a,26252 W DESERT VISTA BLVD,BUCKEYE,MARICOPA,85396,n,,34,97,2.9,100,97,2.9,100,97,2.9,100,97,2.9,100,97,2.9,100,97,2.9,100,97,2.9,100,2.9,0,2.9
Field Elementary,n/a,2325 E ADOBE ST,MESA,MARICOPA,85213,y,rn,93,98,2.2,100,98,1.1,100,96,4.3,100,100,0,100,99,1.1,100,100,0,100,100,0,100,3.2,2.2,2.2
Fine Arts Academy,n/a,1700 S. 103RD AVENUE,TOLLESON,MARICOPA,85353,y,lpn,56,100,0,100,100,0,100,100,0,100,100,0,100,100,0,100,100,0,100,93,0,93,0,0,0
Finley Farms Elementary,n/a,375 S COLUMBUS DR,GILBERT,MARICOPA,85296,y,rn,90,96,4.4,100,81,10,98,86,8.9,98,93,6.7,100,96,4.4,100,97,3.3,100,97,3.3,100,10,0,3.3
Fireside Elementary School,n/a,3725 E LONE CACTUS DR,PHOENIX,MARICOPA,85050,y,rn,90,90,10,100,84,15.6,100,86,14.4,100,92,7.8,100,90,10,100,90,10,100,93,6.7,100,14.4,0,14.4
First Avenue Elementary School,n/a,914 N FIRST AVE,SAN MANUEL,PINAL,85631,n,,42,79,0,79,21,0,21,19,0,19,79,0,79,81,0,81,79,0,79,83,0,83,0,0,0
First Baptist Christian Academy,n/a,1447 S 7TH ST,SIERRA VISTA,COCHISE,85635,n,,23,100,0,100,96,4.3,100,96,4.3,100,100,0,100,100,0,100,100,0,100,100,0,100,4.3,0,0
First Southern Christian School,n/a,445 E SPEEDWAY BLVD,TUCSON,PIMA,85705,n,,< 20,na,na,na,na,na,na,na,na,na,na,na,na,na,na,na,na,na,na,na,na,na,na,na,na
Flagstaff Junior Academy Middle School,n/a,755 N BONITO ST,FLAGSTAFF,COCONINO,86001,n,,43,88,11.6,100,88,11.6,100,84,16.3,100,84,16.3,100,84,16.3,100,84,16.3,100,91,9.3,100,20.9,0,11.6
Florence K-8,n/a,460 S PARK ST,FLORENCE,PINAL,85232,y,,74,97,0,97,68,0,68,34,2.7,37,97,0,97,97,2.7,100,97,2.7,100,95,0,95,2.7,0,0
Foothills Academy College Preparatory,n/a,7191 E ASHLER HILLS DR,SCOTTSDALE,MARICOPA,85266,n,,26,96,3.8,100,96,3.8,100,92,3.8,100,96,3.8,100,96,3.8,100,96,3.8,100,96,3.8,100,3.8,0,3.8
Foothills Elementary,n/a,15808 N 63RD AVE,GLENDALE,MARICOPA,85306,y,rn,59,98,1.7,100,98,0,100,97,0,100,98,1.7,100,98,1.7,100,98,1.7,100,100,0,100,1.7,0,0
Fort Thomas Elementary,n/a,15560 W ELEMENTARY SCHOOL ROAD,FORT THOMAS,GRAHAM,85536,y,rn,43,100,0,100,98,0,100,95,0,98,100,0,100,100,0,100,100,0,100,100,0,100,0,0,0
Fountain Hills Charter School - Glenbrook,n/a,16751 E GLENBROOK BLVD,FOUNTAIN HILLS,MARICOPA,85268,n,,< 20,na,na,na,na,na,na,na,na,na,na,na,na,na,na,na,na,na,na,na,na,na,na,na,na
Fountain Hills Middle School,n/a,15414 N MCDOWELL MOUNTAIN RD,FOUNTAIN HILLS,MARICOPA,85268,n,,133,96,3.8,100,93,7.5,100,91,9,100,96,3.8,100,96,3.8,100,97,3,100,97,3,100,9,0,3
Four Peaks Elementary School,n/a,1785 N IDAHO RD,APACHE JUNCTION,PINAL,85119,y,rn,110,100,0,100,95,4.5,100,95,4.5,100,97,2.7,100,97,2.7,100,98,1.8,100,100,0,100,5.5,0,1.8
Fourth Avenue Junior High School,n/a,450 S 4TH AVE,YUMA,YUMA,85364,n,,85,99,0,99,99,0,99,97,1.2,98,100,0,100,100,0,100,100,0,100,100,0,100,1.2,0,0
Fox Creek Jr High School,n/a,3101 DESERT SKY BLVD,BULLHEAD CITY,MOHAVE,86442,y,rn,151,99,.7,100,89,5.3,97,89,5.3,97,99,1.3,100,99,1.3,100,99,1.3,100,99,.7,100,6,0,1.3
Frank Borman Middle School,n/a,3637 N 55TH AVE,PHOENIX,MARICOPA,85031,y,lpn,112,99,0,99,95,0,95,95,0,95,99,0,99,98,0,98,99,0,99,99,.9,100,0,.9,0
Franklin At Alma Elementary,n/a,1313 W MEDINA AVE,MESA,MARICOPA,85202,y,rn,34,97,2.9,100,91,5.9,100,91,8.8,100,97,2.9,100,97,2.9,100,97,2.9,100,100,0,100,5.9,8.8,0
Franklin East Elementary,n/a,1753 E 8TH AVE,MESA,MARICOPA,85204,y,rn,109,96,3.7,100,91,3.7,100,87,7.3,100,95,5.5,100,95,4.6,100,97,2.8,100,97,2.8,100,7.3,0,1.8
Franklin Elementary At Brimhall,n/a,4949 E SOUTHERN AVE,MESA,MARICOPA,85206,y,rn,104,99,1,100,93,5.8,100,93,6.7,100,99,1,100,99,1,100,100,0,100,100,0,100,9.6,0,0
Franklin Phonetic Primary School,n/a,6116 E HIGHWAY 69,PRESCOTT VALLEY,YAVAPAI,86314,n,,52,92,7.7,100,89,11.5,100,89,11.5,100,92,7.7,100,92,7.7,100,94,5.8,100,94,5.8,100,3.8,3.8,3.8
Franklin West Elementary,n/a,236 S SIRRINE,MESA,MARICOPA,85210,y,rn,85,93,7.1,100,78,22.4,100,78,22.4,100,93,7.1,100,93,7.1,100,95,4.7,100,100,0,100,22.4,1.2,0
Fredonia Elementary School,n/a,222 N 200 EAST,FREDONIA,COCONINO,86022,n,,< 20,na,na,na,na,na,na,na,na,na,na,na,na,na,na,na,na,na,na,na,na,na,na,na,na
Freedom Academy North,n/a,28700 N PIMA RD,SCOTTSDALE,MARICOPA,85266,n,,< 20,na,na,na,na,na,na,na,na,na,na,na,na,na,na,na,na,na,na,na,na,na,na,na,na
"Freedom Academy, Inc",n/a,3916 E PARADISE LN,PHOENIX,MARICOPA,85032,n,,43,81,18.6,100,79,20.9,100,79,20.9,100,81,18.6,100,81,18.6,100,81,18.6,100,81,18.6,100,20.9,0,0
Freedom Elementary School,n/a,22150 W SUNDANCE PKWY,BUCKEYE,MARICOPA,85326,y,lpn,94,100,0,100,97,1.1,98,97,1.1,98,100,0,100,100,0,100,100,0,100,100,0,100,1.1,1.1,0
Friendly House Academia Del Pueblo Elem,n/a,201 E DURANGO ST,PHOENIX,MARICOPA,85004,n,,48,100,0,100,100,0,100,92,0,92,100,0,100,100,0,100,100,0,100,100,0,100,0,0,0
Frontier Elementary School,n/a,21258 N 81ST AVE,PEORIA,MARICOPA,85382,y,rn,123,97,3.3,100,88,12.2,100,88,12.2,100,96,4.1,100,94,6.5,100,96,4.1,100,95,4.9,100,13,0,0
Frye Elementary School,n/a,801 E FRYE RD,CHANDLER,MARICOPA,85225,n,,73,100,0,100,96,2.7,100,96,2.7,100,100,0,100,100,0,100,100,0,100,100,0,100,2.7,0,0
Future Investment Middle School,n/a,1854 S ALVERNON WAY,TUCSON,PIMA,85711,n,,< 20,na,na,na,na,na,na,na,na,na,na,na,na,na,na,na,na,na,na,na,na,na,na,na,na
G.p.s. - Playa Del Rey Elementary,n/a,550 N HORNE ST,GILBERT,MARICOPA,85233,y,rn,76,97,2.6,100,91,5.3,97,91,5.3,97,97,2.6,100,97,2.6,100,97,2.6,100,97,2.6,100,5.3,0,2.6
Gadsden Elementary School,n/a,PO BOX 6870,SAN LUIS,YUMA,85349,y,lpn,111,100,0,100,97,0,100,97,0,100,100,0,100,100,0,100,100,0,100,100,0,100,0,0,0
Gallego Intermediate,n/a,3700 E ALVORD RD,TUCSON,PIMA,85706,y,rn,178,99,.6,100,98,1.1,100,98,1.1,100,99,.6,100,99,.6,100,99,.6,100,99,.6,100,.6,0,.6
Galveston Elementary School,n/a,661 E GALVESTON ST,CHANDLER,MARICOPA,85225,n,,87,98,2.3,100,98,2.3,100,98,2.3,100,98,2.3,100,97,2.3,99,97,2.3,99,100,0,100,4.6,1.1,0
Ganado Middle School,n/a,HIGHWAY 264 and NAVAJO ROUTE 1,GANADO,APACHE,86505,n,,97,100,0,100,90,0,93,90,0,93,100,0,100,100,0,100,100,0,100,100,0,100,0,0,0
Garden Lakes Elementary School,n/a,10825 W GARDEN LAKES PKWY,AVONDALE,MARICOPA,85392,y,lpn,141,97,2.8,100,92,2.1,100,92,2.8,100,99,.7,100,99,.7,100,99,.7,100,100,0,100,2.8,0,2.8
Garfield School,n/a,811 N 13TH ST,PHOENIX,MARICOPA,85006,y,rn,57,95,5.3,100,97,3.5,100,95,3.5,98,98,0,98,98,0,98,98,0,98,100,0,100,3.5,0,0
Gary A Knox Elementary,n/a,2926 S 21ST DR,YUMA,YUMA,85364,y,rn,107,100,0,100,99,0,99,99,0,99,100,0,100,100,0,100,100,0,100,100,0,100,0,0,0
Gateway Academy,n/a,3939 E SHEA BLVD,PHOENIX,MARICOPA,85028,y,rn,< 20,na,na,na,na,na,na,na,na,na,na,na,na,na,na,na,na,na,na,na,na,na,na,na,na
Gateway Pointe Elementary,n/a,2069 S DELATORRE DR,HIGLEY,MARICOPA,85236,n,,108,98,.9,99,90,0,90,90,.9,91,99,0,99,99,0,99,99,0,99,99,0,99,.9,0,0
Gateway Polytechnic Academy,n/a,5149 S SIGNAL BUTTE RD,MESA,MARICOPA,85212,n,,73,97,2.7,100,96,2.7,100,93,5.5,100,97,2.7,100,96,4.1,100,97,2.7,100,97,2.7,100,5.5,0,4.1
Gateway School,n/a,1100 N 35TH ST,PHOENIX,MARICOPA,85008,y,rn,84,100,0,100,100,0,100,100,0,100,100,0,100,99,1.2,100,100,0,100,100,0,100,0,1.2,0
Gavilan Peak,n/a,2701 W MEMORIAL DR,ANTHEM,MARICOPA,85086,y,rn,89,94,5.6,100,90,6.7,98,90,6.7,98,93,6.7,100,93,6.7,100,94,5.6,100,96,4.5,100,10.1,0,0
George Washington Academy,n/a,1945 S 1ST ST E,SNOWFLAKE,NAVAJO,85937,n,,< 20,na,na,na,na,na,na,na,na,na,na,na,na,na,na,na,na,na,na,na,na,na,na,na,na
George Washington Carver,n/a,1341 W 5TH ST,YUMA,YUMA,85364,y,rn,55,100,0,100,86,0,86,82,0,82,100,0,100,100,0,100,100,0,100,96,0,96,0,0,0
Gethsemane Lutheran School,n/a,1035 E GUADALUPE RD,TEMPE,MARICOPA,85283,n,,< 20,na,na,na,na,na,na,na,na,na,na,na,na,na,na,na,na,na,na,na,na,na,na,na,na
Gila Crossing Community School,n/a,5031 W. GILA RIVER CROSSING,LAVEEN,MARICOPA,85339,y,rn,60,100,0,100,88,0,100,88,0,100,100,0,100,100,0,100,100,0,100,100,0,100,0,0,0
Gila Vista Jr High School,n/a,2245 S ARIZONA AVE,YUMA,YUMA,85364,n,,183,100,0,100,97,.5,98,97,.5,97,100,0,100,100,.5,100,100,0,100,100,0,100,0,.5,0
Gilbert Arts Academy,n/a,862 E ELLIOT RD,GILBERT,MARICOPA,85234,n,,< 20,na,na,na,na,na,na,na,na,na,na,na,na,na,na,na,na,na,na,na,na,na,na,na,na
Gilbert Christian Elementary And Middle Sch,n/a,1424 S PROMENADE LN,GILBERT,MARICOPA,85296,n,,59,92,8.5,100,92,8.5,100,80,20.3,100,92,8.5,100,92,8.5,100,88,11.9,100,93,6.8,100,10.2,1.7,8.5
Gilbert Elementary School,n/a,175 W ELLIOT RD,GILBERT,MARICOPA,85233,y,rn,74,96,4.1,100,92,1.4,97,92,2.7,99,96,4.1,100,95,5.4,100,97,2.7,100,97,2.7,100,6.8,0,2.7
Gilbert Private Day Academy,n/a,1016 N BURK ST,GILBERT,MARICOPA,85234,y,rn,< 20,na,na,na,na,na,na,na,na,na,na,na,na,na,na,na,na,na,na,na,na,na,na,na,na
Gililland Middle School,n/a,1025 S BECK AVE,TEMPE,MARICOPA,85281,y,rn,250,95,4.4,99,95,4.4,100,95,4.4,100,100,0,100,96,4.4,100,96,4.4,100,96,4.4,100,4.4,0,4.4
Gladden Farms Elementary,n/a,11745 W GLADDEN FARMS DR,MARANA,PIMA,85653,n,,57,100,0,100,97,0,98,95,0,97,100,0,100,100,0,100,100,0,100,100,0,100,0,0,0
Glendale American School,n/a,8530 N 55TH AVE,GLENDALE,MARICOPA,85302,y,rn,73,99,1.4,100,95,1.4,96,95,1.4,96,99,1.4,100,99,1.4,100,99,1.4,100,100,0,100,1.4,0,0
Glendale Landmark Middle School,n/a,5730 W MYRTLE AVE,GLENDALE,MARICOPA,85301,y,lpn,93,97,0,97,97,0,97,97,0,97,98,0,98,98,0,98,96,0,96,99,0,99,1.1,0,1.1
Glendale Preparatory Academy,n/a,23276 N 83RD AVE,PEORIA,MARICOPA,85383,y,rn,100,95,5,100,91,7,100,91,7,100,95,5,100,96,4,100,94,6,100,97,3,100,11,0,3
Glenn F Burton School,n/a,4801 W MARYLAND AVE,GLENDALE,MARICOPA,85301,y,lpn,80,96,3.8,100,93,1.3,95,91,1.3,93,99,1.3,100,99,1.3,100,99,1.3,100,100,0,100,1.3,0,1.3
Glenn L Downs School,n/a,3600 N 47TH AVE,PHOENIX,MARICOPA,85031,y,rn,65,100,0,100,97,0,100,97,0,100,100,0,100,100,0,100,100,0,100,100,0,100,0,0,0
Glenview Adventist School,n/a,6801 N 43RD AVE,PHOENIX,MARICOPA,85019,n,,< 20,na,na,na,na,na,na,na,na,na,na,na,na,na,na,na,na,na,na,na,na,na,na,na,na
Gowan Science Academy,n/a,1590 S AVENUE C,YUMA,YUMA,85364,n,,60,100,0,100,93,1.7,95,95,0,95,95,0,95,98,0,98,95,0,95,85,0,85,1.7,0,0
Grace Christian Academy,n/a,1200 E SOUTHERN AVE,TEMPE,MARICOPA,85282,y,rn,< 20,na,na,na,na,na,na,na,na,na,na,na,na,na,na,na,na,na,na,na,na,na,na,na,na
Grace Evangelical Lutheran School,n/a,5600 W PALMAIRE AVE,GLENDALE,MARICOPA,85301,n,,< 20,na,na,na,na,na,na,na,na,na,na,na,na,na,na,na,na,na,na,na,na,na,na,na,na
Grace Fellowship Academy,n/a,1330 N MILLER RD,BUCKEYE,MARICOPA,85326,n,,< 20,na,na,na,na,na,na,na,na,na,na,na,na,na,na,na,na,na,na,na,na,na,na,na,na
Grace Neal Learning Center,n/a,1730 KINO AVE,KINGMAN,MOHAVE,86409,n,,< 20,na,na,na,na,na,na,na,na,na,na,na,na,na,na,na,na,na,na,na,na,na,na,na,na
Granada East School,n/a,3022 W CAMPBELL AVE,PHOENIX,MARICOPA,85017,y,lpn,227,100,0,100,97,1.3,100,97,1.3,100,100,0,100,100,0,100,100,0,100,100,0,100,1.3,0,0
Grand Canyon College Preparatory School,n/a,5301 S MCCLINTOCK DR,TEMPE,MARICOPA,85283,n,,< 20,na,na,na,na,na,na,na,na,na,na,na,na,na,na,na,na,na,na,na,na,na,na,na,na
Grand Canyon School,n/a,100 BOULDER ST,GRAND CANYON,COCONINO,86023,n,,24,100,0,100,92,0,92,92,0,92,96,0,96,100,0,100,100,0,100,100,0,100,0,0,0
Grande Innovation Academy,n/a,950 N PEART RD,CASA GRANDE,PINAL,85122,n,,44,93,6.8,100,93,6.8,100,93,6.8,100,93,6.8,100,93,6.8,100,93,6.8,100,93,6.8,100,6.8,0,0
Granite Mountain School,n/a,1800 N WILLIAMSON VALLEY RD,PRESCOTT,YAVAPAI,86305,y,rn,272,95,4.8,100,90,9.6,100,90,9.6,100,95,5.1,100,95,5.1,100,95,5.5,100,96,3.7,100,11.4,0,3.7
Granville Elementary,n/a,5250 N STOVER DR,PRESCOTT VALLEY,YAVAPAI,86314,y,rn,84,100,0,100,88,0,88,85,0,85,99,0,99,99,0,99,99,0,99,100,0,100,0,0,0
Grayhawk Elementary,n/a,7525 E GRAYHAWK DR,SCOTTSDALE,MARICOPA,85255,y,rn,80,98,2.5,100,81,5,88,80,5,86,96,3.8,100,96,3.8,100,99,1.3,100,98,2.5,100,3.8,0,0
Great Hearts Academies-lincoln Prep,n/a,2250 S GILBERT RD,CHANDLER,MARICOPA,85286,n,,104,96,3.8,100,91,5.8,99,85,5.8,92,92,3.8,96,95,3.8,99,95,3.8,99,96,3.8,100,3.8,1.9,3.8
Green Fields School,n/a,6000 N CAMINO DE LA TIERRA,TUCSON,PIMA,85741,n,,< 20,na,na,na,na,na,na,na,na,na,na,na,na,na,na,na,na,na,na,na,na,na,na,na,na
Greenbrier Elementary School,n/a,6150 W GREENBRIAR DR,GLENDALE,MARICOPA,85308,n,,44,100,0,100,86,13.6,100,86,13.6,100,100,0,100,100,0,100,100,0,100,84,15.9,100,15.9,0,13.6
Greenfield Elementary School,n/a,2550 E ELLIOT RD,GILBERT,MARICOPA,85234,y,rn,124,97,3.2,100,84,4.8,96,90,5.6,96,94,5.6,100,95,4,99,97,3.2,100,96,4,100,8.9,0,3.2
Gridley Middle School,n/a,350 S HARRISON RD,TUCSON,PIMA,85748,y,rn,263,99,.8,100,98,.8,99,98,.8,99,99,.8,100,99,1.1,100,100,.4,100,100,0,100,1.1,0,0
Griffith Elementary,n/a,4505 E PALM LN,PHOENIX,MARICOPA,85008,n,,72,99,0,99,88,0,93,86,0,92,99,0,99,100,0,100,100,0,100,100,0,100,0,0,0
H. L Suverkrup,n/a,1590 S AVENUE C,YUMA,YUMA,85364,n,,63,91,1.6,92,95,1.6,98,91,1.6,94,95,1.6,97,95,1.6,97,97,1.6,98,98,0,98,1.6,0,1.6
Hale Elementary School,n/a,1425 N 23RD ST,MESA,MARICOPA,85213,y,rn,95,94,6.3,100,87,6.3,95,87,6.3,95,95,5.3,100,95,5.3,100,96,4.2,100,100,0,100,6.3,0,5.3
Haley Elementary,n/a,3401 S LAYTON LAKES BLVD,CHANDLER,MARICOPA,85286,n,,119,98,1.7,100,90,9.2,100,89,10.1,100,98,2.5,100,98,2.5,100,98,1.7,100,98,1.7,100,10.9,0,.8
Happy Valley School - East Campus,n/a,266 E WESTBROOKE RD,SAN TAN VALLEY,PINAL,85140,n,,47,94,6.4,100,96,4.3,100,92,8.5,100,92,8.5,100,94,6.4,100,94,6.4,100,96,4.3,100,8.5,2.1,4.3
Harold W Smith School,n/a,6534 N 63RD AVE,GLENDALE,MARICOPA,85301,y,lpn,95,97,1.1,98,98,0,100,98,0,98,97,0,97,98,0,98,97,0,97,99,0,99,1.1,0,0
Harris Elementary School,n/a,1820 S HARRIS DR,MESA,MARICOPA,85204,y,rn,58,97,3.4,100,97,0,100,93,3.4,100,97,3.4,100,98,1.7,100,98,1.7,100,97,3.4,100,3.4,0,1.7
Hartford Sylvia Encinas Elementary School,n/a,700 N HARTFORD ST,CHANDLER,MARICOPA,85225,n,,89,99,1.1,100,99,1.1,100,99,1.1,100,100,0,100,99,1.1,100,98,2.2,100,99,1.1,100,3.4,0,0
Harvest Preparatory Academy,n/a,350 E 18TH ST,YUMA,YUMA,85364,y,,80,99,1.3,100,98,1.3,100,98,1.3,100,99,1.3,100,99,1.3,100,99,1.3,100,99,1.3,100,1.3,0,1.3
Harvest Preparatory Academy,n/a,14900 W VAN BUREN ST,GOODYEAR,MARICOPA,85338,y,,< 20,na,na,na,na,na,na,na,na,na,na,na,na,na,na,na,na,na,na,na,na,na,na,na,na
Harvest Preparatory Academy - San Luis,n/a,1044 N 10TH AVE,SAN LUIS,YUMA,85349,y,,65,99,1.5,100,95,1.5,100,95,1.5,100,99,1.5,100,99,1.5,100,99,1.5,100,99,1.5,100,1.5,0,1.5
Havasu Preparatory Academy,n/a,3155 MARICOPA AVE,LAKE HAVASU CITY,MOHAVE,86406,n,,24,92,8.3,100,83,16.7,100,83,16.7,100,83,16.7,100,83,16.7,100,92,8.3,100,100,0,100,16.7,0,0
Havasupai Elementary School,n/a,880 CASHMERE DR,LAKE HAVASU CITY,MOHAVE,86404,y,rn,57,98,1.8,100,98,1.8,100,98,1.8,100,100,0,100,100,0,100,100,0,100,100,0,100,3.5,0,0
Haven Montessori Charter School,n/a,621 W CLAY AVE,FLAGSTAFF,COCONINO,86001,n,,< 20,na,na,na,na,na,na,na,na,na,na,na,na,na,na,na,na,na,na,na,na,na,na,na,na
Hawthorne Elementary School,n/a,630 N HUNT DR,MESA,MARICOPA,85203,y,rn,77,97,0,97,91,1.3,100,90,1.3,99,100,0,100,99,0,99,99,0,99,100,0,100,2.6,0,0
Hearn Academy A-ball Charter School,n/a,17606 N 7TH AVE,PHOENIX,MARICOPA,85023,y,rn,71,97,2.8,100,97,2.8,100,97,2.8,100,97,2.8,100,99,1.4,100,99,1.4,100,99,1.4,100,4.2,0,1.4
Heartland Ranch Elementary School,n/a,1600 W CAROLINE ST,COOLIDGE,PINAL,85128,y,rn,84,99,1.2,100,99,1.2,100,99,1.2,100,99,1.2,100,99,1.2,100,99,1.2,100,99,1.2,100,1.2,0,1.2
Heritage Elementary,n/a,5312 W MOUNTAIN VIEW RD,GLENDALE,MARICOPA,85302,y,lpn,57,93,1.8,95,79,3.5,83,79,3.5,83,98,1.8,100,98,1.8,100,98,1.8,100,97,1.8,98,3.5,0,1.8
Heritage Elementary,n/a,790 E RODEO RD,WILLIAMS,COCONINO,86046,n,,< 20,na,na,na,na,na,na,na,na,na,na,na,na,na,na,na,na,na,na,na,na,na,na,na,na
Heritage Elementary School - East Campus,n/a,6805 N 125TH AVE,GLENDALE,MARICOPA,85307,n,,107,97,.9,98,86,.9,90,87,.9,91,97,.9,98,96,.9,97,97,.9,98,99,0,99,.9,0,.9
Heritage Middle School,n/a,1076 N ROAD 1 W,CHINO VALLEY,YAVAPAI,86323,y,rn,188,96,4.3,100,79,20.7,100,78,21.8,100,95,4.8,100,94,5.9,100,97,3.2,100,93,6.9,100,26.1,0,4.3
Hermosa Montessori,n/a,12051 E FORT LOWELL RD,TUCSON,PIMA,85749,n,,22,91,9.1,100,77,22.7,100,77,22.7,100,86,13.6,100,86,13.6,100,86,13.6,100,86,13.6,100,22.7,0,13.6
Hermosa Vista Elementary School,n/a,2626 N 24TH ST,MESA,MARICOPA,85213,y,rn,113,97,3.5,100,93,7.1,100,91,8.8,100,96,4.4,100,97,2.7,100,97,2.7,100,98,1.8,100,10.6,0,1.8
Hi-star Center For Children,n/a,5807 N 43RD AVE,PHOENIX,MARICOPA,85019,n,,< 20,na,na,na,na,na,na,na,na,na,na,na,na,na,na,na,na,na,na,na,na,na,na,na,na
Hidden Hills Elementary School,n/a,1919 E SHARON DR,PHOENIX,MARICOPA,85022,y,rn,81,91,8.6,100,94,6.2,100,94,6.2,100,94,6.2,100,93,6.2,99,94,6.2,100,94,6.2,100,7.4,0,6.2
High Desert Middle School,n/a,4000 HIGH DESERT DRIVE,GLOBE,GILA,85501,n,,113,96,2.7,98,96,2.7,98,96,2.7,98,97,2.7,100,97,2.7,100,97,2.7,100,100,0,100,0,2.7,0
Highland Elementary School,n/a,3042 E ADOBE ST,MESA,MARICOPA,85213,y,rn,101,92,7.9,100,94,5,100,93,6.9,100,92,7.9,100,95,5,100,91,8.9,100,96,4,100,11.9,2,4
Highland Lakes,n/a,19000 N 63RD AVE,GLENDALE,MARICOPA,85308,y,rn,95,97,3.2,100,95,4.2,100,95,4.2,100,97,3.2,100,96,4.2,100,98,2.1,100,98,2.1,100,5.3,0,0
Higley Elementary School,n/a,3391 E VEST AVE,HIGLEY,MARICOPA,85236,n,,100,96,4,100,96,4,100,96,4,100,96,4,100,96,4,100,96,4,100,97,3,100,6,0,3
Hillside Elementary School District#35,n/a,8615 S. DATE CREEK RD.,BAGDAD,YAVAPAI,86321,n,rn,< 20,na,na,na,na,na,na,na,na,na,na,na,na,na,na,na,na,na,na,na,na,na,na,na,na
Holbrook Junior High School,n/a,412 W BUFFALO ST,HOLBROOK,NAVAJO,86025,y,rn,95,95,5.3,100,94,5.3,99,94,5.3,99,95,5.3,100,95,5.3,100,95,5.3,100,95,5.3,100,5.3,0,5.3
Hollinger Elementary School,n/a,150 W AJO WAY,TUCSON,PIMA,85713,y,rn,67,100,0,100,100,0,100,100,0,100,100,0,100,100,0,100,100,0,100,100,0,100,0,0,0
Holmes Elementary School,n/a,948 S HORNE,MESA,MARICOPA,85204,y,rn,86,97,0,97,97,0,99,98,0,98,99,0,99,99,0,99,99,0,99,99,0,99,0,0,0
Holsteiner Agricultural School,n/a,44400 W HONEYCUTT RD STE 105,MARICOPA,PINAL,85138,n,,< 20,na,na,na,na,na,na,na,na,na,na,na,na,na,na,na,na,na,na,na,na,na,na,na,na
Homer Davis Elementary School,n/a,4250 N ROMERO RD,TUCSON,PIMA,85705,n,,80,99,1.3,100,98,1.3,99,98,2.5,100,99,1.3,100,99,1.3,100,99,1.3,100,98,2.5,100,2.5,0,2.5
Hope Christian Academy,n/a,1125 N DOBSON RD,CHANDLER,MARICOPA,85224,n,,< 20,na,na,na,na,na,na,na,na,na,na,na,na,na,na,na,na,na,na,na,na,na,na,na,na
Horizon Honors Elementary School,n/a,16233 S 48TH ST,PHOENIX,MARICOPA,85048,n,,133,96,3.8,99,93,7.5,100,93,7.5,100,95,5.3,100,95,5.3,100,95,5.3,100,96,4.5,100,9.8,0,2.3
Horizon School,n/a,8520 N 47TH AVE,GLENDALE,MARICOPA,85302,y,rn,99,99,0,99,89,10.1,99,89,10.1,99,100,0,100,100,0,100,100,0,100,100,0,100,10.1,0,0
Horseshoe Trail Elementary School,n/a,5405 E PINNACLE PEAK RD,PHOENIX,MARICOPA,85054,n,,117,91,9.4,100,91,.9,92,80,7.7,89,92,8.5,100,92,8.5,100,92,7.7,100,93,6.8,100,9.4,1.7,7.7
Houston Elementary School,n/a,500 E HOUSTON AVE,GILBERT,MARICOPA,85234,y,rn,68,99,1.5,100,97,1.5,100,97,1.5,99,99,1.5,100,99,1.5,100,100,0,100,99,1.5,100,2.9,1.5,0
Huachuca Mountain Elementary School,n/a,3228 SAINT ANDREWS DR,SIERRA VISTA,COCHISE,85650,y,rn,87,100,0,100,97,0,99,95,0,98,100,0,100,100,0,100,100,0,100,100,0,100,0,0,0
Humboldt Elementary,n/a,2750 S CORRAL ST,HUMBOLDT,YAVAPAI,86329,y,,56,95,5.4,100,93,7.1,100,93,7.1,100,96,3.6,100,95,5.4,100,98,1.8,100,98,1.8,100,8.9,0,0
Hurley Ranch Elementary School,n/a,8950 W ILLINI RD,TOLLESON,MARICOPA,85353,n,,128,99,.8,100,98,.8,100,98,1.6,100,99,.8,100,99,.8,100,99,.8,100,100,0,100,1.6,0,0
Ignacio Conchos Elementary School,n/a,1718 W VINEYARD RD,PHOENIX,MARICOPA,85041,y,lpn,50,100,0,100,100,0,100,100,0,100,100,0,100,100,0,100,100,0,100,100,0,100,0,0,0
Imagine Bell Canyon,n/a,18052 N BLACK CANYON HWY,PHOENIX,MARICOPA,85053,n,,37,95,5.4,100,81,13.5,97,84,13.5,100,95,5.4,100,95,5.4,100,95,5.4,100,95,0,95,13.5,0,13.5
Imagine Camelback Elementary,n/a,5050 N 19TH AVE,PHOENIX,MARICOPA,85015,n,,58,100,0,100,97,0,97,97,0,97,100,0,100,100,0,100,100,0,100,100,0,100,0,0,0
Imagine Elementary At Desert West,n/a,6738 W MCDOWELL RD,PHOENIX,MARICOPA,85035,n,,141,100,0,100,97,0,98,93,2.8,97,100,0,100,100,0,100,100,0,100,100,0,100,2.1,0,2.1
Imagine Elementary At Tempe,n/a,1538 E SOUTHERN AVE,TEMPE,MARICOPA,85282,n,,22,91,4.5,96,73,9.1,100,73,9.1,100,96,4.5,100,96,4.5,100,96,4.5,100,96,0,96,9.1,0,9.1
Imagine Middle At Avondale,n/a,950 N ELISIO C FELIX JR WAY,AVONDALE,MARICOPA,85323,n,,86,100,0,100,91,4.7,100,91,4.7,100,95,4.7,100,95,4.7,100,95,4.7,100,95,4.7,100,4.7,0,4.7
Imagine Middle At Superstition,n/a,1843 W 16TH AVE,APACHE JUNCTION,PINAL,85120,n,,35,100,0,100,51,0,60,34,0,51,100,0,100,100,0,100,100,0,100,100,0,100,0,0,0
Imagine Middle School At Surprise,n/a,14850 N 156TH AVE,SURPRISE,MARICOPA,85379,n,,119,88,6.7,95,88,6.7,97,88,6.7,97,93,6.7,100,93,6.7,100,92,6.7,99,92,6.7,99,6.7,0,6.7
Imagine Schools West Gilbert,n/a,2061 S GILBERT RD,GILBERT,MARICOPA,85295,n,,30,100,0,100,100,0,100,53,0,53,97,0,97,90,0,90,97,0,97,100,0,100,0,0,0
Imago Dei Middle School,n/a,55 N 6TH AVE,TUCSON,PIMA,85701,n,,< 20,na,na,na,na,na,na,na,na,na,na,na,na,na,na,na,na,na,na,na,na,na,na,na,na
Immaculate Conception School,n/a,501 S AVENUE B,YUMA,YUMA,85364,n,,< 20,na,na,na,na,na,na,na,na,na,na,na,na,na,na,na,na,na,na,na,na,na,na,na,na
Immaculate Heart School,n/a,410 E MAGEE RD,TUCSON,PIMA,85704,n,,25,100,0,100,100,0,100,96,4,100,100,0,100,100,0,100,96,4,100,100,0,100,4,4,0
Immanuel Mission School,n/a,2000 S 351 RD,GREEN VALLEY,PIMA,85614,n,,< 20,na,na,na,na,na,na,na,na,na,na,na,na,na,na,na,na,na,na,na,na,na,na,na,na
Inca Elementary School,n/a,23601 W DURANGO ST,BUCKEYE,MARICOPA,85326,n,,90,98,1.1,99,98,1.1,100,90,7.8,99,98,0,98,98,0,98,97,3.3,100,100,0,100,8.9,1.1,0
Incito Schools,n/a,877 N SARIVAL AVE,GOODYEAR,MARICOPA,85338,n,,30,93,6.7,100,60,6.7,67,60,6.7,67,90,6.7,97,90,6.7,97,97,3.3,100,97,3.3,100,6.7,0,3.3
Indian Bend Elementary School,n/a,3633 E THUNDERBIRD RD,PHOENIX,MARICOPA,85032,y,rn,87,98,2.3,100,98,2.3,100,97,2.3,100,98,2.3,100,98,2.3,100,97,2.3,99,98,2.3,100,2.3,0,2.3
Indian Oasis Primary School,n/a,111 W MAIN ST,SELLS,PIMA,85634,n,,89,100,0,100,100,0,100,100,0,100,100,0,100,100,0,100,100,0,100,100,0,100,0,0,0
Indian Wells Elementary,n/a,INDIAN RT 15 AND INDIAN RT 17,INDIAN WELLS,NAVAJO,86025,y,rn,48,100,0,100,94,0,100,94,0,100,100,0,100,100,0,100,100,0,100,100,0,100,0,0,0
Ingleside Middle School,n/a,5402 E OSBORN RD,PHOENIX,MARICOPA,85018,y,rn,279,98,0,98,80,1.4,81,79,1.4,81,98,1.4,99,97,1.4,98,98,1.4,99,100,0,100,3.2,.7,0
Integrity Education Centre,n/a,515 E CONTINENTAL DR,TEMPE,MARICOPA,85281,n,,< 20,na,na,na,na,na,na,na,na,na,na,na,na,na,na,na,na,na,na,na,na,na,na,na,na
International School Of Arizona,n/a,9522 E SAN SALVADOR DR,SCOTTSDALE,MARICOPA,85258,n,,< 20,na,na,na,na,na,na,na,na,na,na,na,na,na,na,na,na,na,na,na,na,na,na,na,na
International School Of Tucson,n/a,1701 E SENECA ST,TUCSON,PIMA,85719,n,,< 20,na,na,na,na,na,na,na,na,na,na,na,na,na,na,na,na,na,na,na,na,na,na,na,na
Ira A Fulton Elementary,n/a,4750 S SUNLAND DR,CHANDLER,MARICOPA,85248,n,,140,97,2.9,100,90,9.3,100,90,9.3,100,95,5,100,96,4.3,100,100,0,100,98,2.1,100,12.1,.7,2.9
Ira A Murphy School,n/a,7231 W NORTH LN,PEORIA,MARICOPA,85345,y,rn,50,100,0,100,100,0,100,100,0,100,100,0,100,100,0,100,100,0,100,100,0,100,0,0,0
Irene Lopez School,n/a,4610 S 12TH ST,PHOENIX,MARICOPA,85040,y,rn,57,100,0,100,100,0,100,100,0,100,100,0,100,100,0,100,100,0,100,100,0,100,0,0,0
Ironwood Elementary School,n/a,3300 W FREER DR,TUCSON,PIMA,85742,n,,99,95,5.1,100,98,0,98,93,5.1,98,95,5.1,100,95,5.1,100,95,5.1,100,95,0,95,5.1,0,5.1
Ironwood Elementary School,n/a,14850 N 39TH AVE,PHOENIX,MARICOPA,85053,n,,77,97,2.6,100,99,1.3,100,95,5.2,100,96,3.9,100,97,2.6,100,97,2.6,100,99,1.3,100,5.2,0,1.3
Irving Elementary School,n/a,3220 E PUEBLO AVE,MESA,MARICOPA,85204,y,rn,85,97,3.5,100,91,7.1,98,91,7.1,98,95,3.5,99,95,4.7,100,97,3.5,100,100,0,100,9.4,0,4.7
Isaac E Imes School,n/a,6625 N 56TH AVE,GLENDALE,MARICOPA,85301,y,rn,64,97,0,97,100,0,100,100,0,100,97,0,97,98,0,98,98,0,98,100,0,100,0,0,0
Isaac Middle School,n/a,3402 W MCDOWELL RD,PHOENIX,MARICOPA,85009,n,,300,99,0,99,95,.3,98,94,.3,97,100,0,100,100,0,100,100,0,100,99,0,99,.3,0,0
Ishikawa Elementary School,n/a,2635 N 32ND ST,MESA,MARICOPA,85213,y,rn,134,97,3,100,96,4.5,100,95,5.2,100,97,3,100,97,3,100,97,3,100,99,1.5,100,6,0,.7
Islands Elementary School,n/a,245 S MCQUEEN RD,GILBERT,MARICOPA,85233,y,rn,71,96,4.2,100,90,7,100,90,7,100,96,4.2,100,96,4.2,100,96,4.2,100,97,2.8,100,8.5,0,2.8
J Robert Hendricks Elementary,n/a,3400 W ORANGE GROVE RD,TUCSON,PIMA,85741,y,rn,59,100,0,100,97,3.4,100,93,6.8,100,100,0,100,100,0,100,100,0,100,100,0,100,3.4,3.4,0
Jack Harmon Elementary,n/a,39315 N CORTONA DR,QUEEN CREEK,PINAL,85240,n,,113,95,5.3,100,85,8,97,85,8,97,95,5.3,100,95,5.3,100,94,6.2,100,98,1.8,100,8,0,2.7
Jack L Kuban Elementary School,n/a,3201 W SHERMAN ST,PHOENIX,MARICOPA,85009,y,rn,47,100,0,100,100,0,100,100,0,100,100,0,100,100,0,100,100,0,100,100,0,100,0,0,0
Jack Thoman Air And Space Academy Perform,n/a,730 W CALLE ARROYO SUR,GREEN VALLEY,PIMA,85614,n,,< 20,na,na,na,na,na,na,na,na,na,na,na,na,na,na,na,na,na,na,na,na,na,na,na,na
Jamaica Elementary,n/a,3437 JAMAICA BLVD S,LAKE HAVASU CITY,MOHAVE,86406,y,rn,80,99,1.3,100,91,6.3,100,91,6.3,100,99,1.3,100,99,1.3,100,99,1.3,100,99,1.3,100,6.3,0,1.3
James Kendall Zaharis Elementary,n/a,9410 E MCKELLIPS RD,MESA,MARICOPA,85207,y,rn,124,98,1.6,99,95,3.2,99,94,4.8,99,98,1.6,100,98,1.6,100,98,2.4,100,98,2.4,100,7.3,0,.8
Jane D. Hull Elementary,n/a,2424 E MAREN DR,CHANDLER,MARICOPA,85249,n,,114,97,2.6,100,91,7,100,91,7.9,100,96,4.4,100,96,4.4,100,96,4.4,100,97,3.5,100,7.9,0,1.8
Jefferson Elementary School,n/a,120 S JEFFERSON AVE,MESA,MARICOPA,85208,y,rn,74,100,0,100,99,1.4,100,99,1.4,100,99,1.4,100,99,1.4,100,100,0,100,100,0,100,4.1,1.4,0
Joanne Todd Christian School,n/a,321 W MALEY ST,WILLCOX,COCHISE,85643,n,,< 20,na,na,na,na,na,na,na,na,na,na,na,na,na,na,na,na,na,na,na,na,na,na,na,na
John And Carol Carlson Elementary,n/a,5400 S WHITE DR,CHANDLER,MARICOPA,85249,n,,91,95,5.5,100,91,5.5,100,92,6.6,100,93,6.6,100,93,6.6,100,92,7.7,100,96,4.4,100,12.1,1.1,3.3
John F Kennedy School,n/a,1500 W PANTHER DR,SUPERIOR,PINAL,85173,n,,35,100,0,100,94,0,94,91,0,94,100,0,100,100,0,100,100,0,100,100,0,100,0,0,0
John F. Kennedy School,n/a,110 EAST DISH CHIN ROAD,WHITERIVER,NAVAJO,85941,n,,23,100,0,100,48,0,48,26,0,26,100,0,100,100,0,100,100,0,100,91,0,91,0,0,0
John Jacobs Elementary School,n/a,14421 N 23RD AVE,PHOENIX,MARICOPA,85023,n,,64,97,0,97,95,4.7,100,95,4.7,100,100,0,100,100,0,100,98,1.6,100,100,0,100,4.7,1.6,0
John M Andersen Jr High School,n/a,1255 N DOBSON RD,CHANDLER,MARICOPA,85224,n,,123,97,3.3,100,89,4.1,100,94,4.1,100,97,3.3,100,97,3.3,100,100,0,100,98,2.4,100,6.5,.8,.8
John R Davis School,n/a,6209 S 15TH AVE,PHOENIX,MARICOPA,85041,y,rn,42,98,2.4,100,95,2.4,100,95,2.4,98,98,2.4,100,98,2.4,100,98,2.4,100,98,2.4,100,2.4,0,0
Johnson Elementary School,n/a,3807 E PUEBLO AVE,MESA,MARICOPA,85206,y,rn,62,100,0,100,94,6.5,100,95,3.2,100,97,3.2,100,97,3.2,100,98,1.6,100,100,0,100,6.5,0,6.5
Joseph City Elementary School,n/a,8176 N WESTOVER AVE,JOSEPH CITY,NAVAJO,86032,n,,30,90,10,100,70,26.7,97,70,26.7,97,90,10,100,90,10,100,90,10,100,90,10,100,30,0,10
Joy Christian School,n/a,21000 N 75TH AVE,GLENDALE,MARICOPA,85308,y,rn,< 20,na,na,na,na,na,na,na,na,na,na,na,na,na,na,na,na,na,na,na,na,na,na,na,na
Kachina Elementary School,n/a,5304 W CROCUS DR,GLENDALE,MARICOPA,85306,y,rn,45,98,2.2,100,96,4.4,100,98,2.2,100,98,2.2,100,98,2.2,100,98,2.2,100,98,2.2,100,4.4,0,2.2
Kathryn Sue Simonton Elementary,n/a,40300 N SIMONTON BLVD,SAN TAN VALLEY,PINAL,85140,n,,94,97,3.2,100,88,6.4,97,89,6.4,98,98,2.1,100,97,3.2,100,97,3.2,100,97,3.2,100,6.4,0,2.1
Kayenta Middle School,n/a,N HWY 163,KAYENTA,NAVAJO,86033,n,,119,100,0,100,78,0,81,77,0,79,98,0,98,100,0,100,98,0,98,99,0,99,0,0,0
Keller Elementary,n/a,1445 E HILTON AVE,MESA,MARICOPA,85204,y,,71,97,0,97,99,0,99,97,0,97,100,0,100,100,0,100,100,0,100,100,0,100,2.8,0,0
Kenilworth Elementary,n/a,1210 N 5TH AVE,PHOENIX,MARICOPA,85003,y,rn,60,97,0,97,92,0,98,93,0,100,98,0,98,100,0,100,100,0,100,100,0,100,0,0,0
Kerr Elementary School,n/a,125 E MCLELLAN RD,MESA,MARICOPA,85201,y,rn,99,99,1,100,90,0,90,91,0,91,100,0,100,100,0,100,100,0,100,100,0,100,1,1,0
Keystone Montessori Charter Inc.,n/a,1025 E LIBERTY LN,PHOENIX,MARICOPA,85048,n,,31,97,3.2,100,81,6.5,97,77,6.5,97,90,6.5,97,94,3.2,97,97,3.2,100,94,6.5,100,9.7,0,3.2
Khalsa Montessori Elementary School - Phoenix,n/a,2536 N 3RD ST,PHOENIX,MARICOPA,85004,n,,< 20,na,na,na,na,na,na,na,na,na,na,na,na,na,na,na,na,na,na,na,na,na,na,na,na
Khalsa School - River Road,n/a,3701 E RIVER RD,TUCSON,PIMA,85718,n,,31,84,12.9,97,65,16.1,81,81,9.7,90,81,16.1,97,84,12.9,97,77,16.1,94,81,16.1,97,16.1,0,12.9
Kin Dah Lichi'i Olta,n/a,2 MILES N OF MP 452 ON HWY 2,KIN-LI-CHEE,APACHE,86505,y,,< 20,na,na,na,na,na,na,na,na,na,na,na,na,na,na,na,na,na,na,na,na,na,na,na,na
Kingman Academy Of Learning - Middle,n/a,3269 HARRISON ST,KINGMAN,MOHAVE,86409,n,,109,97,2.8,100,84,3.7,89,77,3.7,83,97,2.8,100,96,3.7,100,97,2.8,100,100,0,100,3.7,0,1.8
Kingman Middle School,n/a,1969 DETROIT AVE,KINGMAN,MOHAVE,86401,y,lpn,222,94,6.3,100,76,8.1,86,77,8.1,86,92,8.1,100,93,6.8,100,92,8.1,100,99,0,99,6.8,1.4,6.8
Kings Ridge Preparatory Academy,n/a,3650 S 64TH LN,PHOENIX,MARICOPA,85043,y,lpn,98,100,0,100,98,0,98,100,0,100,99,0,99,99,0,99,100,0,100,100,0,100,1,0,1
Kingswood,n/a,15150 W MONDELL RD,SURPRISE,MARICOPA,85374,y,rn,66,100,0,100,94,1.5,96,91,1.5,92,97,1.5,99,96,1.5,97,100,0,100,100,0,100,1.5,0,0
Kino School,n/a,6625 N 1ST AVE,TUCSON,PIMA,85718,n,,< 20,na,na,na,na,na,na,na,na,na,na,na,na,na,na,na,na,na,na,na,na,na,na,na,na
Kirkland Elementary School District,n/a,14200 W KIRKLAND HILLSIDE RD,KIRKLAND,YAVAPAI,86332,n,rn,< 20,na,na,na,na,na,na,na,na,na,na,na,na,na,na,na,na,na,na,na,na,na,na,na,na
Kiser Elementary School,n/a,38739 W I 8,GILA BEND,MARICOPA,85337,n,,< 20,na,na,na,na,na,na,na,na,na,na,na,na,na,na,na,na,na,na,na,na,na,na,na,na
Knox Elementary School,n/a,700 W ORCHID LN,CHANDLER,MARICOPA,85225,n,,100,95,5,100,89,4,100,89,5,100,95,5,100,96,4,100,96,4,100,97,3,100,5,2,0
Kyrene Akimel A-al Middle School,n/a,2720 E LIBERTY LN,PHOENIX,MARICOPA,85048,y,rn,330,98,2.4,100,87,4.5,95,85,3.3,92,97,2.7,100,97,3,100,98,2.4,100,100,0,100,4.2,.3,0
Kyrene Aprende Middle School,n/a,777 N DESERT BREEZE BLVD E,CHANDLER,MARICOPA,85226,y,rn,393,97,3.3,100,90,7.1,100,90,7.1,100,98,1.8,100,98,2,100,99,1.5,100,98,1.8,100,7.1,0,.5
Kyrene Centennial Middle School,n/a,13808 S 36TH ST,PHOENIX,MARICOPA,85044,y,rn,320,97,2.8,100,97,2.8,100,96,3.8,100,98,1.9,100,98,2.2,100,98,1.9,100,97,2.8,100,5.3,0,.9
Kyrene Middle School,n/a,1050 E CARVER RD,TEMPE,MARICOPA,85284,y,rn,302,97,1.7,99,96,1.7,99,96,1.7,99,98,1.7,100,97,2.6,100,98,1.7,99,98,1.7,100,2.6,0,1.7
L. Thomas Heck Middle School,n/a,12448 W BETHANY HOME RD,LITCHFIELD PARK,MARICOPA,85340,y,rn,268,98,.7,99,85,3,88,84,3,88,97,.7,98,96,1.5,98,96,1.9,98,93,1.5,94,3.7,0,0
La Cima Middle School,n/a,5600 N LA CANADA DR,TUCSON,PIMA,85704,y,rn,157,100,0,100,99,.6,99,96,.6,98,100,0,100,100,0,100,100,0,100,100,0,100,.6,0,.6
La Paloma Academy,n/a,8140 E DESERT COVE CIR.,TUCSON,PIMA,85730,n,,89,100,0,100,94,0,100,94,0,100,100,0,100,100,0,100,100,0,100,100,0,100,0,0,0
La Paloma Academy - Central Campus,n/a,2050 N WILMOT RD,TUCSON,PIMA,85712,n,,89,100,0,100,96,3.4,99,96,3.4,99,100,0,100,100,0,100,100,0,100,100,0,100,3.4,0,0
La Paloma Academy South,n/a,5660 S 12TH AVE,TUCSON,PIMA,85706,n,,46,98,0,98,100,0,100,100,0,100,100,0,100,100,0,100,100,0,100,100,0,100,0,0,0
La Tierra Community School,n/a,124 N VIRGINIA ST,PRESCOTT,YAVAPAI,86301,n,,< 20,na,na,na,na,na,na,na,na,na,na,na,na,na,na,na,na,na,na,na,na,na,na,na,na
Lafe Nelson School,n/a,1100 S 10TH AVE,SAFFORD,GRAHAM,85546,y,rn,73,99,1.4,100,97,1.4,99,97,1.4,99,99,1.4,100,99,1.4,100,99,1.4,100,99,1.4,100,1.4,0,1.4
Laguna,n/a,5001 N SHANNON RD,TUCSON,PIMA,85705,n,,57,100,0,100,97,0,100,97,0,100,100,0,100,0,100,100,100,0,100,98,0,98,1.8,0,0
Laird School,n/a,1500 N SCOVEL ST,TEMPE,MARICOPA,85281,y,rn,67,100,0,100,91,0,100,91,0,100,99,1.5,100,99,1.5,100,100,0,100,100,0,100,1.5,0,1.5
Lake Pleasant Elementary,n/a,31501 N WESTLAND RD,PEORIA,MARICOPA,85383,y,rn,66,100,0,100,91,7.6,100,88,12.1,100,100,0,100,100,0,100,100,0,100,100,0,100,6.1,0,0
Lake Valley Elementary School,n/a,3900 N STARLIGHT DR,PRESCOTT VALLEY,YAVAPAI,86314,y,rn,62,95,4.8,100,68,4.8,73,69,3.2,73,95,4.8,100,95,4.8,100,95,4.8,100,92,4.8,97,4.8,0,4.8
Lakeview Elementary School,n/a,3040 W YUCCA ST,PHOENIX,MARICOPA,85029,n,,92,100,0,100,99,0,100,98,0,100,100,0,100,100,0,100,100,0,100,100,0,100,0,0,0
Larkspur Elementary School,n/a,2430 E LARKSPUR DR,PHOENIX,MARICOPA,85032,y,rn,75,95,1.3,96,97,2.7,100,97,2.7,100,99,1.3,100,99,1.3,100,99,1.3,100,99,1.3,100,2.7,0,1.3
Larry C Kennedy School,n/a,2702 E OSBORN RD,PHOENIX,MARICOPA,85016,y,rn,65,99,1.5,100,94,1.5,100,97,1.5,100,99,0,99,99,0,99,99,0,99,100,0,100,1.5,0,0
Las Brisas Academy,n/a,18211 W LAS BRISAS DR,GOODYEAR,MARICOPA,85338,n,,45,96,4.4,100,82,6.7,100,89,6.7,100,96,4.4,100,96,4.4,100,98,2.2,100,100,0,100,4.4,0,4.4
Las Brisas Elementary School,n/a,5805 W ALAMEDA RD,GLENDALE,MARICOPA,85310,y,rn,137,96,4.4,100,95,4.4,100,95,4.4,100,96,3.6,100,96,3.6,100,96,4.4,100,96,3.6,100,4.4,0,0
Las Puertas Community School,n/a,4560 S COACH DR,TUCSON,PIMA,85714,n,,< 20,na,na,na,na,na,na,na,na,na,na,na,na,na,na,na,na,na,na,na,na,na,na,na,na
Las Sendas Elementary School,n/a,3120 N RED MTN,MESA,MARICOPA,85207,y,rn,112,96,4.5,100,95,5.4,100,90,9.8,100,94,6.3,100,95,5.4,100,95,5.4,100,99,.9,100,9.8,0,0
Laveen Elementary School,n/a,4141 W MCNEIL ST,LAVEEN,MARICOPA,85339,y,rn,92,96,4.3,100,99,0,100,96,3.3,100,96,4.3,100,97,3.3,100,96,4.3,100,100,0,100,6.5,0,0
Lawrence W Cross Middle School,n/a,1000 W CHAPALA DR,TUCSON,PIMA,85704,y,rn,156,92,5.1,97,94,5.1,99,92,5.1,97,96,3.8,99,96,3.8,100,96,4.5,100,96,3.8,100,5.8,.6,0
Le Pera Elementary School,n/a,19121 TAHBO RD.,POSTON,LA PAZ,85371,n,,34,100,0,100,100,0,100,100,0,100,100,0,100,100,0,100,100,0,100,100,0,100,0,0,0
Leading Edge Academy - East Mesa Campus,n/a,10222 E CALYPSO AVE,MESA,MARICOPA,85208,n,,< 20,na,na,na,na,na,na,na,na,na,na,na,na,na,na,na,na,na,na,na,na,na,na,na,na
Leading Edge Academy - Gilbert Elementary Campus,n/a,717 W RAY RD,GILBERT,MARICOPA,85233,n,,30,90,10,100,67,30,100,67,30,100,87,13.3,100,83,16.7,100,87,13.3,100,87,13.3,100,36.7,0,10
Leading Edge Academy - San Tan Campus (queen Creek),n/a,7377 W HUNT HWY,QUEEN CREEK,PINAL,85142,n,,< 20,na,na,na,na,na,na,na,na,na,na,na,na,na,na,na,na,na,na,na,na,na,na,na,na
Leading Edge Academy Maricopa,n/a,18700 N PORTER RD,MARICOPA,PINAL,85138,n,,72,96,0,96,79,2.8,83,71,2.8,75,93,0,93,96,1.4,97,97,0,97,96,0,96,4.2,0,0
Learning Foundation And Performing Arts Alta Mesa,n/a,5761 E BROWN RD,MESA,MARICOPA,85205,n,,21,86,14.3,100,76,19,100,76,19,100,86,14.3,100,86,14.3,100,86,14.3,100,86,14.3,100,14.3,0,0
Learning Foundation And Performing Arts Stapley,n/a,851 N STAPLEY DR BLDG 6,MESA,MARICOPA,85203,n,,25,96,4,100,88,12,100,72,28,100,96,4,100,96,4,100,96,4,100,96,4,100,28,0,0
Learning Foundation And Performing Arts Warner,n/a,3939 E WARNER RD,GILBERT,MARICOPA,85296,n,,90,90,10,100,78,21.1,99,78,21.1,99,90,10,100,89,10,99,86,14.4,100,90,10,100,23.3,0,0
Lee Kornegay Intermediate School,n/a,4635 S RAGUS RD,MIAMI,GILA,85539,n,,100,97,1,98,75,1,77,75,1,76,99,1,100,98,1,99,98,1,99,99,1,100,1,0,0
Legacy Traditional School,n/a,7900 S 43RD AVE,LAVEEN,MARICOPA,85339,y,rn,93,98,1.1,99,94,4.3,100,94,4.3,100,96,4.3,100,97,3.2,100,98,2.2,100,97,3.2,100,9.7,0,9.7
Legacy Traditional School,n/a,3500 W CORTARO FARMS RD,TUCSON,PIMA,85742,n,,134,94,4.5,99,89,8.2,99,84,11.2,97,94,4.5,99,95,3.7,99,92,6,98,96,4.5,100,6,6,2.2
Legacy Traditional School - Avondale,n/a,12320 W VAN BUREN ST,AVONDALE,MARICOPA,85323,n,,154,98,1.9,100,86,9.7,100,86,10.4,100,98,1.9,100,98,1.9,100,98,1.9,100,99,1.3,100,7.1,0,7.1
Legacy Traditional School - Casa Grande,n/a,1274 E O'NEIL DR,CASA GRANDE,PINAL,85138,y,lpn,120,96,4.2,100,92,5,100,92,5,100,96,4.2,100,96,4.2,100,96,4.2,100,96,4.2,100,4.2,.8,4.2
Legacy Traditional School - Maricopa,n/a,17760 REGENT DR,MARICOPA,PINAL,85138,n,,119,98,2.5,100,98,0,100,93,4.2,100,98,2.5,100,98,2.5,100,98,2.5,100,98,2.5,100,4.2,0,0
Legacy Traditional School - Peoria,n/a,7877 W HILLCREST BLVD,PEORIA,MARICOPA,85383,y,lpn,< 20,na,na,na,na,na,na,na,na,na,na,na,na,na,na,na,na,na,na,na,na,na,na,na,na
Legacy Traditional School Gilbert,n/a,2747 S RECKER RD,GILBERT,MARICOPA,85295,n,,125,95,4.8,100,79,14.4,100,78,15.2,100,93,7.2,100,92,8,100,95,4.8,100,95,4.8,100,9.6,.8,8
Legacy Traditional School- Glendale,n/a,13901 N 67TH AVE,GLENDALE,MARICOPA,85306,y,lpn,89,90,10.1,100,90,0,100,85,4.5,100,90,10.1,100,90,10.1,100,90,10.1,100,90,10.1,100,10.1,0,10.1
Legacy Traditional School- North Chandler,n/a,1900 N MCQUEEN RD,CHANDLER,MARICOPA,85225,n,,36,94,5.6,100,86,13.9,100,86,13.9,100,94,5.6,100,94,5.6,100,94,5.6,100,92,8.3,100,16.7,0,0
Legacy Traditional Surprise,n/a,14506 W SWEETWATER AVE,SURPRISE,MARICOPA,85379,n,,159,97,3.1,100,88,11.3,100,87,11.9,100,97,3.1,100,97,3.1,100,97,3.1,100,97,3.1,100,11.3,0,3.1
Legacy Traditional/ Queen Creek,n/a,41800 N BARNES PKWY,SAN TAN VALLEY,PINAL,85140,n,,111,93,7.2,100,81,15.3,100,79,17.1,100,91,9,100,92,8.1,100,93,7.2,100,92,8.1,100,65.8,0,7.2
Legend Springs Elementary,n/a,21150 N ARROWHEAD LOOP RD,GLENDALE,MARICOPA,85308,y,rn,110,98,1.8,100,96,3.6,100,96,3.6,100,98,1.8,100,98,1.8,100,99,.9,100,98,1.8,100,3.6,0,.9
Lehi Elementary School,n/a,2555 N STAPLEY DR,MESA,MARICOPA,85203,y,rn,55,98,0,98,98,0,98,98,0,98,100,0,100,100,0,100,100,0,100,100,0,100,0,0,0
Leman Academy Of Excellence,n/a,1000 E WILCOX DR,SIERRA VISTA,COCHISE,85635,n,,< 20,na,na,na,na,na,na,na,na,na,na,na,na,na,na,na,na,na,na,na,na,na,na,na,na
Leman Academy Of Excellence,n/a,7720 N SILVERBELL RD,TUCSON,PIMA,85743,y,rn,86,91,9.3,100,80,10.5,93,77,14,93,91,9.3,100,90,10.5,100,90,10.5,100,92,8.1,100,11.6,3.5,8.1
Leonor Hambly K-8,n/a,824 THORNE AVE,WINKELMAN,PINAL,85192,n,,24,100,0,100,100,0,100,100,0,100,100,0,100,100,0,100,100,0,100,100,0,100,0,0,0
Liberty Arts Academy,n/a,3015 S POWER RD,MESA,MARICOPA,85212,n,,< 20,na,na,na,na,na,na,na,na,na,na,na,na,na,na,na,na,na,na,na,na,na,na,na,na
Liberty Elementary School,n/a,5495 S LIBERTY AVE,TUCSON,PIMA,85706,y,rn,103,100,0,100,98,0,100,97,0,100,100,0,100,100,0,100,100,0,100,100,0,100,0,0,0
Liberty Elementary School,n/a,5125 E MARILYN RD,SCOTTSDALE,MARICOPA,85254,y,rn,76,97,2.6,100,91,5.3,96,90,5.3,95,97,2.6,100,97,2.6,100,99,1.3,100,99,1.3,100,5.3,1.3,2.6
Liberty Elementary School,n/a,19818 W US HIGHWAY 85,BUCKEYE,MARICOPA,85326,y,lpn,46,100,0,100,100,0,100,98,0,98,100,0,100,100,0,100,98,2.2,100,100,0,100,2.2,0,0
Liberty Traditional Charter School,n/a,4027 N 45TH AVE,PHOENIX,MARICOPA,85031,n,,40,100,0,100,80,0,88,100,0,100,90,0,90,100,0,100,100,0,100,100,0,100,0,0,0
Liberty Traditional Saddleback Charter School In Douglas,n/a,3715 N WASHINGTON AVE,DOUGLAS,COCHISE,85607,n,,24,100,0,100,100,0,100,100,0,100,100,0,100,100,0,100,100,0,100,100,0,100,0,0,0
Liberty Traditional School,n/a,3300 N LAKE VALLEY RD,PRESCOTT VALLEY,YAVAPAI,86314,y,rn,83,95,4.8,100,92,7.2,100,90,8.4,100,95,4.8,100,96,3.6,100,96,3.6,100,98,2.4,100,9.6,1.2,1.2
Lifelong Learning Academy,n/a,3295 W ORANGE GROVE RD,TUCSON,PIMA,85741,n,,< 20,na,na,na,na,na,na,na,na,na,na,na,na,na,na,na,na,na,na,na,na,na,na,na,na
Lincoln Elementary School,n/a,930 S SIRRINE,MESA,MARICOPA,85210,y,rn,103,98,0,98,95,0,99,99,0,100,100,0,100,100,0,100,100,0,100,100,0,100,0,0,0
Lindbergh Elementary School,n/a,930 S LAZONA DR,MESA,MARICOPA,85204,y,rn,79,100,0,100,98,0,99,98,0,99,100,0,100,100,0,100,99,1.3,100,100,0,100,1.3,1.3,0
Little Red School House,n/a,7 DUQUESNE RD,NOGALES,SANTA CRUZ,85621,n,,26,100,0,100,100,0,100,100,0,100,100,0,100,100,0,100,100,0,100,100,0,100,0,0,0
Littleton Elementary School,n/a,1252 S 115TH AVE,CASHION,MARICOPA,85323,y,rn,62,100,0,100,97,0,100,97,0,100,100,0,100,100,0,100,100,0,100,100,0,100,0,0,0
Logos Christian Academy,n/a,9745 N TREKELL RD,CASA GRANDE,PINAL,85122,n,,< 20,na,na,na,na,na,na,na,na,na,na,na,na,na,na,na,na,na,na,na,na,na,na,na,na
Loma Linda Elementary School,n/a,2002 E CLARENDON AVE,PHOENIX,MARICOPA,85016,y,lpn,65,100,0,100,99,0,100,99,0,100,100,0,100,100,0,100,100,0,100,100,0,100,0,0,0
Lone Mountain Elementary School,n/a,5250 E MONTGOMERY RD,CAVE CREEK,MARICOPA,85331,n,,87,95,3.4,99,91,5.7,97,91,5.7,97,95,3.4,99,95,3.4,99,98,2.3,100,98,2.3,100,6.9,1.1,5.7
Longfellow Elementary School,n/a,345 S HALL,MESA,MARICOPA,85204,y,rn,102,100,0,100,99,0,100,99,0,100,100,0,100,100,0,100,99,0,99,100,0,100,0,0,0
Longview Elementary School,n/a,1209 E INDIAN SCHOOL RD,PHOENIX,MARICOPA,85014,y,lpn,60,98,1.7,100,87,3.3,90,87,3.3,90,100,0,100,100,0,100,100,0,100,100,0,100,3.3,0,0
Lookout Mountain School,n/a,15 W CORAL GABLES DR,PHOENIX,MARICOPA,85023,n,,128,97,3.1,100,98,0,98,97,3.1,100,99,.8,100,98,1.6,100,98,1.6,100,99,.8,100,5.5,0,5.5
Loretto Catholic School,n/a,1200 E 14TH ST,DOUGLAS,COCHISE,85607,n,,24,100,0,100,100,0,100,100,0,100,100,0,100,100,0,100,100,0,100,100,0,100,0,0,0
Los Amigos Elementary School,n/a,2200 E DREXEL RD,TUCSON,PIMA,85706,y,rn,90,100,0,100,98,0,98,97,0,97,100,0,100,100,0,100,100,0,100,100,0,100,0,0,0
Los Ninos Elementary School,n/a,5445 S ALVERNON WAY,TUCSON,PIMA,85706,y,rn,97,100,0,100,99,0,99,99,0,99,100,0,100,100,0,100,100,0,100,100,0,100,0,0,0
Lourdes Catholic,n/a,555 E PATAGONIA HWY,NOGALES,SANTA CRUZ,85621,y,lpn,33,100,0,100,100,0,100,100,0,100,100,0,100,100,0,100,100,0,100,100,0,100,0,0,0
Lowell Elementary School,n/a,920 E BROADWAY RD,MESA,MARICOPA,85204,y,rn,99,96,0,96,98,0,100,98,0,100,100,0,100,100,0,100,100,0,100,100,0,100,0,2,0
Lowell School,n/a,1121 S 3RD AVE,PHOENIX,MARICOPA,85003,n,,58,100,0,100,98,0,98,98,0,98,98,0,98,100,0,100,100,0,100,100,0,100,0,1.7,0
Luke Elementary School,n/a,7300 N DYSART RD,GLENDALE,MARICOPA,85307,y,lpn,99,99,1,100,97,2,99,97,2,99,99,0,99,99,1,100,99,1,100,100,0,100,2,1,1
Macarthur Elementary School,n/a,1435 E MCLELLAN RD,MESA,MARICOPA,85203,y,rn,65,94,6.2,100,91,7.7,99,91,7.7,99,92,7.7,100,92,7.7,100,94,6.2,100,99,1.5,100,9.2,0,7.7
Madison #1 Elementary School,n/a,5525 N 16TH ST,PHOENIX,MARICOPA,85016,y,rn,223,98,1.8,100,94,4,100,93,4.9,98,99,.9,100,99,1.3,100,99,.9,100,98,1.8,100,6.3,2.2,.9
Madison Elementary School,n/a,849 S SUNNYVALE,MESA,MARICOPA,85206,y,rn,69,96,4.3,100,93,4.3,100,93,4.3,100,97,2.9,100,97,2.9,100,97,2.9,100,100,0,100,5.8,0,0
Madison Meadows School,n/a,225 W OCOTILLO RD,PHOENIX,MARICOPA,85013,y,rn,209,94,1.4,95,59,2.4,62,56,0,57,95,1.9,97,97,1.4,98,96,2.4,98,98,1.4,99,4.3,0,1.4
Madison Tradition Academy,n/a,925 E MARYLAND AVE,PHOENIX,MARICOPA,85014,n,,92,98,2.2,100,98,2.2,100,97,3.3,100,97,3.3,100,98,2.2,100,99,1.1,100,98,2.2,100,3.3,0,0
Magee,n/a,8300 E SPEEDWAY BLVD,TUCSON,PIMA,85710,y,rn,194,97,3.1,100,88,3.6,93,86,3.6,91,97,3.1,100,97,2.6,100,97,3.1,100,100,0,100,3.6,0,3.6
Magma Ranch K-8,n/a,10890 DESERT MOUNTAIN BLVD,FLORENCE,PINAL,85132,y,,103,93,0,93,40,2.9,43,40,2.9,43,91,2.9,94,94,2.9,97,92,2.9,95,94,2.9,97,1,1.9,0
Magnet Traditional,n/a,2602 N 23RD AVE,PHOENIX,MARICOPA,85009,y,rn,54,100,0,100,98,0,98,98,0,98,98,0,98,100,0,100,100,0,100,100,0,100,0,0,0
Maie Bartlett Heard School,n/a,2301 W THOMAS RD,PHOENIX,MARICOPA,85015,y,,73,96,1.4,97,92,1.4,93,92,1.4,93,96,0,96,96,0,96,97,0,97,99,0,99,1.4,0,0
Maine Consolidated School,n/a,10 SPRING VALLEY RD,PARKS,COCONINO,86018,n,,< 20,na,na,na,na,na,na,na,na,na,na,na,na,na,na,na,na,na,na,na,na,na,na,na,na
Mammoth Elementary School,n/a,111 W DUNGAN DR,MAMMOTH,PINAL,85618,n,,< 20,na,na,na,na,na,na,na,na,na,na,na,na,na,na,na,na,na,na,na,na,na,na,na,na
Mansfeld Middle School,n/a,1300 E 6TH ST,TUCSON,PIMA,85719,y,rn,276,96,2.9,99,92,2.9,95,91,3.6,95,97,2.2,99,98,1.4,99,97,1.4,99,100,0,100,3.6,.7,0
Many Farms Public School,n/a,NORTH HWY 191 and NAVAJO ROUTE 7,MANY FARMS,APACHE,86503,y,lpn,56,100,0,100,96,0,100,96,0,100,100,0,100,100,0,100,100,0,100,100,0,100,0,0,0
Manzanita Elementary School,n/a,8430 N 39TH AVE,PHOENIX,MARICOPA,85051,n,,113,99,0,99,100,0,100,100,0,100,100,0,100,100,0,100,100,0,100,100,0,100,0,0,0
Marc T Atkinson Middle School,n/a,4315 N MARYVALE PKWY,PHOENIX,MARICOPA,85031,y,lpn,386,100,0,100,97,0,97,96,0,96,100,0,100,100,0,100,100,0,100,98,1,100,0,0,1
Maricopa Elementary School,n/a,18150 N ALTERRA PKWY,MARICOPA,PINAL,85139,y,rn,105,99,1,100,93,1,100,93,1,100,99,1,100,98,1.9,100,99,1,100,99,1,100,1.9,0,1
Maricopa Village Christian School,n/a,8050 W BASELINE RD,LAVEEN,MARICOPA,85339,y,rn,< 20,na,na,na,na,na,na,na,na,na,na,na,na,na,na,na,na,na,na,na,na,na,na,na,na
Maricopa Wells Middle School,n/a,45012 W HONEYCUTT AVE,MARICOPA,PINAL,85239,y,rn,32,100,0,100,97,0,97,97,0,97,100,0,100,100,0,100,100,0,100,100,0,100,0,0,0
Marilyn Thiele Wilson School,n/a,5619 E GLADE AVE,MESA,MARICOPA,85206,y,rn,107,96,0,96,68,0,72,69,0,73,97,0,97,96,0,96,97,0,97,87,0,87,1.9,.9,0
Marjorie W Estes Elementary School,n/a,13650 N MCDUFF RD,MARANA,PIMA,85653,y,rn,92,99,0,99,89,0,89,86,0,86,99,0,99,99,0,99,97,2.2,99,100,0,100,2.2,0,0
Marley Park Elementary,n/a,15042 W SWEETWATER AVE,SURPRISE,MARICOPA,85379,y,lpn,153,86,2,88,70,6.5,77,71,6.5,100,93,2,95,96,0,96,83,2,85,97,2,99,23.5,0,0
Marshall Humphrey Ii Elementary School,n/a,125 S 132ND ST,CHANDLER,MARICOPA,85225,n,,59,97,3.4,100,81,15.3,100,80,16.9,100,95,5.1,100,95,5.1,100,97,3.4,100,98,1.7,100,16.9,0,3.4
Marshall Ranch Elementary School,n/a,12995 N MARSHALL RANCH DR,GLENDALE,MARICOPA,85304,y,lpn,89,98,2.2,100,100,0,100,100,0,100,98,2.2,100,100,0,100,100,0,100,100,0,100,2.2,0,0
Mary Belle Mccorkle,n/a,4455 S MISSION RD,TUCSON,PIMA,85746,y,rn,103,98,0,98,99,1,100,98,1,100,99,1,100,99,1,100,99,1,100,99,1,100,1,0,0
Mary C O'brien Elementary School,n/a,1400 N ELEVEN MILE CORNER RD,CASA GRANDE,PINAL,85294,y,rn,< 20,na,na,na,na,na,na,na,na,na,na,na,na,na,na,na,na,na,na,na,na,na,na,na,na
Mary Mcleod Bethune,n/a,1310 S 15TH AVE,PHOENIX,MARICOPA,85007,y,rn,47,100,0,100,100,0,100,100,0,100,100,0,100,100,0,100,100,0,100,100,0,100,0,0,0
Mary Meredith K-12 School,n/a,755 N MAGNOLIA AVE,TUCSON,PIMA,85711,y,rn,< 20,na,na,na,na,na,na,na,na,na,na,na,na,na,na,na,na,na,na,na,na,na,na,na,na
Maryland Elementary School,n/a,6503 N 21ST AVE,PHOENIX,MARICOPA,85015,n,,82,93,7.3,100,96,1.2,99,96,1.2,99,99,0,99,100,0,100,100,0,100,100,0,100,1.2,0,0
Maryvale Preparatory Academy,n/a,6301 W INDIAN SCHOOL RD,PHOENIX,MARICOPA,85033,n,,52,100,0,100,87,11.5,100,87,11.5,100,100,0,100,100,0,100,100,0,100,100,0,100,11.5,0,0
Math And Science Success Academy,n/a,434 W LERDO RD,TUCSON,PIMA,85756,n,,42,100,0,100,100,0,100,98,0,98,100,0,100,100,0,100,100,0,100,100,0,100,0,0,0
Maurice C Cash School,n/a,3851 W ROESER RD,PHOENIX,MARICOPA,85041,y,rn,95,100,0,100,93,0,100,93,0,100,100,0,100,100,0,100,100,0,100,100,0,100,0,0,0
Maxine O Bush Elementary School,n/a,602 E SIESTA DR,PHOENIX,MARICOPA,85042,y,rn,49,100,0,100,98,2,100,98,2,100,100,0,100,98,2,100,100,0,100,100,0,100,2,0,2
Mayer Elementary School,n/a,12568 E MAIN ST,MAYER,YAVAPAI,86333,n,,30,100,0,100,90,10,100,90,10,100,100,0,100,100,0,100,100,0,100,100,0,100,10,0,0
Mcnary Elementary School,n/a,108 N. POLLOCK,MCNARY,APACHE,85930,n,,< 20,na,na,na,na,na,na,na,na,na,na,na,na,na,na,na,na,na,na,na,na,na,na,na,na
Mcneal Elementary School,n/a,3979 MCNEAL ST,MC NEAL,COCHISE,85617,n,,< 20,na,na,na,na,na,na,na,na,na,na,na,na,na,na,na,na,na,na,na,na,na,na,na,na
Melvin E Sine School,n/a,4932 W MYRTLE AVE,GLENDALE,MARICOPA,85301,y,lpn,80,95,0,95,98,1.3,99,96,1.3,99,99,0,99,100,0,100,99,0,99,100,0,100,1.3,0,0
Mendoza Elementary School,n/a,5831 E MCLELLAN RD,MESA,MARICOPA,85205,y,rn,82,96,3.7,100,94,4.9,100,95,3.7,100,98,2.4,100,98,2.4,100,96,3.7,100,100,0,100,4.9,0,0
Mercury Mine Elementary School,n/a,9640 N 28TH ST,PHOENIX,MARICOPA,85028,y,rn,72,93,6.9,100,92,5.6,97,90,6.9,97,93,6.9,100,94,5.6,100,96,4.2,100,97,2.8,100,6.9,0,0
Meridian Elementary - Gilbert Public Schools,n/a,3900 S MOUNTAIN RD,MESA,MARICOPA,85212,y,rn,121,98,1.7,100,94,1.7,98,93,2.5,98,98,1.7,100,98,1.7,100,98,1.7,100,98,1.7,100,2.5,0,1.7
Mesa Academy,n/a,6919 E BROWN RD,MESA,MARICOPA,85207,y,,88,99,1.1,100,89,2.3,100,89,2.3,100,98,2.3,100,98,2.3,100,99,1.1,100,100,0,100,4.5,0,0
Mesa Arts Academy,n/a,221 W 6TH AVE,MESA,MARICOPA,85210,n,,25,0,100,100,92,0,100,92,0,100,92,0,92,100,0,100,100,0,100,100,0,100,0,8,0
Mesa View Elementary School,n/a,U.S. HWY 191 and N.R. 7,CHINLE,APACHE,86503,n,,63,100,0,100,100,0,100,100,0,100,100,0,100,100,0,100,100,0,100,100,0,100,0,0,0
Mesquite Elementary School,n/a,1101 E MESQUITE ST,GILBERT,MARICOPA,85296,y,rn,99,91,9.1,100,91,9.1,100,91,9.1,100,91,9.1,100,91,9.1,100,91,9.1,100,91,9.1,100,9.1,0,0
Mesquite Elementary School,n/a,4451 W 28TH ST,YUMA,YUMA,85364,n,,98,100,0,100,100,0,100,100,0,100,100,0,100,100,0,100,100,0,100,100,0,100,0,0,0
Mexicayotl Charter School,n/a,2059 N GRAND AVE,NOGALES,SANTA CRUZ,85621,n,,22,100,0,100,82,0,96,82,0,96,100,0,100,100,0,100,100,0,100,100,0,100,0,4.5,0
Michael Anderson School,n/a,45 S 3RD AVE,AVONDALE,MARICOPA,85323,y,lpn,86,100,0,100,99,1.2,100,99,1.2,100,100,0,100,100,0,100,100,0,100,100,0,100,1.2,0,0
Miles-exploratory Learning Center,n/a,1400 E BROADWAY BLVD,TUCSON,PIMA,85719,y,rn,33,100,0,100,94,6.1,100,94,6.1,100,100,0,100,100,0,100,100,0,100,100,0,100,3,3,0
Milestones Charter School,n/a,4707 E ROBERT E LEE ST,PHOENIX,MARICOPA,85032,n,,< 20,na,na,na,na,na,na,na,na,na,na,na,na,na,na,na,na,na,na,na,na,na,na,na,na
Mingus Springs Charter School,n/a,3600 SUNSET DR,CHINO VALLEY,YAVAPAI,86323,n,,< 20,na,na,na,na,na,na,na,na,na,na,na,na,na,na,na,na,na,na,na,na,na,na,na,na
Mirage Elementary School,n/a,3910 W GROVERS AVE,GLENDALE,MARICOPA,85308,y,rn,63,97,3.2,100,97,1.6,100,97,1.6,100,97,3.2,100,97,3.2,100,98,1.6,100,100,0,100,3.2,0,0
Mission Manor Elementary School,n/a,600 W SANTA ROSA ST,TUCSON,PIMA,85706,y,rn,80,98,0,98,98,0,100,98,0,100,100,0,100,100,0,100,99,0,99,100,0,100,0,0,0
Model Creek Elementary School,n/a,18912 W HAYS RANCH RD,PEEPLES VALLEY,YAVAPAI,86332,n,rn,< 20,na,na,na,na,na,na,na,na,na,na,na,na,na,na,na,na,na,na,na,na,na,na,na,na
Mohave Accelerated Learning Center,n/a,625 MARINA BLVD,BULLHEAD CITY,MOHAVE,86442,n,,80,98,0,98,95,0,95,91,0,91,96,0,96,96,0,96,96,0,96,98,0,98,0,0,0
Mohave Middle School,n/a,8490 E JACKRABBIT RD,SCOTTSDALE,MARICOPA,85250,y,rn,288,97,2.8,100,96,3.8,100,96,4.5,100,96,4.5,100,97,3.1,100,97,2.8,100,97,2.8,100,4.9,0,2.1
Mohawk Valley School,n/a,5151 S AVENUE 39 E,ROLL,YUMA,85347,n,,< 20,na,na,na,na,na,na,na,na,na,na,na,na,na,na,na,na,na,na,na,na,na,na,na,na
Monte Vista,n/a,3501 E OSBORN RD,PHOENIX,MARICOPA,85018,y,rn,87,100,0,100,99,0,100,98,2.3,100,100,0,100,100,0,100,100,0,100,100,0,100,2.3,2.3,2.3
Montebello School,n/a,5725 N 27TH AVE,PHOENIX,MARICOPA,85017,n,,155,98,1.3,99,96,1.3,99,96,1.3,99,98,1.3,99,98,1.3,99,96,3.2,99,99,1.3,100,1.3,1.9,1.3
Montessori Academy,n/a,6050 N INVERGORDON RD,PARADISE VALLEY,MARICOPA,85253,n,,< 20,na,na,na,na,na,na,na,na,na,na,na,na,na,na,na,na,na,na,na,na,na,na,na,na
Montessori Charter Schools Of Flagstaff,n/a,850 N LOCUST ST,FLAGSTAFF,COCONINO,86001,n,,< 20,na,na,na,na,na,na,na,na,na,na,na,na,na,na,na,na,na,na,na,na,na,na,na,na
"Montessori Day Public School, Chartered",n/a,9215 N 14TH ST,PHOENIX,MARICOPA,85020,n,,< 20,na,na,na,na,na,na,na,na,na,na,na,na,na,na,na,na,na,na,na,na,na,na,na,na
Montessori De Santa Cruz,n/a,18 CALLE BACA,TUBAC,SANTA CRUZ,85646,n,,< 20,na,na,na,na,na,na,na,na,na,na,na,na,na,na,na,na,na,na,na,na,na,na,na,na
Montessori Education Centre Charter School,n/a,815 N GILBERT RD,MESA,MARICOPA,85203,n,,< 20,na,na,na,na,na,na,na,na,na,na,na,na,na,na,na,na,na,na,na,na,na,na,na,na
Montessori Education Centre Charter School,n/a,2834 E SOUTHERN AVE,MESA,MARICOPA,85204,n,,24,83,16.7,100,79,20.8,100,79,20.8,100,83,16.7,100,83,16.7,100,79,20.8,100,88,12.5,100,20.8,0,20.8
Montessori House Charter School,n/a,2415 N TERRACE CIR,MESA,MARICOPA,85203,n,,< 20,na,na,na,na,na,na,na,na,na,na,na,na,na,na,na,na,na,na,na,na,na,na,na,na
Moon Mountain School,n/a,13425 N 19TH AVE,PHOENIX,MARICOPA,85029,n,,82,96,3.7,100,94,4.9,99,94,4.9,99,95,3.7,99,95,3.7,99,96,3.7,100,96,3.7,100,4.9,0,3.7
Morgan Maxwell School,n/a,2802 W ANKLAM RD,TUCSON,PIMA,85745,y,rn,68,99,1.5,100,84,2.9,88,79,2.9,84,97,2.9,100,97,2.9,100,100,0,100,97,1.5,99,2.9,0,0
Morris K. Udall Escuela De Bellas Artes,n/a,3715 W ROOSEVELT ST,PHOENIX,MARICOPA,85009,y,lpn,230,100,0,100,93,0,99,93,0,99,99,0,99,100,0,100,100,0,100,100,0,100,0,0,0
Morristown Elementary School District,n/a,25950 W ROCKAWAY HILLS RD,MORRISTOWN,MARICOPA,85342,n,,< 20,na,na,na,na,na,na,na,na,na,na,na,na,na,na,na,na,na,na,na,na,na,na,na,na
Most Holy Trinity Roman Catholic Parish Phoenix,n/a,535 E ALICE AVE,PHOENIX,MARICOPA,85020,y,rn,23,96,4.3,100,87,4.3,91,91,4.3,96,96,4.3,100,96,4.3,100,96,4.3,100,96,4.3,100,4.3,0,4.3
Mount Elden Middle School,n/a,3323 N 4TH ST,FLAGSTAFF,COCONINO,86004,y,rn,319,98,2.2,100,97,1.6,99,96,2.5,99,98,1.9,100,98,2.5,100,98,2.2,100,99,.9,100,3.4,.9,0
Mountain Christian School,n/a,3171 E SHOW LOW LAKE RD,SHOW LOW,NAVAJO,85901,y,lpn,< 20,na,na,na,na,na,na,na,na,na,na,na,na,na,na,na,na,na,na,na,na,na,na,na,na
Mountain Oak Charter School,n/a,1455 WILLOW CREEK RD,PRESCOTT,YAVAPAI,86301,n,,< 20,na,na,na,na,na,na,na,na,na,na,na,na,na,na,na,na,na,na,na,na,na,na,na,na
Mountain Shadows Elementary School,n/a,19602 N 45TH AVE,GLENDALE,MARICOPA,85308,n,,64,92,7.8,100,100,7.8,108,92,7.8,100,98,1.6,100,98,1.6,100,98,1.6,100,100,0,100,7.8,0,1.6
Mountain View Elementary School,n/a,8601 E LOOS DR,PRESCOTT VALLEY,YAVAPAI,86314,y,rn,79,99,1.3,100,99,1.3,100,99,1.3,100,99,1.3,100,99,1.3,100,99,1.3,100,99,0,99,1.3,0,1.3
Mountain View Elementary School,n/a,801 W PEORIA AVE,PHOENIX,MARICOPA,85029,n,,152,98,0,98,98,1.3,99,97,1.3,99,99,0,99,99,0,99,99,0,99,99,.7,100,2,0,0
Mountain View Preparatory,n/a,2939 E DEL RIO DR,COTTONWOOD,YAVAPAI,86326,n,,52,90,9.6,100,85,11.5,100,81,15.4,100,92,7.7,100,92,7.7,100,90,9.6,100,94,5.8,100,19.2,0,5.8
Mountain View School,n/a,18302 W BURTON AVE,WADDELL,MARICOPA,85355,y,lpn,105,99,1,100,95,3.8,99,94,4.8,99,99,1,100,99,1,100,98,1.9,100,99,1,100,5.7,0,1
Mountain Vista School,n/a,2618 W EL PASEO,ORACLE,PINAL,85623,n,,61,97,3.3,100,95,4.9,100,95,4.9,100,97,3.3,100,97,3.3,100,97,3.3,100,97,3.3,100,4.9,0,0
Mountainside Middle School,n/a,11256 N 128TH ST,SCOTTSDALE,MARICOPA,85259,y,rn,212,97,2.4,100,94,4.7,100,93,5.7,100,98,2.4,100,98,1.9,100,97,2.8,100,100,0,100,5.7,0,0
Moutain Vista Academy,n/a,33622 N MOUNTAIN VISTA BLVD,SAN TAN VALLEY,PINAL,85142,n,,< 20,na,na,na,na,na,na,na,na,na,na,na,na,na,na,na,na,na,na,na,na,na,na,na,na
Mt Tipton Elementary School,n/a,16500 N PIERCE FERRY RD,DOLAN SPRINGS,MOHAVE,86441,y,rn,< 20,na,na,na,na,na,na,na,na,na,na,na,na,na,na,na,na,na,na,na,na,na,na,na,na
Naco Elementary School,n/a,1911 VALENZUELA ST.,NACO,COCHISE,85620,n,,44,98,0,98,93,0,96,91,0,93,98,0,98,98,0,98,98,0,98,98,0,98,0,0,0
Nadaburg School,n/a,21449 W DOVE VALLEY RD,WITTMANN,MARICOPA,85361,n,,41,90,9.8,100,90,9.8,100,90,9.8,100,90,9.8,100,90,9.8,100,90,9.8,100,90,9.8,100,7.3,2.4,7.3
Nautilus Elementary School,n/a,1425 PATRICIAN DR,LAKE HAVASU CITY,MOHAVE,86404,y,rn,51,98,2,100,90,7.8,98,88,7.8,96,98,2,100,98,2,100,98,2,100,96,3.9,100,7.8,0,2
Navarrete Elementary,n/a,6940 S. SUN GROVES BVLD,CHANDLER,MARICOPA,85249,n,,128,96,3.9,100,88,7,100,87,10.9,100,96,3.9,100,95,4.7,100,96,3.9,100,96,3.9,100,11.7,0,1.6
Naylor Middle School,n/a,1701 S COLUMBUS BLVD,TUCSON,PIMA,85711,y,rn,92,77,7.6,85,74,7.6,82,70,7.6,77,90,7.6,98,95,5.4,100,86,7.6,94,100,0,100,0,7.6,0
Neely Traditional Academy,n/a,321 W JUNIPER AVE,GILBERT,MARICOPA,85233,y,rn,90,99,1.1,100,92,2.2,100,90,2.2,98,100,0,100,98,2.2,100,99,1.1,100,98,2.2,100,4.4,3.3,1.1
New Horizon School For The Performing Art,n/a,446 E BROADWAY RD,MESA,MARICOPA,85204,n,,22,96,4.5,100,86,4.5,91,86,4.5,91,100,0,100,100,0,100,100,0,100,100,0,100,4.5,0,0
New River Elementary School,n/a,48827 N BLACK CANYON HWY,PHOENIX,MARICOPA,85087,y,lpn,44,96,4.5,100,89,9.1,100,84,13.6,100,96,4.5,100,98,2.3,100,98,2.3,100,100,0,100,13.6,0,2.3
New Vistas Academy,n/a,670 N ARIZONA AVE STE 35,CHANDLER,MARICOPA,85225,n,,< 20,na,na,na,na,na,na,na,na,na,na,na,na,na,na,na,na,na,na,na,na,na,na,na,na
New Way Academy,n/a,5048 E OAK ST,PHOENIX,MARICOPA,85008,n,,< 20,na,na,na,na,na,na,na,na,na,na,na,na,na,na,na,na,na,na,na,na,na,na,na,na
New World Educational Center,n/a,5818 N 7TH ST,PHOENIX,MARICOPA,85014,n,,26,100,0,100,96,0,100,96,0,100,100,0,100,100,0,100,100,0,100,100,0,100,0,0,0
Newell Barney Middle School,n/a,24937 S SOSSAMAN RD,QUEEN CREEK,MARICOPA,85242,y,rn,232,99,1.3,100,97,2.6,100,97,2.6,100,98,1.7,100,98,1.7,100,97,3,100,99,0,99,4.3,.4,1.3
Noah Webster Basic School,n/a,7301 E BASELINE RD,MESA,MARICOPA,85209,n,,122,95,4.1,99,86,12.3,99,85,13.1,99,96,4.1,100,96,4.1,100,96,4.1,100,98,2.5,100,17.2,0,.8
Noah Webster Schools - Pima,n/a,5399 N PIMA RD APT 154,SCOTTSDALE,MARICOPA,85250,n,,26,96,0,96,92,7.7,100,96,3.8,100,100,0,100,100,0,100,100,0,100,100,0,100,7.7,0,0
Noor Academy Of Arizona,n/a,1130 W 23RD ST,TEMPE,MARICOPA,85282,n,,< 20,na,na,na,na,na,na,na,na,na,na,na,na,na,na,na,na,na,na,na,na,na,na,na,na
Norterra Canyon K-8,n/a,2200 W MAYA WAY,PHOENIX,MARICOPA,85085,y,rn,85,97,3.5,100,89,10.6,100,89,10.6,100,99,1.2,100,99,1.2,100,98,2.4,100,99,1.2,100,12.9,0,12.9
North Phoenix Preparatory,n/a,13613 N CAVE CREEK RD BLDG F,PHOENIX,MARICOPA,85022,y,rn,95,93,7.4,100,84,12.6,100,81,15.8,100,93,7.4,100,93,7.4,100,93,7.4,100,93,7.4,100,15.8,0,6.3
North Ranch Elementary School,n/a,16406 N 61ST PL,SCOTTSDALE,MARICOPA,85254,y,rn,60,100,0,100,95,1.7,100,95,1.7,100,100,0,100,100,0,100,100,0,100,100,0,100,1.7,0,0
North Valley Christian Academy,n/a,42101 N 41ST DR STE 101,ANTHEM,MARICOPA,85086,n,,< 20,na,na,na,na,na,na,na,na,na,na,na,na,na,na,na,na,na,na,na,na,na,na,na,na
Northland Preparatory Academy,n/a,3300 E SPARROW AVE,FLAGSTAFF,COCONINO,86004,n,,101,93,5,98,88,5,94,86,5.9,93,91,5,96,94,5,99,93,4,97,94,5,99,5,0,4
Northwest Christian School,n/a,16401 N 43RD AVE,PHOENIX,MARICOPA,85053,y,rn,91,95,5.5,100,90,9.9,100,90,9.9,100,95,5.5,100,95,5.5,100,95,5.5,100,95,5.5,100,9.9,0,0
Nosotros Academy,n/a,440 N GRANDE AVE,TUCSON,PIMA,85745,n,,< 20,na,na,na,na,na,na,na,na,na,na,na,na,na,na,na,na,na,na,na,na,na,na,na,na
O'connor,n/a,4840 E ADOBE ST,MESA,MARICOPA,85205,y,rn,80,99,1.3,100,96,2.5,100,96,3.8,100,100,0,100,100,0,100,100,0,100,100,0,100,5,0,0
Oak Creek School,n/a,11490 E PURPLE SAGE DR,CORNVILLE,YAVAPAI,86325,n,,23,100,0,100,96,0,96,96,0,96,100,0,100,100,0,100,100,0,100,100,0,100,0,0,0
Oak Tree Elementary,n/a,505 W HOUSTON AVE,GILBERT,MARICOPA,85233,y,rn,89,98,2.2,100,93,4.5,99,92,5.6,99,98,2.2,100,96,4.5,100,98,2.2,100,98,2.2,100,5.6,0,2.2
Oakwood Elementary,n/a,12900 N 71ST AVE,PEORIA,MARICOPA,85381,y,lpn,123,97,3.3,100,96,3.3,99,94,3.3,99,98,2.4,100,98,2.4,100,97,3.3,100,97,3.3,100,3.3,0,3.3
Oasis Elementary School,n/a,7841 W SWEETWATER AVE,PEORIA,MARICOPA,85381,y,lpn,91,96,4.4,100,88,12.1,100,86,14.3,100,95,5.5,100,92,7.7,100,97,3.3,100,97,3.3,100,16.5,0,2.2
Ocotillo School,n/a,3225 W OCOTILLO RD,PHOENIX,MARICOPA,85017,n,,125,95,0,95,90,0,96,88,0,94,98,0,98,100,0,100,100,0,100,100,0,100,0,0,0
Old Vail Middle School,n/a,13299 E COLOSSAL CAVE RD,VAIL,PIMA,85641,n,,219,98,1.8,100,95,3.7,99,95,3.7,99,97,1.4,99,97,1.4,99,97,1.8,99,97,0,97,6.4,0,0
Omega Alpha Academy,n/a,1402 N SAN ANTONIO AVE,DOUGLAS,COCHISE,85607,n,,28,100,0,100,82,0,82,82,0,82,100,0,100,100,0,100,100,0,100,100,0,100,0,0,0
Open Doors Community School,n/a,13644 N SANDARIO RD,MARANA,PIMA,85653,n,,< 20,na,na,na,na,na,na,na,na,na,na,na,na,na,na,na,na,na,na,na,na,na,na,na,na
Orange Grove Middle School,n/a,1911 E ORANGE GROVE RD,TUCSON,PIMA,85718,y,rn,224,97,0,97,99,0,100,94,4,98,96,4,100,96,4,100,97,0,97,100,0,100,4,3.1,0
Orangewood Elementary School,n/a,7337 N 19TH AVE,PHOENIX,MARICOPA,85021,n,,122,100,0,100,98,1.6,99,98,1.6,99,100,0,100,100,0,100,100,0,100,100,0,100,1.6,0,0
Oro Grande Elementary School,n/a,1250 PAWNEE DR,LAKE HAVASU CITY,MOHAVE,86406,y,rn,53,100,0,100,100,0,100,98,1.9,100,100,0,100,100,0,100,100,0,100,100,0,100,1.9,0,0
Our Lady Of Mt. Carmel School,n/a,2117 S RURAL RD,TEMPE,MARICOPA,85282,y,rn,34,100,0,100,97,2.9,100,97,2.9,100,100,0,100,100,0,100,97,2.9,100,97,2.9,100,2.9,2.9,2.9
Our Lady Of Perpetual Help Catholic School,n/a,3801 N MILLER RD,SCOTTSDALE,MARICOPA,85251,n,,63,100,0,100,94,4.8,100,92,6.3,100,98,1.6,100,95,4.8,100,100,0,100,98,1.6,100,4.8,0,0
Our Lady Of Perpetual Help School,n/a,5614 W ORANGEWOOD AVE,GLENDALE,MARICOPA,85301,n,,38,95,0,95,84,0,87,76,0,79,92,0,92,95,0,95,97,0,97,100,0,100,0,0,0
Our Mother Of Sorrows School,n/a,1800 S KOLB RD,TUCSON,PIMA,85710,n,,42,98,2.4,100,98,0,98,98,0,98,98,2.4,100,98,2.4,100,98,2.4,100,98,2.4,100,2.4,0,2.4
Owens School District No. 6,n/a,14109 E. CHICKEN SPRINGS RD.,WIKIEUP,MOHAVE,85360,n,,< 20,na,na,na,na,na,na,na,na,na,na,na,na,na,na,na,na,na,na,na,na,na,na,na,na
P.e.s.d.#1 - Whittier Peer Club And Preschool,n/a,2000 N 16TH ST,PHOENIX,MARICOPA,85006,y,rn,42,100,0,100,98,0,98,98,0,98,100,0,100,100,0,100,100,0,100,100,0,100,0,0,0
Paideia Academies,n/a,7777 S 15TH TER,PHOENIX,MARICOPA,85042,y,rn,60,100,0,100,98,1.7,100,98,1.7,100,100,0,100,98,1.7,100,100,0,100,100,0,100,3.3,0,3.3
Painted Desert Montessori Academy,n/a,2400 S 247TH AVE,BUCKEYE,MARICOPA,85326,n,,26,92,7.7,100,77,23.1,100,73,26.9,100,92,7.7,100,89,11.5,100,89,11.5,100,81,15.4,96,30.8,0,0
Palms Christian School,n/a,17475 W BELL RD,SURPRISE,MARICOPA,85374,n,,< 20,na,na,na,na,na,na,na,na,na,na,na,na,na,na,na,na,na,na,na,na,na,na,na,na
Palo Verde Elementary,n/a,10700 S. PALO VERDE RD.,PALO VERDE,MARICOPA,85343,n,,49,100,0,100,96,2,98,94,2,98,96,2,98,100,0,100,100,0,100,98,2,100,2,0,0
Palominas Elementary School,n/a,10385 E HIGHWAY 92,HEREFORD,COCHISE,85615,y,lpn,46,100,0,100,98,2.2,100,98,2.2,100,98,2.2,100,98,2.2,100,100,0,100,98,2.2,100,4.3,0,0
Palomino Intermediate School,n/a,15815 N 29TH ST,PHOENIX,MARICOPA,85032,y,rn,181,98,0,98,99,.6,100,99,.6,99,97,0,97,100,0,100,98,0,98,100,0,100,.6,0,0
Pan-american Elementary Charter School,n/a,3001 W INDIAN SCHOOL RD STE 150,PHOENIX,MARICOPA,85017,n,,60,100,0,100,98,0,98,98,0,98,100,0,100,100,0,100,100,0,100,100,0,100,0,0,0
Papago School,n/a,2013 N 36TH ST,PHOENIX,MARICOPA,85008,y,rn,106,99,0,99,100,0,100,99,.9,100,98,.9,99,99,.9,100,99,0,99,99,.9,100,.9,.9,0
Paradise Education Center,n/a,15533 W PARADISE LN,SURPRISE,MARICOPA,85374,y,rn,169,98,1.8,99,92,4.7,97,91,5.3,96,97,3,100,98,1.8,100,97,2.4,99,98,0,98,6.5,0,6.5
Paradise Valley Christian Preparatory,n/a,11875 N 24TH ST,PHOENIX,MARICOPA,85028,y,rn,25,92,8,100,88,8,100,88,8,100,88,12,100,84,16,100,92,8,100,88,12,100,16,0,8
Paragon Science Academy,n/a,2975 W LINDA LN,CHANDLER,MARICOPA,85224,n,,39,100,0,100,95,0,100,95,0,100,100,0,100,100,0,100,100,0,100,100,0,100,0,0,0
Paramount Academy,n/a,11039 W OLIVE AVE,PEORIA,MARICOPA,85345,n,,28,100,0,100,96,3.6,100,93,3.6,100,100,0,100,100,0,100,100,0,100,100,0,100,0,3.6,0
Pardes Jewish Day School,n/a,12753 N SCOTTSDALE RD,SCOTTSDALE,MARICOPA,85254,y,rn,45,93,6.7,100,78,6.7,84,78,6.7,84,96,4.4,100,91,8.9,100,91,6.7,98,96,4.4,100,8.9,0,4.4
Park Meadows Elementary School,n/a,20012 N 35TH AVE,GLENDALE,MARICOPA,85308,y,rn,81,91,8.6,100,91,8.6,100,91,8.6,100,91,8.6,100,94,6.2,100,95,4.9,100,98,2.5,100,8.6,0,6.2
Parkridge Elementary,n/a,9970 W BEARDSLEY RD,PEORIA,MARICOPA,85382,y,rn,81,96,3.7,100,93,6.2,100,91,8.6,100,95,4.9,100,96,3.7,100,95,4.9,100,98,2.5,100,9.9,0,2.5
Parkview Elementary,n/a,15800 N PARKVIEW PL,SURPRISE,MARICOPA,85374,y,lpn,72,99,1.4,100,99,1.4,100,97,2.8,100,97,2.8,100,97,2.8,100,97,2.8,100,99,1.4,100,5.6,0,1.4
Paseo Hills Elementary,n/a,3302 W LOUISE DR,PHOENIX,MARICOPA,85027,y,rn,103,92,7.8,100,94,5.8,100,94,5.8,100,98,1,99,97,1.9,99,99,1,100,99,1,100,7.8,0,0
Paseo Pointe,n/a,8800 S 55TH AVE,LAVEEN,MARICOPA,85339,y,rn,98,95,3.1,98,89,3.1,95,84,3.1,90,97,3.1,100,95,3.1,98,96,3.1,99,97,3.1,100,3.1,0,0
Paseo Verde Elementary,n/a,7880 W GREENWAY RD,PEORIA,MARICOPA,85381,y,,86,91,4.7,95,81,9.3,91,79,9.3,88,91,9.3,100,91,9.3,100,91,9.3,100,100,0,100,8.1,1.2,0
Patagonia Community Montessori School,n/a,500 N 3RD AVE,PATAGONIA,SANTA CRUZ,85624,n,,< 20,na,na,na,na,na,na,na,na,na,na,na,na,na,na,na,na,na,na,na,na,na,na,na,na
Patagonia Elementary School,n/a,200 NAUGLE AVENUE,PATAGONIA,SANTA CRUZ,85624,y,lpn,< 20,na,na,na,na,na,na,na,na,na,na,na,na,na,na,na,na,na,na,na,na,na,na,na,na
Pathfinder Academy,n/a,2906 N BOULDER CANYON,MESA,MARICOPA,85207,n,,27,70,29.6,100,56,44.4,100,52,48.1,100,70,29.6,100,63,37,100,59,40.7,100,70,29.6,100,51.9,0,51.9
Pathfinder Academy At Eastmark,n/a,4816 S EASTMARK PKWY,MESA,MARICOPA,85212,n,,< 20,na,na,na,na,na,na,na,na,na,na,na,na,na,na,na,na,na,na,na,na,na,na,na,na
Patriot Academy,n/a,19011 E SAN TAN BLVD,QUEEN CREEK,MARICOPA,85242,n,,< 20,na,na,na,na,na,na,na,na,na,na,na,na,na,na,na,na,na,na,na,na,na,na,na,na
Patterson Elementary School,n/a,1211 E GUADALUPE RD,GILBERT,MARICOPA,85234,y,rn,81,96,3.7,100,91,8.6,100,96,3.7,100,96,3.7,100,96,3.7,100,94,6.2,100,99,1.2,100,3.7,0,0
Paul Dunbar Lawrence School,n/a,707 W GRANT ST,PHOENIX,MARICOPA,85007,y,rn,30,97,0,97,97,0,97,93,0,93,97,0,97,97,0,97,97,0,97,97,0,97,0,0,0
Paul H Huber Jr High School,n/a,1650 N WASHINGTON AVE,DOUGLAS,COCHISE,85607,y,rn,173,100,0,100,96,0,97,95,0,96,100,0,100,100,0,100,100,0,100,95,0,95,0,0,0
Paulden Community School,n/a,24850 N NAPLES ST,PAULDEN,YAVAPAI,86334,n,,< 20,na,na,na,na,na,na,na,na,na,na,na,na,na,na,na,na,na,na,na,na,na,na,na,na
Paulo Freire Freedom School,n/a,300 E UNIVERSITY BLVD,TUCSON,PIMA,85705,n,,< 20,na,na,na,na,na,na,na,na,na,na,na,na,na,na,na,na,na,na,na,na,na,na,na,na
Paulo Freire Freedom School - Downtown,n/a,47 E PENNINGTON ST,TUCSON,PIMA,85701,n,,23,96,0,96,61,4.3,65,39,4.3,44,91,0,91,87,4.3,91,91,0,91,100,0,100,4.3,0,4.3
Payson Christian School,n/a,1000 E FRONTIER ST,PAYSON,GILA,85541,n,,< 20,na,na,na,na,na,na,na,na,na,na,na,na,na,na,na,na,na,na,na,na,na,na,na,na
Peach Springs Unified School District #8,n/a,403 DIAMOND CREEK RD,PEACH SPRINGS,MOHAVE,86434,n,,< 20,na,na,na,na,na,na,na,na,na,na,na,na,na,na,na,na,na,na,na,na,na,na,na,na
Pearce Elementary School,n/a,1487 E SCHOOL RD,PEARCE,COCHISE,85625,n,,< 20,na,na,na,na,na,na,na,na,na,na,na,na,na,na,na,na,na,na,na,na,na,na,na,na
Pecan Grove Elementary School,n/a,600 S 21ST AVE,YUMA,YUMA,85364,n,,37,100,0,100,92,0,92,92,0,92,100,0,100,100,0,100,100,0,100,100,0,100,0,0,0
Pedro Guerrero Elementary,n/a,463 S ALMA SCHOOL RD,MESA,MARICOPA,85210,y,rn,86,99,1.2,100,97,2.3,99,98,2.3,100,100,0,100,99,1.2,100,99,1.2,100,100,0,100,2.3,1.2,0
Pendergast Elementary,n/a,3802 N 91ST AVE,PHOENIX,MARICOPA,85037,n,,107,99,.9,100,95,1.9,99,94,1.9,98,99,.9,100,99,.9,100,99,.9,100,100,0,100,1.9,0,.9
Peoria Elementary,n/a,11501 N 79TH AVE,PEORIA,MARICOPA,85345,y,lpn,56,96,3.6,100,93,3.6,96,93,3.6,96,98,1.8,100,98,1.8,100,98,1.8,100,100,0,100,3.6,0,1.8
Peoria Traditional,n/a,21180 N 87TH AVE,PEORIA,MARICOPA,85382,y,rn,23,100,0,100,83,4.3,91,83,4.3,91,100,0,100,100,0,100,100,0,100,100,0,100,4.3,0,0
Peralta Trail Elementary,n/a,10965 E PERALTA RD,GOLD CANYON,PINAL,85118,y,rn,97,96,4.1,100,93,5.2,100,92,5.2,99,96,4.1,100,96,4.1,100,96,4.1,100,95,5.2,100,5.2,0,0
Percy L Julian Elementary School,n/a,2149 E CARVER DR,PHOENIX,MARICOPA,85040,y,rn,79,99,1.3,100,99,0,99,99,0,99,98,1.3,99,99,1.3,100,99,1.3,100,99,1.3,100,1.3,0,0
Peridot-our Savior's Lutheran School,n/a,INDIAN HWY 170 - 1 MILE NORTH OF HWY 70,PERIDOT,GILA,85542,n,,< 20,na,na,na,na,na,na,na,na,na,na,na,na,na,na,na,na,na,na,na,na,na,na,na,na
Phoenix Advantage Charter School,n/a,2741 W CHANUTE PASS,PHOENIX,MARICOPA,85041,n,,41,100,0,100,71,0,100,71,0,100,100,0,100,100,0,100,100,0,100,100,0,100,0,0,0
Phoenix Christian Preparatory School,n/a,1751 W INDIAN SCHOOL RD,PHOENIX,MARICOPA,85015,y,rn,21,95,4.8,100,91,4.8,95,86,4.8,91,95,4.8,100,86,4.8,91,95,4.8,100,95,4.8,100,4.8,0,4.8
Phoenix Christian School Prek-8,n/a,2425 N 26TH ST,PHOENIX,MARICOPA,85008,n,,< 20,na,na,na,na,na,na,na,na,na,na,na,na,na,na,na,na,na,na,na,na,na,na,na,na
Phoenix Collegiate Academy Charter School,n/a,5610 S CENTRAL AVE,PHOENIX,MARICOPA,85040,n,,31,100,0,100,94,0,94,90,0,90,100,0,100,100,0,100,100,0,100,100,0,100,0,0,0
Phoenix Country Day School,n/a,3901 E STANFORD DR,PARADISE VALLEY,MARICOPA,85253,y,rn,62,98,1.6,100,97,1.6,100,98,1.6,100,97,3.2,100,98,1.6,100,98,1.6,100,98,1.6,100,3.2,0,3.2
Phoenix Day School For The Deaf,n/a,7654 N 19TH AVE,PHOENIX,MARICOPA,85021,y,lpn,21,100,0,100,100,0,100,100,0,100,100,0,100,100,0,100,100,0,100,100,0,100,0,0,0
Picacho School,n/a,17865 S VAIL RD,PICACHO,PINAL,85141,n,,< 20,na,na,na,na,na,na,na,na,na,na,na,na,na,na,na,na,na,na,na,na,na,na,na,na
Picture Rocks Intermediate School,n/a,5875 N SANDERS RD,TUCSON,PIMA,85743,n,,90,99,1.1,100,77,2.2,80,76,2.2,79,97,3.3,100,98,2.2,100,97,3.3,100,98,2.2,100,5.6,0,0
Pilgrim Lutheran Church And School,n/a,3257 E UNIVERSITY DR,MESA,MARICOPA,85213,n,,< 20,na,na,na,na,na,na,na,na,na,na,na,na,na,na,na,na,na,na,na,na,na,na,na,na
Pima Butte Elementary School,n/a,42022 W RANCHO EL DORADO PKW,MARICOPA,PINAL,85239,y,rn,58,98,1.7,100,95,3.4,100,97,1.7,100,97,3.4,100,98,1.7,100,98,1.7,100,98,1.7,100,5.2,0,1.7
Pima Elementary School,n/a,192 E 200 S,PIMA,GRAHAM,85543,y,rn,74,92,4.1,96,88,4.1,92,87,4.1,91,96,4.1,100,96,4.1,100,96,4.1,100,96,4.1,100,4.1,0,4.1
Pima Partnership Academy,n/a,1346 N STONE AVE,TUCSON,PIMA,85705,n,,25,100,0,100,88,0,88,84,0,84,84,0,84,100,0,100,100,0,100,88,0,88,0,0,0
Pine Forest School,n/a,1120 W KAIBAB LN,FLAGSTAFF,COCONINO,86001,n,,26,73,26.9,100,73,26.9,100,65,34.6,100,62,38.5,100,54,46.2,100,73,26.9,100,54,46.2,100,46.2,0,19.2
Pine Strawberry Elementary School,n/a,3868 N PINE CREEK DR,PINE,GILA,85544,n,,< 20,na,na,na,na,na,na,na,na,na,na,na,na,na,na,na,na,na,na,na,na,na,na,na,na
Pinnacle Peak Elementary,n/a,7521 W WILLOW AVE,PEORIA,MARICOPA,85381,n,,88,100,0,100,92,8,100,91,9.1,100,100,0,100,100,0,100,100,0,100,100,0,100,9.1,0,0
Pinnacle Pointe Academy,n/a,6753 W PINNACLE PEAK RD,GLENDALE,MARICOPA,85310,n,,< 20,na,na,na,na,na,na,na,na,na,na,na,na,na,na,na,na,na,na,na,na,na,na,na,na
Pinon Middle School,n/a,NAVAJO HWY 41,PINON,NAVAJO,86510,y,rn,93,100,0,100,99,0,99,100,0,100,100,0,100,100,0,100,100,0,100,100,0,100,0,0,0
Pioneer Elementary,n/a,6315 W PORT AU PRINCE LN,GLENDALE,MARICOPA,85306,y,rn,51,92,7.8,100,90,9.8,100,90,9.8,100,92,7.8,100,96,3.9,100,96,3.9,100,96,3.9,100,11.8,0,3.9
Pioneer Elementary School,n/a,1535 N GREENFIELD RD,GILBERT,MARICOPA,85234,y,rn,79,99,1.3,100,94,3.8,100,94,3.8,100,99,1.3,100,99,1.3,100,98,2.5,100,98,2.5,100,6.3,0,1.3
Pioneer Preparatory School,n/a,6510 W CLARENDON AVE,PHOENIX,MARICOPA,85033,n,,103,100,0,100,96,0,100,96,0,100,100,0,100,100,0,100,100,0,100,100,0,100,0,0,0
Pistor Middle School,n/a,5455 S CARDINAL AVE,TUCSON,PIMA,85746,y,rn,307,99,1,100,99,.3,100,98,.3,99,99,1,100,100,.3,100,100,.3,100,100,.3,100,.3,.7,0
Plc Arts Academy At Scottsdale,n/a,6140 E THUNDERBIRD RD,SCOTTSDALE,MARICOPA,85254,n,,< 20,na,na,na,na,na,na,na,na,na,na,na,na,na,na,na,na,na,na,na,na,na,na,na,na
Pomerene Elementary School,n/a,1396 N OLD POMERENE RD,POMERENE,COCHISE,85627,n,,< 20,na,na,na,na,na,na,na,na,na,na,na,na,na,na,na,na,na,na,na,na,na,na,na,na
Pomeroy Elementary School,n/a,1507 W SHAWNEE DR,CHANDLER,MARICOPA,85224,y,rn,86,90,10.5,100,83,10.5,97,80,11.6,95,90,10.5,100,90,10.5,100,91,9.3,100,91,9.3,100,12.8,2.3,9.3
Porfirio H. Gonzales Elementary School,n/a,9401 W GARFIELD ST,TOLLESON,MARICOPA,85353,y,lpn,92,95,1.1,96,95,1.1,96,95,1.1,96,96,1.1,97,95,1.1,96,97,1.1,98,97,1.1,98,1.1,0,1.1
Porter Elementary School,n/a,1350 S LINDSAY RD,MESA,MARICOPA,85204,y,rn,72,99,0,99,99,0,99,99,0,99,97,1.4,99,99,0,99,100,0,100,100,0,100,1.4,0,0
Power Ranch Elementary,n/a,4351 S RANCH HOUSE PKWY,GILBERT,MARICOPA,85297,n,,80,98,2.5,100,85,13.8,99,88,11.3,99,98,2.5,100,98,2.5,100,96,2.5,99,98,2.5,100,15,0,15
Prescott Valley Charter School,n/a,9500 E LORNA LN,PRESCOTT VALLEY,YAVAPAI,86314,n,,23,83,17.4,100,83,17.4,100,83,0,100,83,17.4,100,83,17.4,100,83,17.4,100,100,0,100,17.4,0,0
Presidio High School,n/a,1695 E FORT LOWELL RD,TUCSON,PIMA,85719,n,,47,98,2.1,100,98,2.1,100,81,2.1,83,98,2.1,100,98,2.1,100,98,2.1,100,98,2.1,100,2.1,0,2.1
Pueblo Del Sol Elementary School,n/a,5130 PASEO LAS PALMAS,SIERRA VISTA,COCHISE,85635,y,rn,89,99,1.1,100,97,2.2,100,96,2.2,100,99,1.1,100,99,1.1,100,99,1.1,100,100,0,100,2.2,0,0
Pueblo Del Sol Middle School,n/a,3449 N 39TH AVE,PHOENIX,MARICOPA,85019,y,rn,216,100,.5,100,95,.5,96,96,.5,97,99,.5,100,99,.5,100,99,.5,100,100,.5,100,.5,0,.5
Pueblo Elementary School,n/a,2803 W 20TH ST,YUMA,YUMA,85364,n,,96,100,0,100,97,0,100,97,0,100,100,0,100,100,0,100,100,0,100,100,0,100,0,0,0
Pueblo Gardens Elementary School,n/a,2210 E 33RD ST,TUCSON,PIMA,85713,y,rn,39,100,0,100,92,0,92,92,0,92,100,0,100,100,0,100,97,0,97,97,0,97,0,0,0
Pueblo Middle School,n/a,360 S TWELVE OAKS BLVD,CHANDLER,MARICOPA,85226,y,rn,270,97,0,97,97,1.1,100,97,1.1,100,98,1.9,100,98,2.2,100,98,2.2,100,99,1.1,100,4.1,0,4.1
Pusch Ridge Christian Academy,n/a,9500 N ORACLE RD,TUCSON,PIMA,85704,n,,54,93,7.4,100,33,7.4,100,32,7.4,39,93,7.4,100,93,7.4,100,89,7.4,96,93,7.4,100,7.4,0,0
Quail Run Elementary School,n/a,3303 E UTOPIA RD,PHOENIX,MARICOPA,85050,y,rn,98,95,5.1,100,80,0,81,81,0,87,96,4.1,100,95,4.1,99,94,4.1,98,96,0,96,11.2,3.1,0
Quail Run Elementary School,n/a,4600 W CORTARO FARMS RD,TUCSON,PIMA,85742,y,rn,65,95,4.6,100,91,7.7,99,85,13.8,99,95,4.6,100,99,1.5,100,92,7.7,100,99,1.5,100,18.5,1.5,0
Quartz Hill Elementary,n/a,3680 S QUARTZ ST,GILBERT,MARICOPA,85297,n,,96,98,2.1,100,90,2.1,95,88,4.2,95,98,2.1,100,99,1,100,98,2.1,100,98,2.1,100,6.3,0,0
Queen Creek Middle School,n/a,20435 S OLD ELLSWORTH RD,QUEEN CREEK,MARICOPA,85142,y,rn,198,99,1,100,94,3.5,100,94,3.5,100,99,1,100,100,.5,100,99,1,100,100,0,100,4.5,0,0
Queen Of Peace School,n/a,109 N MACDONALD,MESA,MARICOPA,85201,n,,< 20,na,na,na,na,na,na,na,na,na,na,na,na,na,na,na,na,na,na,na,na,na,na,na,na
Quentin Elementary School,n/a,11050 W WHYMAN AVE,AVONDALE,MARICOPA,85323,y,lpn,98,100,0,100,94,2,100,94,2,100,100,0,100,100,0,100,100,0,100,100,0,100,2,0,0
R E Simpson School,n/a,5330 N 23RD AVE,PHOENIX,MARICOPA,85015,y,,192,95,.5,96,100,0,100,91,0,100,97,.5,97,99,.5,100,97,0,97,100,.5,100,.5,0,0
Rainbow Valley Elementary,n/a,19716 W NARRAMORE RD,BUCKEYE,MARICOPA,85326,y,,67,96,4.5,100,90,7.5,97,90,7.5,97,96,4.5,100,97,3,100,97,3,100,100,0,100,7.5,0,0
Ralph Waldo Emerson Elementary School,n/a,915 E PALM LN,PHOENIX,MARICOPA,85006,y,rn,64,98,0,98,95,1.6,98,94,1.6,97,98,0,98,100,0,100,98,0,98,100,0,100,1.6,0,0
Ranch Elementary School,n/a,43521 N KENWORTHY RD,SAN TAN VALLEY,PINAL,85140,n,,65,100,0,100,92,6.2,100,92,6.2,100,100,0,100,100,0,100,99,1.5,100,100,0,100,7.7,0,0
Rancho Gabriela Elementary,n/a,15272 W GABRIELA DR,SURPRISE,MARICOPA,85379,y,,110,99,.9,100,97,2.7,100,97,2.7,100,99,.9,100,99,.9,100,99,.9,100,100,0,100,2.7,.9,2.7
Rancho Solano Preparatory School,n/a,9180 E VIA DE VENTURA,SCOTTSDALE,MARICOPA,85258,y,rn,41,98,0,98,78,2.4,83,81,2.4,85,98,0,98,98,0,98,98,0,98,98,0,98,2.4,0,2.4
Rancho Viejo Elementary School,n/a,1020 S AVENUE C,YUMA,YUMA,85364,n,,131,99,0,99,100,0,100,100,0,100,99,0,99,100,0,100,99,0,99,100,0,100,0,0,0
Rattlesnake Ridge Elementary,n/a,8500 N CONTINENTAL RESERVE LOOP,TUCSON,PIMA,85743,y,rn,70,99,1.4,100,99,1.4,100,99,1.4,100,99,1.4,100,99,1.4,100,99,1.4,100,99,1.4,100,1.4,1.4,1.4
Raul H Castro Middle School,n/a,2730 N 79TH AVE,PHOENIX,MARICOPA,85035,y,lpn,273,99,0,99,98,0,98,98,0,98,100,0,100,100,0,100,100,0,100,100,0,100,0,0,0
Ray Borane Middle School,n/a,840 E 12TH ST,DOUGLAS,COCHISE,85607,y,rn,128,100,0,100,90,0,93,91,0,95,99,0,99,98,0,98,99,0,99,100,0,100,0,0,0
Ray Elementary School,n/a,675 SENATOR CHASTAIN DR,KEARNY,PINAL,85237,y,rn,31,100,0,100,100,0,100,100,0,100,100,0,100,100,0,100,100,0,100,100,0,100,0,0,0
Red Mountain Ranch Elementary,n/a,6650 E RAFTRIVER ST,MESA,MARICOPA,85215,y,rn,77,95,5.2,100,95,3.9,100,94,5.2,100,95,5.2,100,94,6.5,100,96,3.9,100,100,0,100,7.8,0,0
Red Rock Elementary School,n/a,20854 E HOMESTEAD DR,RED ROCK,PINAL,85145,n,,46,100,0,100,91,8.7,100,91,8.7,100,91,4.3,96,96,4.3,100,96,4.3,100,100,0,100,8.7,0,0
Redbird Elementary School,n/a,1020 S EXTENSION RD,MESA,MARICOPA,85210,y,rn,89,99,0,99,100,0,100,99,1.1,100,100,0,100,100,0,100,100,0,100,100,0,100,1.1,1.1,0
Redeemer Christian School,n/a,719 N STAPLEY DR,MESA,MARICOPA,85203,n,,< 20,na,na,na,na,na,na,na,na,na,na,na,na,na,na,na,na,na,na,na,na,na,na,na,na
Redeemer Lutheran School,n/a,8845 N SILVERBELL RD,TUCSON,PIMA,85743,n,,< 20,na,na,na,na,na,na,na,na,na,na,na,na,na,na,na,na,na,na,na,na,na,na,na,na
Reid Traditional School Painted Rock Academy,n/a,14841 N BLACK CANYON HWY,PHOENIX,MARICOPA,85023,y,rn,44,93,2.3,96,93,2.3,96,91,2.3,96,98,2.3,100,98,2.3,100,96,2.3,98,98,2.3,100,2.3,0,2.3
Reyes Maria Ruiz Leadership Academy,n/a,4848 S 2ND ST,PHOENIX,MARICOPA,85040,n,,70,91,0,91,49,0,51,24,0,27,91,0,91,97,0,97,93,0,93,99,0,99,0,0,0
Richard B Wilson Jr School,n/a,2330 W GLOVER RD,ORO VALLEY,PIMA,85742,y,rn,210,99,1,100,96,2.4,100,95,2.9,100,97,3.3,100,97,3.3,100,99,1.4,100,99,1.4,100,3.3,1.4,1
Ridgeline Academy,n/a,33625 N NORTH VALLEY PKWY,PHOENIX,MARICOPA,85085,n,,52,56,3.8,60,56,3.8,60,0,3.8,4,54,3.8,58,52,3.8,56,54,3.8,58,52,3.8,56,3.8,0,0
Riggs,n/a,6930 S. SEVILLE BVLD. WEST,GILBERT,MARICOPA,85298,n,,127,97,3.1,100,90,7.9,100,91,7.1,100,96,3.9,100,98,1.6,100,97,3.1,100,98,2.4,100,10.2,0,0
Rillito,n/a,266 E PASTIME RD,TUCSON,PIMA,85705,y,rn,< 20,na,na,na,na,na,na,na,na,na,na,na,na,na,na,na,na,na,na,na,na,na,na,na,na
Rim Country Middle School,n/a,304 S MEADOW ST,PAYSON,GILA,85541,y,rn,169,88,11.8,100,86,11.8,100,85,12.4,100,94,5.9,100,94,5.9,100,96,4.1,100,97,3,100,14.2,0,2.4
Rincon Vista Middle School,n/a,10770 E BILBY RD,TUCSON,PIMA,85747,n,,212,98,2.4,100,96,0,96,97,2.4,99,97,2.4,100,97,3.3,100,97,2.8,100,98,2.4,100,6.1,.5,0
Rio Colorado Elementary School,n/a,1055 N MAIN ST,SAN LUIS,YUMA,85349,n,,105,100,0,100,100,0,100,100,0,100,100,0,100,100,0,100,100,0,100,100,0,100,0,0,0
Rio Vista School,n/a,10237 W ENCANTO BLVD,AVONDALE,MARICOPA,85392,n,,88,98,2.3,100,93,3.4,100,93,3.4,100,98,2.3,100,99,1.1,100,98,2.3,100,98,2.3,100,3.4,0,0
River Of Life Christian School,n/a,6902 E GOLF LINKS RD,TUCSON,PIMA,85730,n,,< 20,na,na,na,na,na,na,na,na,na,na,na,na,na,na,na,na,na,na,na,na,na,na,na,na
Rivera Elementary,n/a,5102 S CHERRY AVE,TUCSON,PIMA,85706,y,rn,98,98,0,98,100,0,100,100,0,100,100,0,100,100,0,100,100,0,100,100,0,100,0,0,0
Riverbend Prep,n/a,5625 S 51ST AVE,LAVEEN,MARICOPA,85339,n,,40,73,27.5,100,73,27.5,100,73,27.5,100,73,27.5,100,73,27.5,100,73,27.5,100,73,27.5,100,27.5,0,0
Riverview School,n/a,12701 N MAIN ST,EL MIRAGE,MARICOPA,85335,y,rn,94,99,1.1,100,96,1.1,100,96,1.1,99,100,0,100,99,1.1,100,100,0,100,99,1.1,100,2.1,0,0
Roadrunner,n/a,3540 E CHOLLA ST,PHOENIX,MARICOPA,85028,y,rn,< 20,na,na,na,na,na,na,na,na,na,na,na,na,na,na,na,na,na,na,na,na,na,na,na,na
Roadrunner Elementary School,n/a,7702 N 39TH AVE,PHOENIX,MARICOPA,85051,n,,128,98,0,98,98,.8,100,98,.8,100,99,0,99,100,0,100,100,0,100,100,0,100,.8,0,0
Roadrunner Elementary School,n/a,16651 W CALLE CARMELA,MARANA,PIMA,85653,y,rn,72,100,0,100,93,6.9,100,92,8.3,100,100,0,100,100,0,100,100,0,100,99,1.4,100,9.7,0,0
Robert And Danell Tarwater Elementary,n/a,2300 S GARDNER DR,CHANDLER,MARICOPA,85286,n,,136,98,2.2,100,94,5.1,100,93,5.9,100,98,2.2,100,98,2.2,100,97,2.9,100,98,2.2,100,6.6,0,2.2
Robert Richardson Elementary School,n/a,6901 N CAMINO DE LA TIERRA,TUCSON,PIMA,85741,n,,59,97,3.4,100,95,5.1,100,93,5.1,100,97,3.4,100,97,3.4,100,97,3.4,100,97,3.4,100,5.1,1.7,3.4
Robins Elementary School,n/a,3939 N MAGNETITE LN,TUCSON,PIMA,85745,y,rn,51,100,0,100,98,0,98,94,3.9,98,100,0,100,100,0,100,100,0,100,100,0,100,0,3.9,0
Robson Elementary School,n/a,2122 E PUEBLO AVE,MESA,MARICOPA,85204,y,rn,101,100,0,100,98,0,100,99,0,100,100,0,100,100,0,100,100,0,100,100,0,100,0,0,0
Rogers Ranch School,n/a,6735 S 47TH AVE,LAVEEN,MARICOPA,85339,y,rn,112,98,1.8,100,90,1.8,96,89,1.8,96,98,1.8,100,98,1.8,100,98,1.8,100,98,1.8,100,1.8,0,1.8
Ron Watson Middle School,n/a,9851 E 28TH ST,YUMA,YUMA,85365,y,rn,124,100,0,100,97,2.4,99,97,2.4,99,100,0,100,100,0,100,100,0,100,101,0,101,2.4,0,2.4
Ronald Reagan Fundamental School,n/a,3200 W 16TH ST,YUMA,YUMA,85364,y,,97,100,0,100,100,0,100,100,0,100,100,0,100,100,0,100,100,0,100,100,0,100,0,0,0
Roosevelt Elementary School,n/a,828 S VALENCIA,MESA,MARICOPA,85202,y,rn,74,97,0,97,100,0,100,99,0,99,99,1.4,100,97,2.7,100,99,1.4,100,99,1.4,100,4.1,1.4,0
Roskruge Bilingual Magnet Middle School,n/a,501 E 6TH ST,TUCSON,PIMA,85705,y,rn,125,98,2.4,100,96,2.4,100,95,3.2,100,97,3.2,100,98,2.4,100,98,0,98,100,0,100,3.2,0,0
Rough Rock Community School,n/a,HC 61,CHINLE,APACHE,86503,y,rn,< 20,na,na,na,na,na,na,na,na,na,na,na,na,na,na,na,na,na,na,na,na,na,na,na,na
Round Valley Middle School,n/a,126 W 2ND ST,EAGAR,APACHE,85925,n,,105,97,1.9,99,89,2.9,91,88,1.9,90,98,1,99,97,1.9,99,98,1,99,96,1.9,98,1.9,1,1
Royal Palm Middle School,n/a,8520 N 19TH AVE,PHOENIX,MARICOPA,85021,n,,226,94,1.8,96,98,0,100,97,0,99,97,1.8,98,98,0,98,97,0,97,99,1.3,100,1.8,0,1.3
Rudy G Bologna Elementary,n/a,1625 E FRYE RD,CHANDLER,MARICOPA,85225,n,,110,99,.9,100,94,4.5,100,92,6.4,100,99,.9,100,98,1.8,100,98,1.8,100,99,.9,100,1.8,.9,1.8
Ruth Fisher Elementary School,n/a,38201 W INDIAN SCHOOL RD,TONOPAH,MARICOPA,85354,n,,69,97,1.4,99,94,1.4,96,90,1.4,91,96,2.9,99,99,1.4,100,99,1.4,100,96,1.4,97,1.4,0,0
Ruth Powell Elementary School,n/a,1041 S 14TH AVE,SAFFORD,GRAHAM,85546,y,rn,78,97,1.3,99,95,1.3,96,95,1.3,96,99,1.3,100,99,1.3,100,99,1.3,100,99,1.3,100,1.3,0,1.3
S.h.a.r.p.,n/a,7302 E ADOBE ST,MESA,MARICOPA,85207,y,rn,< 20,na,na,na,na,na,na,na,na,na,na,na,na,na,na,na,na,na,na,na,na,na,na,na,na
Sacaton Middle School,n/a,70 SKILL CENTER RD,SACATON,PINAL,85247,y,rn,70,100,0,100,99,0,100,99,0,100,100,0,100,100,0,100,100,0,100,100,0,100,0,0,0
Sacred Heart Catholic School,n/a,131 N SUMMIT AVE,PRESCOTT,YAVAPAI,86301,y,rn,24,100,0,100,92,8.3,100,92,8.3,100,100,0,100,100,0,100,100,0,100,100,0,100,8.3,0,0
Sacred Heart Catholic School,n/a,207 W OAK ST,NOGALES,SANTA CRUZ,85621,n,,24,100,0,100,100,0,100,100,0,100,100,0,100,96,0,96,100,0,100,100,0,100,0,0,0
Saddleback Elementary School,n/a,18600 N PORTER RD,MARICOPA,PINAL,85138,y,rn,63,98,1.6,100,98,0,100,97,1.6,100,98,1.6,100,100,0,100,100,0,100,100,0,100,1.6,0,0
Safford Engineering/technology Magnet Mid,n/a,200 E 13TH ST,TUCSON,PIMA,85701,y,rn,139,100,0,100,89,0,89,88,0,88,100,0,100,99,0,99,100,0,100,100,0,100,0,0,0
Sage Acdemy,n/a,1055 E HEARN RD,PHOENIX,MARICOPA,85022,n,,< 20,na,na,na,na,na,na,na,na,na,na,na,na,na,na,na,na,na,na,na,na,na,na,na,na
Sahuarita Middle School,n/a,350 W SAHUARITA RD BLDG 18,SAHUARITA,PIMA,85629,n,rn,278,99,1.4,100,98,1.8,99,98,1.8,99,99,1.4,100,99,1.1,100,98,1.8,100,99,1.1,100,2.5,.4,1.1
Sahuaro Ranch Elementary,n/a,10401 N 63RD AVE,GLENDALE,MARICOPA,85302,y,rn,56,96,1.8,98,86,1.8,88,86,1.8,88,96,1.8,98,96,1.8,98,96,1.8,98,96,1.8,98,1.8,0,1.8
Sahuaro School,n/a,12835 N 33RD AVE,PHOENIX,MARICOPA,85029,n,,87,98,1.1,99,97,2.3,100,95,2.3,99,99,1.1,100,99,1.1,100,99,1.1,100,98,1.1,99,2.3,0,0
Saint Francis Of Assisi Of Yuma Arizona,n/a,700 W 18TH ST,YUMA,YUMA,85364,n,,25,100,0,100,100,0,100,100,0,100,100,0,100,100,0,100,100,0,100,100,0,100,0,0,0
Saint John Xxiii Catholic School,n/a,16235 N 60TH ST,SCOTTSDALE,MARICOPA,85254,y,rn,62,97,3.2,100,97,3.2,100,97,3.2,100,97,3.2,100,97,3.2,100,97,3.2,100,97,3.2,100,3.2,0,3.2
Saint Michaels Elementary School,n/a,"ROUTE 12, 1 LUPTON RD,",SAINT MICHAELS,APACHE,86511,n,,30,100,0,100,100,0,100,83,0,83,100,0,100,100,0,100,100,0,100,100,0,100,0,0,0
Saint Theresa Catholic School,n/a,417 E MCKINLEY ST,TEMPE,MARICOPA,85281,n,,47,98,2.1,100,98,2.1,100,98,2.1,100,98,2.1,100,98,2.1,100,98,2.1,100,98,2.1,100,2.1,4.3,2.1
Saints Peter And Paul School,n/a,1436 N CAMPBELL AVE,TUCSON,PIMA,85719,y,rn,52,100,0,100,100,0,100,100,0,100,100,0,100,100,0,100,100,0,100,100,0,100,0,0,0
Salk Elementary School,n/a,7029 E BROWN RD,MESA,MARICOPA,85207,y,rn,91,98,2.2,100,97,2.2,100,97,2.2,100,99,1.1,100,99,1.1,100,99,1.1,100,99,1.1,100,3.3,0,0
Salome Elementary School,n/a,38128 SAGUARO ST.,SALOME,LA PAZ,85348,n,,< 20,na,na,na,na,na,na,na,na,na,na,na,na,na,na,na,na,na,na,na,na,na,na,na,na
Salt River Elementary School,n/a,4815 N CENTER ST,SCOTTSDALE,MARICOPA,85256,y,rn,43,100,0,100,100,0,100,100,0,100,100,0,100,100,0,100,100,0,100,100,0,100,0,0,0
San Carlos Rice Elementary,n/a,100 SAN CARLOS AVE,SAN CARLOS,GILA,85550,y,rn,146,100,0,100,79,0,79,77,0,77,100,0,100,100,0,100,99,0,99,100,0,100,0,0,0
San Fernando Elementary School,n/a,1 SCHOOLHOUSE DR,SASABE,PIMA,85633,n,,< 20,na,na,na,na,na,na,na,na,na,na,na,na,na,na,na,na,na,na,na,na,na,na,na,na
San Francisco De Asis Catholic School,n/a,1600 E ROUTE 66,FLAGSTAFF,COCONINO,86001,n,,< 20,na,na,na,na,na,na,na,na,na,na,na,na,na,na,na,na,na,na,na,na,na,na,na,na
San Marcos Elementary School,n/a,451 W FRYE RD,CHANDLER,MARICOPA,85225,n,,72,100,0,100,83,16.7,100,82,18.1,100,99,1.4,100,99,1.4,100,100,0,100,100,0,100,18.1,0,0
San Simon School,n/a,2226 WEST BUSINESS I-10,SAN SIMON,COCHISE,85632,n,,< 20,na,na,na,na,na,na,na,na,na,na,na,na,na,na,na,na,na,na,na,na,na,na,na,na
San Tan Charter School,n/a,3959 E ELLIOT RD,GILBERT,MARICOPA,85234,n,,81,86,9.9,96,64,9.9,78,69,9.9,83,86,9.9,96,88,9.9,98,86,9.9,96,99,0,99,9.9,0,0
San Tan Elementary,n/a,3443 E CALISTOGA DR,GILBERT,MARICOPA,85297,n,,101,98,2,100,100,0,100,98,2,100,98,2,100,98,2,100,98,2,100,100,0,100,2,2,2
San Tan Heights,n/a,2500 W SAN TAN HEIGHTS BLVD,SAN TAN VALLEY,PINAL,85142,y,rn,63,97,1.6,98,94,1.6,98,92,1.6,97,98,1.6,100,98,1.6,100,98,1.6,100,98,0,98,1.6,0,1.6
San Xavier Mission School,n/a,1980 W SAN XAVIER RD,TUCSON,PIMA,85746,y,rn,< 20,na,na,na,na,na,na,na,na,na,na,na,na,na,na,na,na,na,na,na,na,na,na,na,na
Sanborn Elementary School,n/a,700 N SUPERSTITION BLVD,CHANDLER,MARICOPA,85225,n,,88,98,2.3,100,93,1.1,100,98,1.1,100,98,2.3,100,99,1.1,100,98,2.3,100,99,1.1,100,2.3,0,0
Sanders Middle School,n/a,I-40 HWY 191 N.,SANDERS,APACHE,86512,n,,55,100,0,100,56,0,67,51,0,62,100,0,100,100,0,100,100,0,100,100,0,100,0,0,0
Sandpiper Elementary School,n/a,6724 E HEARN RD,SCOTTSDALE,MARICOPA,85254,y,rn,47,100,0,100,92,8.5,100,89,10.6,100,100,0,100,100,0,100,100,0,100,100,0,100,12.8,0,0
Santa Clara,n/a,6910 S SANTA CLARA AVE,TUCSON,PIMA,85756,y,rn,85,100,0,100,100,0,100,84,0,84,99,0,99,100,0,100,100,0,100,100,0,100,0,0,0
Santa Cruz Elementary,n/a,19845 N COSTA DEL SOL,MARICOPA,PINAL,85239,y,rn,52,98,1.9,100,90,3.8,98,90,3.8,98,98,1.9,100,98,1.9,100,96,1.9,98,98,1.9,100,3.8,0,0
Santa Cruz School,n/a,29 W 22ND ST,TUCSON,PIMA,85713,y,rn,24,100,0,100,100,0,100,96,0,100,100,0,100,100,0,100,100,0,100,100,0,100,4.2,0,0
Santa Fe Elementary School,n/a,9880 N 77TH AVE,PEORIA,MARICOPA,85345,y,lpn,81,98,2.5,100,91,4.9,100,90,6.2,100,99,1.2,100,99,1.2,100,98,2.5,100,99,1.2,100,6.2,0,1.2
Santa Maria Middle School,n/a,7250 W LOWER BUCKEYE RD,PHOENIX,MARICOPA,85043,n,,264,100,.4,100,97,.4,100,97,.4,100,99,.4,100,100,.4,100,100,.4,100,100,.4,100,.4,0,0
Santa Rosa Elementary School,n/a,21400 N SANTA ROSA DR,MARICOPA,PINAL,85239,y,lpn,48,100,0,100,94,2.1,100,94,2.1,100,98,2.1,100,98,2.1,100,98,2.1,100,98,2.1,100,2.1,0,0
Santan Elementary School,n/a,1550 E CHANDLER HEIGHTS RD,CHANDLER,MARICOPA,85249,n,,157,98,2.5,100,93,4.5,100,93,4.5,100,98,1.9,100,98,2.5,100,98,1.9,100,98,1.9,100,3.8,.6,1.9
Satori Charter School,n/a,3727 N 1ST AVE,TUCSON,PIMA,85719,n,,< 20,na,na,na,na,na,na,na,na,na,na,na,na,na,na,na,na,na,na,na,na,na,na,na,na
Scottsdale Christian Academy,n/a,14400 N TATUM BLVD,PHOENIX,MARICOPA,85032,y,rn,54,93,7.4,100,91,9.3,100,87,13,100,93,7.4,100,94,5.6,100,89,11.1,100,93,7.4,100,16.7,0,7.4
Scottsdale Country Day School,n/a,10460 N 56TH ST,SCOTTSDALE,MARICOPA,85253,n,,< 20,na,na,na,na,na,na,na,na,na,na,na,na,na,na,na,na,na,na,na,na,na,na,na,na
Scottsdale Preparatory Academy,n/a,16537 N 92ND ST,SCOTTSDALE,MARICOPA,85260,n,,113,97,2.7,100,94,1.8,98,94,2.7,98,97,2.7,100,97,3.5,100,96,2.7,98,97,2.7,100,4.4,0,0
Secrist Middle School,n/a,3400 S HOUGHTON RD,TUCSON,PIMA,85730,y,rn,120,95,.8,96,96,.8,97,95,.8,96,95,.8,96,96,.8,97,97,.8,98,98,.8,99,.8,0,0
Self Development Academy - Phoenix,n/a,4098 E MARSHALL AVE,GILBERT,MARICOPA,85297,n,,29,100,0,100,97,0,100,97,0,100,100,0,100,100,0,100,100,0,100,100,0,100,0,0,0
Self Development Charter School,n/a,1721 N GREENFIELD RD,MESA,MARICOPA,85205,n,,30,100,0,100,87,0,97,87,0,97,100,0,100,100,0,100,100,0,100,100,0,100,0,0,0
Seligman Elementary School,n/a,500 N MAIN ST,SELIGMAN,YAVAPAI,86337,y,rn,< 20,na,na,na,na,na,na,na,na,na,na,na,na,na,na,na,na,na,na,na,na,na,na,na,na
Sentinel Elementary School,n/a,53802 W US HWY 80,DATELAND,YUMA,85333,n,,< 20,na,na,na,na,na,na,na,na,na,na,na,na,na,na,na,na,na,na,na,na,na,na,na,na
Sequoia Charter School,n/a,1460 S HORNE,MESA,MARICOPA,85204,n,,82,99,0,99,100,0,100,96,0,96,100,0,100,98,0,98,100,0,100,100,0,100,0,0,0
Sequoia Choice Arizona Distance Learning,n/a,2331 N HORNE,MESA,MARICOPA,85203,n,,24,83,16.7,100,42,37.5,79,42,41.7,83,71,29.2,100,71,29.2,100,79,20.8,100,79,20.8,100,54.2,0,16.7
Sequoia Lehi Charter School,n/a,2331 N HORNE,MESA,MARICOPA,85203,n,,< 20,na,na,na,na,na,na,na,na,na,na,na,na,na,na,na,na,na,na,na,na,na,na,na,na
Sequoia Pathway Academy,n/a,19287 N PORTER RD,MARICOPA,PINAL,85138,n,,79,98,2.5,100,86,6.3,98,85,8.9,99,94,6.3,100,94,6.3,100,98,2.5,100,98,2.5,100,13.9,0,13.9
Sequoia School For The Deaf And Hard Of Hearing,n/a,1460 S HORNE,MESA,MARICOPA,85204,n,,< 20,na,na,na,na,na,na,na,na,na,na,na,na,na,na,na,na,na,na,na,na,na,na,na,na
Sequoia Village,n/a,982 FULL HOUSE LN,SHOW LOW,NAVAJO,85901,n,,22,91,9.1,100,77,18.2,100,77,18.2,100,82,18.2,100,82,18.2,100,82,18.2,100,86,13.6,100,13.6,4.5,9.1
Settler's Point,n/a,423 E SETTLERS POINT DR OFC,GILBERT,MARICOPA,85296,y,rn,99,98,2,100,93,3,100,93,4,100,98,2,100,98,2,100,96,4,100,100,0,100,4,0,2
Sevilla West,n/a,3851 W MISSOURI AVE,PHOENIX,MARICOPA,85019,y,,237,99,.4,100,98,.4,100,98,.4,100,99,.4,100,100,.4,100,99,.4,100,99,.8,100,.8,0,.4
Shaw Butte Elementary,n/a,12202 N 21ST AVE,PHOENIX,MARICOPA,85029,n,,67,99,0,99,100,0,100,100,0,100,100,0,100,100,0,100,100,0,100,100,0,100,0,0,0
Sheely Farms Elementary School,n/a,9450 W ENCANTO BLVD,PHOENIX,MARICOPA,85037,y,rn,84,98,1.2,99,92,2.4,96,92,2.4,96,99,1.2,100,99,1.2,100,98,1.2,99,100,0,100,2.4,0,0
Shepherd Of The Desert Lutheran School,n/a,9590 E SHEA BLVD,SCOTTSDALE,MARICOPA,85260,n,,< 20,na,na,na,na,na,na,na,na,na,na,na,na,na,na,na,na,na,na,na,na,na,na,na,na
Show Low Junior High School,n/a,761 E MCNEIL,SHOW LOW,NAVAJO,85901,n,,209,95,4.8,100,85,14.8,100,84,15.8,100,94,5.7,100,94,6.2,100,95,5.3,100,96,4.3,100,15.8,.5,0
Shumway,n/a,1325 N SHUMWAY AVE,CHANDLER,MARICOPA,85225,n,,72,99,1.4,100,92,2.8,100,96,2.8,100,97,2.8,100,97,2.8,100,100,0,100,99,1.4,100,2.8,4.2,2.8
Sierra Middle School,n/a,5801 S DEL MORAL BLVD,TUCSON,PIMA,85706,y,rn,120,100,0,100,94,0,94,94,0,94,99,0,99,99,0,99,100,0,100,100,0,100,0,0,0
Sierra Verde Elementary,n/a,7241 W ROSE GARDEN LN,GLENDALE,MARICOPA,85308,y,rn,122,99,.8,100,95,2.5,100,95,2.5,100,99,.8,100,100,0,100,100,0,100,100,0,100,1.6,.8,0
Silvestre S Herrera School,n/a,1350 S 11TH ST,PHOENIX,MARICOPA,85034,n,,95,99,1.1,100,84,3.2,91,82,4.2,90,99,1.1,100,99,1.1,100,99,1.1,100,99,1.1,100,4.2,0,1.1
Sinagua Middle School,n/a,3950 E BUTLER AVE,FLAGSTAFF,COCONINO,86004,y,rn,399,97,3,100,96,4.3,100,96,4.5,100,97,2.8,100,98,2.3,100,98,2.5,100,92,8.3,100,4.8,0,0
Sirrine Elementary School,n/a,591 W MESQUITE ST,CHANDLER,MARICOPA,85225,y,rn,34,97,2.9,100,100,0,100,100,0,100,97,0,97,94,2.9,97,97,0,97,100,0,100,2.9,2.9,2.9
Skull Valley Elementary School District#15,n/a,3150 OLD SKULL VALLEY RD. SOUTH,SKULL VALLEY,YAVAPAI,86338,n,rn,< 20,na,na,na,na,na,na,na,na,na,na,na,na,na,na,na,na,na,na,na,na,na,na,na,na
Sky View,n/a,8624 W SWEETWATER AVE,PEORIA,MARICOPA,85381,y,lpn,51,98,0,98,94,5.9,100,94,5.9,100,100,0,100,98,2,100,96,2,98,100,0,100,5.9,0,0
Skyline District 5,n/a,975 N. PRESCHOOL RD.,BAPCHULE,PINAL,85121,y,rn,25,100,0,100,100,0,100,100,0,100,100,0,100,100,0,100,100,0,100,100,0,100,0,0,0
Skyline Ranch,n/a,1084 SAN TAN HILLS DR,SAN TAN VALLEY,PINAL,85143,n,,106,98,.9,99,78,.9,79,69,.9,70,95,.9,96,95,.9,96,95,.9,96,100,0,100,.9,0,0
Skyview School,n/a,125 S RUSH ST,PRESCOTT,YAVAPAI,86303,n,,25,76,24,100,60,32,92,60,32,92,76,24,100,64,32,96,72,28,100,72,28,100,32,0,24
Smoketree Elementary School,n/a,2395 SMOKETREE AVE N,LAKE HAVASU CITY,MOHAVE,86403,y,rn,64,97,3.1,100,95,3.1,100,95,3.1,100,97,3.1,100,97,3.1,100,97,3.1,100,97,3.1,100,3.1,0,0
Snowflake Intermediate School,n/a,62 W 2ND ST S,SNOWFLAKE,NAVAJO,85937,y,rn,121,97,3.3,100,93,6.6,100,93,7.4,100,96,4.1,100,98,2.5,100,97,3.3,100,98,2.5,100,6.6,1.7,1.7
Solano School,n/a,1526 W MISSOURI AVE,PHOENIX,MARICOPA,85015,n,,110,98,.9,99,61,.9,62,59,.9,60,97,.9,98,98,.9,99,96,.9,97,99,.9,100,.9,0,.9
Solomon Elementary School,n/a,2250 S STEVENS AVE,SOLOMON,GRAHAM,85551,n,,< 20,na,na,na,na,na,na,na,na,na,na,na,na,na,na,na,na,na,na,na,na,na,na,na,na
Somerton Middle School,n/a,1011 N SOMERTON AVE,SOMERTON,YUMA,85350,y,rn,342,100,0,100,99,.3,100,99,.3,100,100,0,100,100,0,100,100,0,100,100,0,100,0,.3,0
Sonoma Ranch Elementary School,n/a,601 BUCHANAN ST,GILBERT,MARICOPA,85233,n,,71,97,0,97,92,4.2,100,90,5.6,100,94,5.6,100,93,7,100,97,2.8,100,96,4.2,100,9.9,0,0
Sonoran Foothills School,n/a,32150 N NORTH FOOTHILLS DR,PHOENIX,MARICOPA,85085,y,rn,69,96,4.3,100,74,0,77,80,0,83,97,0,97,94,0,94,96,4.3,100,97,0,97,4.3,0,0
Sonoran Heights Elementary,n/a,11405 N GREER RANCH PKWY,SURPRISE,MARICOPA,85379,y,lpn,96,95,5.2,100,96,4.2,100,92,7.3,99,95,5.2,100,95,5.2,100,93,7.3,100,95,5.2,100,9.4,0,7.3
Sonoran Science Academy - Peoria,n/a,17667 N 91ST AVE,PEORIA,MARICOPA,85382,n,,26,100,0,100,92,0,92,92,0,92,100,0,100,100,0,100,100,0,100,100,0,100,0,0,0
Sonoran Science Academy - Phoenix,n/a,4837 E MCDOWELL RD,PHOENIX,MARICOPA,85008,n,,24,92,0,92,83,0,83,83,0,83,96,0,96,96,0,96,96,0,96,100,0,100,0,0,0
Sonoran Science Academy Davis-monthan,n/a,5741 E IRONWOOD ST,TUCSON,PIMA,85708,n,lpn,43,98,2.3,100,91,7,100,93,4.7,100,98,2.3,100,95,4.7,100,95,2.3,98,98,2.3,100,7,0,2.3
Sonoran Science Academy Tucson Mh,n/a,2325 W SUNSET RD,TUCSON,PIMA,85741,n,,60,97,3.3,100,90,1.7,92,87,5,92,93,3.3,97,97,3.3,100,95,3.3,98,95,3.3,98,5,0,1.7
Sonoran Science Adademy - Broadway,n/a,6880 E BROADWAY BLVD,TUCSON,PIMA,85710,n,,27,100,0,100,82,7.4,100,82,7.4,100,96,0,96,100,0,100,100,0,100,100,0,100,7.4,0,0
Sonoran Sky Elementary School,n/a,10150 W MISSOURI AVE,GLENDALE,MARICOPA,85307,n,,78,100,0,100,99,0,99,99,0,99,100,0,100,100,0,100,100,0,100,100,0,100,1.3,0,0
Sonoran Sky Elementary School,n/a,12990 N 75TH ST,SCOTTSDALE,MARICOPA,85260,y,rn,88,93,6.8,100,91,8,100,93,5.7,100,92,6.8,99,92,8,100,94,5.7,100,96,4.5,100,9.1,0,9.1
Sousa Elementary,n/a,616 N MOUNTAIN RD,MESA,MARICOPA,85207,y,rn,92,91,4.3,96,95,0,95,94,6.5,100,94,4.3,98,95,5.4,100,95,5.4,100,100,0,100,8.7,1.1,0
South Pointe Junior High School,n/a,217 E OLYMPIC DR,PHOENIX,MARICOPA,85042,n,,41,98,0,98,73,0,78,73,0,78,95,0,95,95,0,95,98,0,98,100,0,100,0,0,0
South Valley Prep And Arts School,n/a,7450 S 40TH ST,PHOENIX,MARICOPA,85042,n,,53,94,1.9,96,93,3.8,98,93,3.8,98,96,3.8,100,96,3.8,100,100,0,100,100,0,100,7.5,0,0
Southgate Academy,n/a,850 W VALENCIA RD,TUCSON,PIMA,85706,n,,59,98,1.7,100,97,1.7,98,97,1.7,98,98,1.7,100,98,1.7,100,100,0,100,98,1.7,100,1.7,0,0
Southside Community School,n/a,2701 S CAMPBELL AVE,TUCSON,PIMA,85713,n,,29,100,0,100,97,3.4,100,97,3.4,100,100,0,100,100,0,100,100,0,100,100,0,100,3.4,0,0
Southwest,n/a,1111 W DOBBINS RD,PHOENIX,MARICOPA,85041,y,lpn,45,100,0,100,100,0,100,100,0,100,100,0,100,100,0,100,100,0,100,100,0,100,0,0,0
Southwest Indian School - Living Word Academy,n/a,HWY 86,SELLS,PIMA,85634,n,,< 20,na,na,na,na,na,na,na,na,na,na,na,na,na,na,na,na,na,na,na,na,na,na,na,na
Southwestern Christian School,n/a,3261 S AVENUE 6 E,YUMA,YUMA,85365,n,,29,100,0,100,100,0,100,14,0,14,100,0,100,93,0,93,100,0,100,97,0,97,0,0,0
Spectrum Elementary,n/a,2846 S SPECTRUM WAY,GILBERT,MARICOPA,85295,y,rn,114,96,4.4,100,90,5.3,98,90,5.3,98,96,4.4,100,96,4.4,100,97,2.6,100,96,4.4,100,5.3,2.6,0
Ss. Simon And Jude School,n/a,6351 N 27TH AVE,PHOENIX,MARICOPA,85017,y,rn,48,98,2.1,100,96,2.1,100,96,2.1,100,98,2.1,100,98,2.1,100,98,2.1,100,98,2.1,100,2.1,0,0
St Ambrose Catholic School,n/a,300 S TUCSON BLVD,TUCSON,PIMA,85716,n,,27,100,0,100,100,0,100,96,3.7,100,100,0,100,100,0,100,100,0,100,100,0,100,0,3.7,0
St Anthony Catholic School,n/a,1400 E OWENS,SHOW LOW,NAVAJO,85901,n,,< 20,na,na,na,na,na,na,na,na,na,na,na,na,na,na,na,na,na,na,na,na,na,na,na,na
St Catherine Of Siena,n/a,6413 S CENTRAL AVE,PHOENIX,MARICOPA,85042,n,,< 20,na,na,na,na,na,na,na,na,na,na,na,na,na,na,na,na,na,na,na,na,na,na,na,na
St Elizabeth Ann Seton School,n/a,8650 N SHANNON RD,TUCSON,PIMA,85742,n,,28,100,0,100,100,0,100,100,0,100,100,0,100,100,0,100,100,0,100,100,0,100,0,0,0
St Peter Indian Mission Catholic School,n/a,1500 NORTH ST PETER RD,BAPCHULE,PINAL,85121,y,rn,< 20,na,na,na,na,na,na,na,na,na,na,na,na,na,na,na,na,na,na,na,na,na,na,na,na
St Thomas Aquinas Grade School,n/a,13720 W THOMAS RD,AVONDALE,MARICOPA,85392,y,rn,40,100,0,100,95,5,100,95,5,100,100,0,100,100,0,100,100,0,100,100,0,100,5,0,0
St Vincent De Paul Catholic School,n/a,3130 N 51ST AVE,PHOENIX,MARICOPA,85031,n,,68,100,0,100,100,0,100,29,0,29,100,0,100,100,0,100,100,0,100,100,0,100,0,0,0
St. Agnes Catholic School,n/a,2311 E PALM LN,PHOENIX,MARICOPA,85006,n,,< 20,na,na,na,na,na,na,na,na,na,na,na,na,na,na,na,na,na,na,na,na,na,na,na,na
St. Anthony Of Padua Catholic School,n/a,501 E 2ND ST,CASA GRANDE,PINAL,85122,n,,< 20,na,na,na,na,na,na,na,na,na,na,na,na,na,na,na,na,na,na,na,na,na,na,na,na
St. Cyril Of Alexandria,n/a,4725 E PIMA ST,TUCSON,PIMA,85712,n,,47,100,0,100,100,0,100,98,2.1,100,100,0,100,100,0,100,100,0,100,100,0,100,2.1,0,0
St. David Elementary School,n/a,70 PATTON ST,SAINT DAVID,COCHISE,85630,y,rn,29,90,10.3,100,90,10.3,100,90,10.3,100,90,10.3,100,90,10.3,100,90,10.3,100,90,10.3,100,0,0,10.3
St. Francis Xavier Elementary School,n/a,4715 N CENTRAL AVE,PHOENIX,MARICOPA,85012,y,rn,74,100,0,100,100,0,100,100,0,100,100,0,100,100,0,100,100,0,100,100,0,100,0,0,0
St. Gregory School - 6th Grade,n/a,3440 N 18TH AVE,PHOENIX,MARICOPA,85015,n,,47,98,0,98,94,0,94,11,0,11,98,0,98,98,0,98,98,0,98,100,0,100,2.1,0,2.1
St. Jerome Catholic School,n/a,10815 N 35TH AVE,PHOENIX,MARICOPA,85029,y,rn,< 20,na,na,na,na,na,na,na,na,na,na,na,na,na,na,na,na,na,na,na,na,na,na,na,na
St. John Bosco,n/a,16035 S 48TH ST,PHOENIX,MARICOPA,85048,y,rn,47,94,6.4,100,94,6.4,100,94,6.4,100,100,0,100,98,2.1,100,100,0,100,100,0,100,6.4,0,0
St. John The Evangelist Catholic School,n/a,600 W AJO WAY,TUCSON,PIMA,85713,y,rn,33,100,0,100,91,0,91,91,0,91,100,0,100,100,0,100,100,0,100,100,0,100,0,0,0
St. John Vianney Catholic School,n/a,539 E LA PASADA BLVD,GOODYEAR,MARICOPA,85338,n,,30,97,0,97,97,0,100,97,0,100,100,0,100,100,0,100,90,0,90,100,0,100,0,0,0
St. Johns Middle School,n/a,555 7TH S,SAINT JOHNS,APACHE,85936,n,,67,93,7.5,100,90,10.4,100,60,10.4,100,91,7.5,99,91,7.5,99,93,7.5,100,93,7.5,100,9,0,9
St. Joseph Catholic School,n/a,215 S CRAYCROFT RD,TUCSON,PIMA,85711,n,,28,100,0,100,93,3.6,100,93,3.6,100,100,0,100,100,0,100,100,0,100,100,0,100,3.6,0,0
St. Louis The King Cathoic School,n/a,4331 W MARYLAND AVE,GLENDALE,MARICOPA,85301,n,,24,100,0,100,100,0,100,100,0,100,100,0,100,100,0,100,100,0,100,100,0,100,0,0,0
St. Mary-basha Catholic School,n/a,200 W GALVESTON ST,CHANDLER,MARICOPA,85225,y,rn,56,100,0,100,91,1.8,93,89,1.8,91,100,0,100,100,0,100,98,0,98,100,0,100,1.8,0,0
St. Michael's Parish Day School,n/a,602 N WILMOT RD,TUCSON,PIMA,85711,y,rn,41,100,0,100,100,0,100,98,2.4,100,100,0,100,98,2.4,100,98,2.4,100,100,0,100,0,7.3,0
St. Peter's Episcopal Montessori School,n/a,400 S OLD LITCHFIELD RD,LITCHFIELD PARK,MARICOPA,85340,n,,< 20,na,na,na,na,na,na,na,na,na,na,na,na,na,na,na,na,na,na,na,na,na,na,na,na
St. Thomas The Apostle Catholic School,n/a,4510 N 24TH ST,PHOENIX,MARICOPA,85016,y,rn,54,98,1.9,100,98,1.9,100,98,1.9,100,98,1.9,100,98,1.9,100,98,1.9,100,98,1.9,100,1.9,0,1.9
St. Timothy Catholic School,n/a,2520 S ALMA SCHOOL RD,MESA,MARICOPA,85210,y,rn,21,95,4.8,100,81,14.3,100,81,14.3,100,95,4.8,100,95,4.8,100,95,4.8,100,95,4.8,100,14.3,0,0
Stanfield Elementary School,n/a,515 S STANFIELD RD,STANFIELD,PINAL,85172,n,,64,100,0,100,100,0,100,100,0,100,100,0,100,100,0,100,100,0,100,100,0,100,0,0,0
Star Charter School,n/a,145 LEUPP RD,FLAGSTAFF,COCONINO,86004,n,,< 20,na,na,na,na,na,na,na,na,na,na,na,na,na,na,na,na,na,na,na,na,na,na,na,na
Starline Elementary School,n/a,3150 STARLINE DR,LAKE HAVASU CITY,MOHAVE,86406,y,rn,99,94,6.1,100,91,9.1,100,91,9.1,100,94,6.1,100,94,6.1,100,94,6.1,100,94,6.1,100,9.1,0,6.1
Step Up School,n/a,44 E 5TH ST,MESA,MARICOPA,85201,n,,< 20,na,na,na,na,na,na,na,na,na,na,na,na,na,na,na,na,na,na,na,na,na,na,na,na
Stepping Stones Academy,n/a,35812 N 7TH ST,PHOENIX,MARICOPA,85086,n,,21,95,4.8,100,95,0,95,95,4.8,100,95,4.8,100,95,4.8,100,95,4.8,100,100,0,100,4.8,0,0
Stetson Hills Elementary,n/a,25475 N STETSON HILLS LOOP,PHOENIX,MARICOPA,85083,y,rn,130,98,2.3,100,93,6.9,100,93,6.9,100,99,.8,100,97,3.1,100,99,1.5,100,99,1.5,100,9.2,.8,0
Steven R Jasinski Elementary School,n/a,4280 S 246TH AVE,BUCKEYE,MARICOPA,85326,n,,117,94,4.3,98,97,1.7,99,91,6.8,98,95,4.3,99,95,5.1,100,96,2.6,98,100,0,100,6.8,2.6,0
Stevenson Elementary School,n/a,638 S 96TH ST,MESA,MARICOPA,85208,y,rn,106,99,.9,100,98,1.9,100,97,2.8,100,99,.9,100,99,.9,100,99,.9,100,98,1.9,100,2.8,0,.9
Sullivan,n/a,2 N 31ST AVE,PHOENIX,MARICOPA,85009,n,,73,100,0,100,99,0,99,99,0,99,100,0,100,100,0,100,100,0,100,100,0,100,0,0,0
Summit Academy,n/a,1560 W SUMMIT PL,CHANDLER,MARICOPA,85224,y,rn,88,99,0,99,89,0,93,92,0,94,100,0,100,100,0,100,100,0,100,100,0,100,2.3,0,0
Summit Of School Ahwatukee,n/a,4515 E MUIRWOOD DR,PHOENIX,MARICOPA,85048,n,,27,96,3.7,100,85,0,85,85,0,85,96,3.7,100,96,3.7,100,96,3.7,100,93,3.7,96,0,3.7,0
Summit School,n/a,33622 N MOUNTAIN VISTA BLVD,SAN TAN VALLEY,PINAL,85142,n,,< 20,na,na,na,na,na,na,na,na,na,na,na,na,na,na,na,na,na,na,na,na,na,na,na,na
Summit View,n/a,1900 E SUMMIT ST,TUCSON,PIMA,85756,y,rn,85,100,0,100,100,0,100,100,0,100,100,0,100,100,0,100,100,0,100,100,0,100,0,0,0
Sun Valley Charter School,n/a,5806 S 35TH AVE,PHOENIX,MARICOPA,85041,n,,35,97,2.9,100,91,2.9,100,63,2.9,94,97,2.9,100,97,2.9,100,97,2.9,100,97,2.9,100,2.9,0,2.9
Sun Valley Elementary,n/a,8361 N 95TH AVE,PEORIA,MARICOPA,85345,y,lpn,97,98,2.1,100,98,2.1,100,98,2.1,100,98,2.1,100,98,2.1,100,98,2.1,100,100,0,100,2.1,0,2.1
Sun Valley Indian School (now Native American Christian Academy),n/a,8450 S SUN VALLEY RD,SUN VALLEY,NAVAJO,86029,n,,< 20,na,na,na,na,na,na,na,na,na,na,na,na,na,na,na,na,na,na,na,na,na,na,na,na
Sunburst Elementary School,n/a,14218 N 47TH AVE,GLENDALE,MARICOPA,85306,n,,91,96,4.4,100,96,3.3,100,96,3.3,100,96,4.4,100,97,3.3,100,95,5.5,100,99,1.1,100,6.6,0,6.6
Sundance Elementary School,n/a,23800 W HADLEY ST,BUCKEYE,MARICOPA,85326,n,lpn,74,96,4.1,100,93,4.1,100,93,4.1,100,96,4.1,100,96,4.1,100,96,4.1,100,96,4.1,100,4.1,0,4.1
Sundance Elementary School,n/a,7051 W CHOLLA ST,PEORIA,MARICOPA,85345,y,rn,72,97,2.8,100,97,2.8,100,97,2.8,100,97,2.8,100,97,2.8,100,97,2.8,100,100,0,100,2.8,0,0
Sunflower,n/a,5490 W PARADISE LN,GLENDALE,MARICOPA,85306,y,rn,< 20,na,na,na,na,na,na,na,na,na,na,na,na,na,na,na,na,na,na,na,na,na,na,na,na
Sunland Elementary School,n/a,5401 S 7TH AVE,PHOENIX,MARICOPA,85041,y,lpn,68,100,0,100,99,1.5,100,97,1.5,100,100,0,100,100,0,100,100,0,100,100,0,100,1.5,0,0
Sunnyslope Elementary School,n/a,245 E MOUNTAIN VIEW RD,PHOENIX,MARICOPA,85020,n,,97,100,0,100,99,0,100,98,1,100,100,0,100,100,0,100,100,0,100,100,0,100,1,0,0
Sunrise Elementary School,n/a,17624 N 31ST AVE,PHOENIX,MARICOPA,85053,y,lpn,67,94,4.5,99,96,3,100,94,4.5,100,96,4.5,100,100,0,100,100,0,100,100,0,100,4.5,0,0
Sunset Canyon,n/a,2727 E SIESTA LN,PHOENIX,MARICOPA,85050,n,,68,97,2.9,100,96,2.9,100,96,2.9,100,97,2.9,100,97,2.9,100,97,2.9,100,97,2.9,100,2.9,0,2.9
Sunset Elementary,n/a,4626 W MOUNTAIN VIEW RD,GLENDALE,MARICOPA,85302,n,,83,98,0,98,95,0,96,95,0,96,100,0,100,100,0,100,98,0,98,100,0,100,0,0,0
Sunset Heights Elementary School,n/a,9687 W ADAM AVE,PEORIA,MARICOPA,85382,y,rn,128,99,.8,100,94,4.7,100,94,4.7,100,99,.8,100,99,.8,100,99,.8,100,99,.8,100,6.3,0,.8
Sunset Hills Elementary,n/a,17825 W SIERRA MONTANA LOOP,SURPRISE,MARICOPA,85388,y,,128,97,3.1,100,96,3.9,100,95,4.7,100,98,2.3,100,97,3.1,100,98,2.3,100,98,2.3,100,8.6,0,.8
Sunset Ridge Elementary,n/a,8490 W MISSOURI AVE,GLENDALE,MARICOPA,85305,n,,86,99,1.2,100,94,2.3,100,93,3.5,100,100,0,100,100,0,100,100,0,100,100,0,100,2.3,1.2,2.3
Sunset Ridge Elementary,n/a,35707 N 33RD LN,PHOENIX,MARICOPA,85086,y,rn,112,89,7.1,96,90,7.1,97,88,7.1,95,91,6.3,97,91,7.1,98,93,3.6,96,100,0,100,7.1,7.1,0
Sunset Vista,n/a,7775 W ORANGEWOOD AVE,GLENDALE,MARICOPA,85303,y,lpn,94,96,4.3,100,82,0,84,78,0,78,96,0,96,98,0,98,97,0,97,99,0,99,1.1,0,0
Superstition Springs Elementary,n/a,7125 E MONTEREY AVE,MESA,MARICOPA,85209,y,rn,106,92,8.5,100,85,8.5,100,83,10.4,100,94,5.7,100,92,8.5,100,93,6.6,100,93,7.5,100,13.2,0,5.7
Surprise Elementary School,n/a,12907 W GREENWAY RD,EL MIRAGE,MARICOPA,85335,y,lpn,101,99,1,100,94,0,94,93,1,94,99,1,100,99,1,100,100,0,100,100,0,100,2,1,0
Sweetwater Community School,n/a,4215 E ANDORA DR,PHOENIX,MARICOPA,85032,y,rn,< 20,na,na,na,na,na,na,na,na,na,na,na,na,na,na,na,na,na,na,na,na,na,na,na,na
Sweetwater School,n/a,4602 W SWEETWATER AVE,GLENDALE,MARICOPA,85304,y,rn,60,100,0,100,100,0,100,100,0,100,100,0,100,100,0,100,100,0,100,100,0,100,0,0,0
System Phoenix,n/a,1301 E ALMERIA RD,PHOENIX,MARICOPA,85006,n,,21,100,0,100,91,0,95,91,0,95,100,0,100,100,0,100,100,0,100,100,0,100,0,0,0
T Dale Hancock Elementary,n/a,2425 S PLEASANT DR,CHANDLER,MARICOPA,85286,n,,122,99,.8,100,93,4.1,100,93,4.9,100,99,.8,100,98,1.6,100,96,4.1,100,99,.8,100,8.2,0,.8
T.g. Barr,n/a,2041 E VINEYARD RD,PHOENIX,MARICOPA,85042,n,,57,97,3.5,100,97,3.5,100,97,3.5,100,97,3.5,100,97,3.5,100,97,3.5,100,97,3.5,100,3.5,0,0
Taft Elementary School,n/a,9800 E QUARTERLINE RD,MESA,MARICOPA,85207,y,rn,85,97,0,97,97,3.5,100,97,3.5,100,97,3.5,100,97,3.5,100,98,0,98,100,0,100,3.5,0,1.2
Tanque Verde Elementary School,n/a,2600 N FENNIMORE AVE,TUCSON,PIMA,85749,y,rn,105,100,0,100,97,1.9,100,96,2.9,100,97,2.9,100,99,1,100,98,1.9,100,100,0,100,5.7,0,0
Tartesso Elementary School,n/a,29677 W INDIANOLA AVE,BUCKEYE,MARICOPA,85396,y,,36,100,0,100,97,0,100,97,0,100,100,0,100,100,0,100,100,0,100,100,0,100,0,0,0
Taylor Intermediate School,n/a,207 500 ST W,TAYLOR,NAVAJO,85939,y,rn,71,97,2.8,100,99,1.4,100,92,8.5,100,94,5.6,100,96,4.2,100,97,2.8,100,97,2.8,100,8.5,0,0
Teleos Preparatory Academy,n/a,1401 E JEFFERSON ST,PHOENIX,MARICOPA,85034,n,,27,93,0,93,96,0,100,59,0,63,93,0,93,82,0,82,82,0,82,89,0,89,0,0,0
Telesis Preparatory,n/a,2598 STARLITE LN,LAKE HAVASU CITY,MOHAVE,86403,n,,38,97,0,97,97,0,100,66,0,68,100,0,100,100,0,100,97,0,97,100,0,100,0,0,0
Tempe Academy Of International Studies Mckemy Campus,n/a,2250 S COLLEGE AVE,TEMPE,MARICOPA,85282,n,,115,97,3.5,100,93,5.2,98,89,5.2,98,96,4.3,100,96,4.3,100,97,3.5,100,97,2.6,100,5.2,0,5.2
Tempe Preparatory Academy,n/a,1251 E SOUTHERN AVE,TEMPE,MARICOPA,85282,n,,69,96,2.9,99,81,2.9,88,81,2.9,88,93,2.9,96,91,2.9,94,93,2.9,96,96,2.9,99,2.9,0,2.9
Terramar Elementary,n/a,7000 W HAPPY VALLEY RD,PEORIA,MARICOPA,85383,y,rn,110,100,0,100,97,1.8,100,97,1.8,100,99,.9,100,100,0,100,100,0,100,100,0,100,1.8,.9,.9
Tesseract School,n/a,4800 E DOUBLETREE RANCH RD,PARADISE VALLEY,MARICOPA,85253,y,rn,< 20,na,na,na,na,na,na,na,na,na,na,na,na,na,na,na,na,na,na,na,na,na,na,na,na
Thatcher Elementary School,n/a,1350 N 4TH AVE,THATCHER,GRAHAM,85552,y,rn,142,99,1.4,100,87,11.3,99,83,15.5,99,97,2.8,99,97,2.8,99,98,2.1,100,100,0,100,14.1,.7,1.4
The Aces,n/a,6815 W CACTUS RD,PEORIA,MARICOPA,85381,n,,< 20,na,na,na,na,na,na,na,na,na,na,na,na,na,na,na,na,na,na,na,na,na,na,na,na
The Berean Academy,n/a,4699 E HIGHWAY 90,SIERRA VISTA,COCHISE,85635,n,,34,91,8.8,100,0,91.2,100,21,14.7,35,91,0,91,88,8.8,97,91,8.8,100,85,0,85,0,0,47.1
The Center For Academic Success #4,n/a,1415 F AVE,DOUGLAS,COCHISE,85607,n,,60,100,0,100,85,0,88,78,0,82,90,0,90,90,0,90,97,0,97,100,0,100,0,0,0
The Gregory School,n/a,3231 N CRAYCROFT RD,TUCSON,PIMA,85712,n,,37,100,0,100,97,0,100,95,2.7,100,100,0,100,100,0,100,100,0,100,100,0,100,0,2.7,0
The Jones Gordon School,n/a,16641 N 91ST ST STE 110,SCOTTSDALE,MARICOPA,85260,n,,< 20,na,na,na,na,na,na,na,na,na,na,na,na,na,na,na,na,na,na,na,na,na,na,na,na
The Peak School,n/a,2016 N 1ST ST,FLAGSTAFF,COCONINO,86004,n,,< 20,na,na,na,na,na,na,na,na,na,na,na,na,na,na,na,na,na,na,na,na,na,na,na,na
The Rising School,n/a,7444 E BROADWAY BLVD,TUCSON,PIMA,85710,n,,< 20,na,na,na,na,na,na,na,na,na,na,na,na,na,na,na,na,na,na,na,na,na,na,na,na
The Shelby School,n/a,249 W STANDAGE DR,PAYSON,GILA,85541,n,,< 20,na,na,na,na,na,na,na,na,na,na,na,na,na,na,na,na,na,na,na,na,na,na,na,na
Thomas A Edison School,n/a,804 N 18TH ST,PHOENIX,MARICOPA,85006,y,rn,69,97,0,97,97,0,97,97,0,97,99,0,99,100,0,100,100,0,100,100,0,100,0,0,0
Thompson Ranch Elementary,n/a,11800 W THOMPSON RANCH RD,EL MIRAGE,MARICOPA,85335,y,rn,111,98,.9,99,92,2.7,95,92,2.7,95,99,.9,100,99,.9,100,99,.9,100,99,.9,100,2.7,0,.9
Thornydale Elementary,n/a,7651 N OLDFATHER DR,TUCSON,PIMA,85741,n,,48,96,2.1,98,88,8.3,96,90,8.3,98,100,0,100,100,0,100,100,0,100,100,0,100,8.3,0,0
Thunderbird Christian Elementary,n/a,7440 E SUTTON DR,SCOTTSDALE,MARICOPA,85260,n,,< 20,na,na,na,na,na,na,na,na,na,na,na,na,na,na,na,na,na,na,na,na,na,na,na,na
Toltec Elementary School,n/a,3315 N TOLTEC RD,ELOY,PINAL,85131,n,,48,98,2.1,100,100,0,100,98,0,100,98,2.1,100,98,2.1,100,100,0,100,98,2.1,100,2.1,0,2.1
Tonalea K-8,n/a,6720 E CONTINENTAL DR,SCOTTSDALE,MARICOPA,85257,y,rn,192,99,1,100,97,2.6,100,97,2.6,100,100,0,100,100,.5,100,100,.5,100,100,0,100,3.1,2.6,0
Tonto Basin Elementary,n/a,PO BOX 337,TONTO BASIN,GILA,85553,y,rn,< 20,na,na,na,na,na,na,na,na,na,na,na,na,na,na,na,na,na,na,na,na,na,na,na,na
Topock Elementary School,n/a,5083 TULE DR,TOPOCK,MOHAVE,86436,n,,< 20,na,na,na,na,na,na,na,na,na,na,na,na,na,na,na,na,na,na,na,na,na,na,na,na
Town And Country Elementary School,n/a,1313 S LENZNER AVE,SIERRA VISTA,COCHISE,85635,y,rn,57,98,1.8,100,98,1.8,100,98,1.8,100,98,1.8,100,98,1.8,100,98,1.8,100,98,1.8,100,1.8,0,1.8
Towne Meadows Elementary School,n/a,1101 N RECKER RD,GILBERT,MARICOPA,85234,y,,111,95,5.4,100,89,8.1,98,89,8.1,98,95,5.4,100,95,5.4,100,100,0,100,95,5.4,100,5.4,0,5.4
Trailside Point Elementary,n/a,7272 W VINEYARD RD,LAVEEN,MARICOPA,85339,y,rn,127,96,3.1,99,93,3.1,98,93,3.1,98,96,3.1,99,96,3.1,99,97,3.1,100,97,3.1,100,3.1,0,3.1
Tres Rios Elementary,n/a,5025 S 103RD AVE,TOLLESON,MARICOPA,85353,n,,108,98,1.9,100,90,1.9,93,87,1.9,90,98,1.9,100,98,1.9,100,98,1.9,100,98,1.9,100,1.9,0,0
Tri-city Christian Academy,n/a,2211 W GERMANN RD,CHANDLER,MARICOPA,85286,n,,< 20,na,na,na,na,na,na,na,na,na,na,na,na,na,na,na,na,na,na,na,na,na,na,na,na
Triivum Preparatory,n/a,2001 N BULLARD AVE,GOODYEAR,MARICOPA,85395,y,rn,129,95,4.7,100,91,4.7,98,91,4.7,98,95,4.7,100,95,4.7,100,95,4.7,100,95,4.7,100,4.7,0,4.7
Trinity Christian School,n/a,1071 MOGOLLON RD,PRESCOTT,YAVAPAI,86301,n,,24,79,20.8,100,79,20.8,100,50,50,100,75,25,100,79,20.8,100,79,20.8,100,75,25,100,50,0,0
Trinity Christian School,n/a,2402 N USERY PASS RD,MESA,MARICOPA,85207,n,,< 20,na,na,na,na,na,na,na,na,na,na,na,na,na,na,na,na,na,na,na,na,na,na,na,na
Trinity Lutheran Elementary School,n/a,830 E PLAZA CIR,LITCHFIELD PARK,MARICOPA,85340,n,,< 20,na,na,na,na,na,na,na,na,na,na,na,na,na,na,na,na,na,na,na,na,na,na,na,na
Triumphant Learning Center,n/a,201 E MAIN ST,SAFFORD,GRAHAM,85546,n,,< 20,na,na,na,na,na,na,na,na,na,na,na,na,na,na,na,na,na,na,na,na,na,na,na,na
Tse Ho Tso Middle School,n/a,NAVAJO ROUTE HWY 12,FORT DEFIANCE,APACHE,86504,y,rn,158,100,0,100,93,0,94,93,0,94,100,0,100,100,0,100,100,0,100,100,0,100,0,0,0
Tsehootsooi Dine Bi Olta,n/a,NAVAJO ROUTE 12,FORT DEFIANCE,APACHE,86504,n,,< 20,na,na,na,na,na,na,na,na,na,na,na,na,na,na,na,na,na,na,na,na,na,na,na,na
Tuba City Jr. High School,n/a,404 S. MAIN STREET,TUBA CITY,COCONINO,86045,n,,103,97,0,97,44,0,87,33,0,77,98,0,98,99,0,99,98,0,98,98,0,98,0,1.9,0
Tucson Country Day School,n/a,9239 E WRIGHTSTOWN RD,TUCSON,PIMA,85715,n,,67,97,3,100,97,3,100,97,3,100,97,3,100,97,3,100,97,3,100,99,1.5,100,3,0,0
Tucson Hebrew Academy,n/a,3888 E RIVER RD,TUCSON,PIMA,85718,n,,< 20,na,na,na,na,na,na,na,na,na,na,na,na,na,na,na,na,na,na,na,na,na,na,na,na
Tucson International Academy,n/a,1230 E BROADWAY BLVD,TUCSON,PIMA,85719,n,,< 20,na,na,na,na,na,na,na,na,na,na,na,na,na,na,na,na,na,na,na,na,na,na,na,na
Tucson International Academy - East,n/a,450 N PANTANO RD,TUCSON,PIMA,85710,n,,< 20,na,na,na,na,na,na,na,na,na,na,na,na,na,na,na,na,na,na,na,na,na,na,na,na
Tucson International Academy - West,n/a,2700 W BROADWAY BLVD,TUCSON,PIMA,85745,n,,< 20,na,na,na,na,na,na,na,na,na,na,na,na,na,na,na,na,na,na,na,na,na,na,na,na
Tucson International Academy Midvale,n/a,1625 W VALENCIA RD STE 109,TUCSON,PIMA,85746,n,,24,88,0,88,100,0,100,21,0,21,92,0,92,75,0,75,92,0,92,100,0,100,0,0,0
Tucson Waldorf School,n/a,3605 E RIVER RD,TUCSON,PIMA,85718,n,,< 20,na,na,na,na,na,na,na,na,na,na,na,na,na,na,na,na,na,na,na,na,na,na,na,na
Tumbleweed Elementary,n/a,4001 W LAUREL LN,PHOENIX,MARICOPA,85029,n,,58,98,0,98,98,0,100,97,0,100,100,0,100,100,0,100,100,0,100,100,0,100,0,0,0
Twin Peaks Elementary School,n/a,7995 W TWIN PEAKS RD,TUCSON,PIMA,85743,n,,80,100,0,100,98,1.3,99,91,5,96,100,0,100,100,0,100,100,0,100,100,0,100,2.5,3.8,0
Upward For Children And Families,n/a,6306 N 7TH ST,PHOENIX,MARICOPA,85014,y,rn,< 20,na,na,na,na,na,na,na,na,na,na,na,na,na,na,na,na,na,na,na,na,na,na,na,na
Utterback Middle School,n/a,3233 S PINAL VIS,TUCSON,PIMA,85713,y,rn,135,99,.7,100,100,0,100,84,1.5,87,99,0,99,100,0,100,99,0,99,99,.7,100,.7,.7,.7
V H Lassen Elementary School,n/a,909 W VINEYARD RD,PHOENIX,MARICOPA,85041,y,,45,100,0,100,100,0,100,100,0,100,96,0,96,98,0,98,98,0,98,96,0,96,0,0,0
Vail Academy and High School,n/a,7762 E SCIENCE PARK DR,TUCSON,PIMA,85747,n,,50,98,2,100,96,4,100,96,4,100,96,2,98,96,4,100,96,4,100,98,2,100,4,2,0
Vail Blended Learning Program,n/a,7545 S HOUGHTON RD,TUCSON,PIMA,85747,n,,22,73,27.3,100,73,27.3,100,82,18.2,100,82,18.2,100,82,18.2,100,82,18.2,100,100,0,100,27.3,0,0
Vail Digital Learning Program,n/a,13801 E BENSON HWY,VAIL,PIMA,85641,n,,< 20,na,na,na,na,na,na,na,na,na,na,na,na,na,na,na,na,na,na,na,na,na,na,na,na
Val Vista Academy,n/a,4120 S VAL VISTA DR,GILBERT,MARICOPA,85297,n,,31,100,0,100,84,0,84,68,0,97,100,0,100,100,0,100,100,0,100,100,0,100,0,0,0
Val Vista Lakes Elementary School,n/a,1030 N BLUE GROTTO DR,GILBERT,MARICOPA,85234,y,rn,78,94,6.4,100,89,6.4,100,87,6.4,100,94,6.4,100,95,5.1,100,97,2.6,100,96,3.8,100,6.4,0,2.6
Valencia Middle School,n/a,4400 W IRVINGTON RD,TUCSON,PIMA,85746,y,rn,325,99,1.2,100,98,1.2,99,98,1.2,99,99,.9,100,99,0,99,98,1.2,99,99,1.2,100,.9,.3,.9
Valley Academy,n/a,1520 W ROSE GARDEN LN,PHOENIX,MARICOPA,85027,y,rn,72,96,4.2,100,92,6.9,100,92,6.9,100,96,4.2,100,96,4.2,100,94,5.6,100,96,4.2,100,8.3,0,4.2
Valley Horizon Elementary School,n/a,4501 W 20TH ST,YUMA,YUMA,85364,n,,90,98,2.2,100,99,1.1,100,99,1.1,100,99,1.1,100,99,1.1,100,98,1.1,99,99,1.1,100,1.1,0,1.1
Valley Of The Sun Waldorf Education Association Dba Desert Marigold School 6th Grade,n/a,6210 S 28TH ST,PHOENIX,MARICOPA,85042,n,,28,50,50,100,29,53.6,86,32,53.6,89,46,53.6,100,50,50,100,50,46.4,96,57,42.9,100,60.7,0,42.9
Valley View Elementary School,n/a,6849 EAST HIGHWAY 92,HEREFORD,COCHISE,85615,n,,23,100,0,100,100,0,100,100,0,100,100,0,100,100,0,100,100,0,100,100,0,100,0,0,0
Valley View School,n/a,8220 S 7TH AVE,PHOENIX,MARICOPA,85041,y,rn,74,99,1.4,100,99,1.4,100,99,1.4,100,99,1.4,100,99,1.4,100,99,1.4,100,99,1.4,100,1.4,0,0
Vector Prep And Arts Academy,n/a,2020 N ARIZONA AVE,CHANDLER,MARICOPA,85225,n,,36,97,2.8,100,89,2.8,92,89,2.8,92,97,2.8,100,97,2.8,100,97,2.8,100,97,2.8,100,2.8,0,2.8
Verde Valley Montessori,n/a,215 S MAIN ST,COTTONWOOD,YAVAPAI,86326,n,,< 20,na,na,na,na,na,na,na,na,na,na,na,na,na,na,na,na,na,na,na,na,na,na,na,na
Veritas Christian Community School,n/a,215 TAYLOR DR,SIERRA VISTA,COCHISE,85635,n,,< 20,na,na,na,na,na,na,na,na,na,na,na,na,na,na,na,na,na,na,na,na,na,na,na,na
Veritas Preparatory Academy,n/a,3102 N 56TH ST,PHOENIX,MARICOPA,85018,n,,124,82,18.5,100,61,39.5,100,66,33.9,100,75,25,100,76,24.2,100,75,25,100,76,24.2,100,14.5,25,6.5
Vernon Elementary School,n/a,90 COUNTY RD 3139,VERNON,APACHE,85940,n,,< 20,na,na,na,na,na,na,na,na,na,na,na,na,na,na,na,na,na,na,na,na,na,na,na,na
Verrado Heritage Elementary,n/a,20895 W HAMILTON ST,BUCKEYE,MARICOPA,85396,y,lpn,115,99,0,99,64,2.6,71,61,2.6,69,95,.9,96,95,.9,96,99,0,99,98,0,98,2.6,0,2.6
Verrado Middle School,n/a,20880 W MAIN ST,BUCKEYE,MARICOPA,85396,y,lpn,259,97,1.2,99,90,1.5,92,90,1.5,92,97,1.2,98,98,1.2,99,96,1.2,97,99,1.5,100,1.5,0,0
Villa De Paz Elementary School,n/a,4940 N 103RD AVE,PHOENIX,MARICOPA,85037,n,,82,99,0,99,98,2.4,100,96,2.4,100,98,2.4,100,98,2.4,100,99,1.2,100,99,1.2,100,2.4,1.2,0
Villa Montessori - Meadowbrook Campus,n/a,2802 E MEADOWBROOK AVE,PHOENIX,MARICOPA,85016,n,,58,93,1.7,95,98,1.7,100,67,3.4,71,91,3.4,95,88,1.7,90,93,1.7,95,100,0,100,3.4,1.7,0
Village Meadows Elementary,n/a,2020 W MORNINGSIDE DR,PHOENIX,MARICOPA,85023,y,rn,53,93,1.9,94,98,1.9,100,98,1.9,100,98,1.9,100,98,1.9,100,98,1.9,100,98,1.9,100,1.9,0,0
Village Meadows Elementary School,n/a,905 EL CAMINO REAL,SIERRA VISTA,COCHISE,85635,y,rn,62,95,3.2,98,95,3.2,100,95,3.2,100,97,3.2,100,97,3.2,100,97,3.2,100,100,0,100,1.6,1.6,0
Villago Middle School,n/a,574 E LAKESIDE PKWY,CASA GRANDE,PINAL,85222,y,rn,277,97,2.2,99,95,2.9,99,95,3.2,99,96,2.5,99,96,2.9,99,96,2.2,99,98,0,98,4,.4,0
Vista Del Sur Traditional School,n/a,3908 W SOUTH MOUNTAIN RD,LAVEEN,MARICOPA,85339,y,rn,86,97,3.5,100,95,3.5,100,95,3.5,100,97,3.5,100,97,3.5,100,97,3.5,100,97,3.5,100,3.5,0,3.5
Vista Grove Preparatory Academy - Elementary,n/a,31555 N CACTUS DR,SAN TAN VALLEY,PINAL,85143,n,,49,92,0,92,84,0,84,84,0,84,92,0,92,86,0,86,84,0,84,94,0,94,6.1,0,0
Vista Peak,n/a,19825 N 15TH AVE,PHOENIX,MARICOPA,85027,y,rn,< 20,na,na,na,na,na,na,na,na,na,na,na,na,na,na,na,na,na,na,na,na,na,na,na,na
Vistancia Elementary School,n/a,300009 N SUNSET POINT,PEORIA,MARICOPA,85383,y,rn,114,100,0,100,87,13.2,100,87,13.2,100,99,.9,100,99,.9,100,98,1.8,100,99,.9,100,13.2,0,0
Vulture Peak Middle School,n/a,920 S VULTURE MINE RD,WICKENBURG,MARICOPA,85390,n,,84,93,3.6,96,100,0,100,58,1.2,60,94,4.8,99,94,4.8,99,94,4.8,99,82,4.8,87,4.8,0,4.8
W.e.s.d.#6 - Acacia School,n/a,3021 W EVANS DR,PHOENIX,MARICOPA,85053,n,,114,95,2.6,97,96,2.6,99,96,2.6,98,97,2.6,100,97,2.6,100,100,0,100,100,0,100,2.6,0,2.6
Wade Carpenter Middle School,n/a,595 W KINO ST,NOGALES,SANTA CRUZ,85621,y,rn,204,100,0,100,100,.5,100,100,.5,100,100,0,100,100,0,100,100,0,100,100,0,100,0,1,0
Walker Butte K-8,n/a,29697 N DESERT WILLOW BLVD,SAN TAN VALLEY,PINAL,85143,n,,118,92,8.5,100,82,11.9,99,81,12.7,99,92,7.6,100,91,9.3,100,94,5.9,100,92,7.6,100,11.9,.8,0
Wallace Jr. High School,n/a,1320 W 18TH ST,PARKER,LA PAZ,85344,n,,116,99,.9,100,91,3.4,98,91,3.4,98,97,3.4,100,99,.9,100,98,1.7,100,97,2.6,100,3.4,0,0
Walter Douglas Elementary School,n/a,3302 N FLOWING WELLS RD,TUCSON,PIMA,85705,n,,83,100,0,100,99,0,100,99,0,100,100,0,100,100,0,100,100,0,100,99,0,99,0,0,0
Walter J Meyer School,n/a,411 N 9TH ST,TOMBSTONE,COCHISE,85638,y,lpn,< 20,na,na,na,na,na,na,na,na,na,na,na,na,na,na,na,na,na,na,na,na,na,na,na,na
Ward Traditional Academy,n/a,1965 E HERMOSA DR,TEMPE,MARICOPA,85282,y,rn,45,98,2.2,100,89,2.2,100,89,2.2,100,98,2.2,100,98,2.2,100,96,2.2,98,98,2.2,100,2.2,0,2.2
Washington Elementary School,n/a,2260 W ISABELLA AVE,MESA,MARICOPA,85202,y,rn,79,99,1.3,100,91,3.8,99,91,3.8,99,99,0,99,99,0,99,99,0,99,100,0,100,3.8,1.3,0
Washington Elementary School,n/a,8033 N 27TH AVE,PHOENIX,MARICOPA,85051,y,lpn,125,98,0,98,98,1.6,100,98,1.6,100,100,0,100,100,0,100,100,0,100,100,0,100,1.6,0,0
Washington School,n/a,300 W OAK ST,WINSLOW,NAVAJO,86047,n,,154,98,0,98,97,2.6,99,97,2.6,99,100,0,100,100,0,100,100,0,100,100,0,100,3.2,0,0
Webster Elementary School,n/a,202 N SYCAMORE,MESA,MARICOPA,85201,y,rn,83,99,1.2,100,99,1.2,100,98,2.4,100,99,1.2,100,99,1.2,100,99,1.2,100,99,1.2,100,3.6,0,1.2
Weinberg Elementary School,n/a,5245 S VAL VISTA DR,GILBERT,MARICOPA,85298,n,,126,97,3.2,100,91,7.9,100,91,7.9,100,97,3.2,100,97,3.2,100,98,2.4,100,96,4,100,9.5,0,2.4
Wellton Elementary School,n/a,29126 E SAN JOSE AVE,WELLTON,YUMA,85356,n,,24,42,0,42,17,0,21,0,0,4,33,0,33,33,0,33,38,0,38,38,0,38,0,0,0
Wenden Elementary School,n/a,71001 SANTA FE AVE,WENDEN,LA PAZ,85357,n,,< 20,na,na,na,na,na,na,na,na,na,na,na,na,na,na,na,na,na,na,na,na,na,na,na,na
West Elementary School,n/a,460 S 7TH ST,COOLIDGE,PINAL,85228,y,rn,104,99,1,100,99,1,100,99,1,100,99,1,100,99,1,100,99,1,100,99,1,100,1,0,1
West Point Elementary,n/a,13700 W GREENWAY RD,SURPRISE,MARICOPA,85374,y,lpn,90,100,0,100,93,2.2,96,94,2.2,98,100,0,100,100,0,100,99,0,99,100,0,100,2.2,0,0
West Sedona Elementary School,n/a,570 POSSE GROUND RD,SEDONA,YAVAPAI,86336,n,,34,97,2.9,100,77,5.9,82,77,5.9,82,94,5.9,100,94,5.9,100,94,2.9,97,94,2.9,97,5.9,0,2.9
West Valley Christian School,n/a,16260 W VAN BUREN ST,GOODYEAR,MARICOPA,85338,n,,< 20,na,na,na,na,na,na,na,na,na,na,na,na,na,na,na,na,na,na,na,na,na,na,na,na
West Wing Elementary,n/a,26716 N HIGH DESERT DR,PEORIA,MARICOPA,85383,y,rn,126,95,4.8,100,91,7.1,98,91,7.1,98,95,4.8,100,96,4,100,94,5.6,100,96,4,100,7.1,0,5.6
Westar Elementary School,n/a,17777 W WESTAR DR,GOODYEAR,MARICOPA,85338,n,,89,94,5.6,100,93,4.5,100,93,5.6,100,94,5.6,100,93,6.7,100,92,7.9,100,96,4.5,100,11.2,1.1,0
Western Peaks Elementary School,n/a,18063 N. SURPRISE FARMS LOOP SOUTH,SURPRISE,MARICOPA,85335,y,rn,106,93,3.8,97,74,5.7,79,76,5.7,82,93,3.8,97,93,3.8,97,96,2.8,99,97,0,97,5.7,0,5.7
Western Sky Middle School,n/a,4095 N 144TH AVE,GOODYEAR,MARICOPA,85395,y,lpn,346,93,3.2,96,75,3.2,79,74,3.2,79,93,3.2,97,93,3.5,96,93,3.5,97,96,3.5,99,3.8,0,0
Westland School,n/a,4141 N 67TH AVE,PHOENIX,MARICOPA,85033,n,,< 20,na,na,na,na,na,na,na,na,na,na,na,na,na,na,na,na,na,na,na,na,na,na,na,na
Westland School Brighton Campus,n/a,8632 W NORTHERN AVE,GLENDALE,MARICOPA,85305,n,,21,100,0,100,86,0,86,86,0,86,95,0,95,100,0,100,100,0,100,100,0,100,0,0,0
Westpark Elementary School,n/a,2700 S 257TH DR,BUCKEYE,MARICOPA,85326,n,,96,97,0,97,95,3.1,100,90,5.2,97,98,0,98,97,0,97,98,2.1,100,100,0,100,5.2,0,0
Westwind Elementary School,n/a,9040 W CAMPBELL AVE,PHOENIX,MARICOPA,85037,n,,145,99,1.4,100,97,1.4,100,98,1.4,100,100,0,100,100,0,100,100,0,100,100,0,100,1.4,0,0
Whispering Wind Academy,n/a,15844 N 43RD ST,PHOENIX,MARICOPA,85032,y,rn,96,94,6.3,100,92,8.3,100,91,9.4,100,96,4.2,100,96,4.2,100,96,4.2,100,96,4.2,100,9.4,0,4.2
White Cliffs Middle School,n/a,3550 PROSPECTOR ST,KINGMAN,MOHAVE,86401,n,,268,100,0,100,95,1.5,97,94,2.6,97,100,.4,100,100,0,100,100,.4,100,100,.4,100,3,0,.4
Whitman Elementary,n/a,1829 N GRAND,MESA,MARICOPA,85201,y,rn,82,99,0,99,65,0,68,62,0,62,98,0,98,99,0,99,98,0,98,99,0,99,3.7,0,0
Whittier Elementary School,n/a,733 N LONGMORE,MESA,MARICOPA,85201,y,rn,60,100,0,100,100,0,100,100,0,100,100,0,100,98,1.7,100,100,0,100,100,0,100,1.7,0,0
Wickenburg Christian Academy,n/a,260 W YAVAPAI ST,WICKENBURG,MARICOPA,85390,n,,< 20,na,na,na,na,na,na,na,na,na,na,na,na,na,na,na,na,na,na,na,na,na,na,na,na
Wigwam Creek Middle School,n/a,4510 N 127TH AVE,LITCHFIELD PARK,MARICOPA,85340,y,lpn,332,99,1.2,100,90,5.4,99,90,5.4,99,99,1.5,100,98,2.1,100,99,1.5,100,99,1.5,100,6.6,0,1.2
Wildfire Elementary,n/a,3997 E LOCKWOOD DR,PHOENIX,MARICOPA,85050,y,rn,105,92,6.7,99,84,6.7,91,82,6.7,89,93,6.7,100,93,6.7,100,91,6.7,98,96,3.8,100,6.7,0,0
Wildflower School,n/a,325 S WILDFLOWER DR,GOODYEAR,MARICOPA,85338,y,rn,62,97,3.2,100,94,4.8,100,94,4.8,100,97,3.2,100,97,3.2,100,100,0,100,100,0,100,4.8,0,0
Willcox Middle School,n/a,360 N BISBEE AVE,WILLCOX,COCHISE,85643,y,rn,96,96,1,97,95,1,98,95,1,98,100,0,100,100,0,100,100,0,100,100,0,100,1,0,1
William T Machan Elementary School,n/a,2140 E VIRGINIA AVE,PHOENIX,MARICOPA,85006,y,rn,47,100,0,100,100,0,100,100,0,100,100,0,100,100,0,100,100,0,100,100,0,100,0,0,0
Williams Elementary/middle School,n/a,601 N 7TH ST,WILLIAMS,COCONINO,86046,n,,49,92,8.2,100,90,10.2,100,88,10.2,98,92,8.2,100,94,6.1,100,96,4.1,100,98,2,100,12.2,0,0
Willow Creek Charter School,n/a,2100 WILLOW CREEK RD,PRESCOTT,YAVAPAI,86301,n,,< 20,na,na,na,na,na,na,na,na,na,na,na,na,na,na,na,na,na,na,na,na,na,na,na,na
Wilson Elementary School,n/a,2929 E FILLMORE ST,PHOENIX,MARICOPA,85008,y,lpn,135,100,0,100,99,1.5,100,99,1.5,100,100,0,100,100,0,100,100,0,100,100,0,100,.7,.7,0
Winefred Harelson Elementary,n/a,826 W CHAPALA DR,TUCSON,PIMA,85704,n,,57,98,1.8,100,98,1.8,100,95,5.3,100,98,1.8,100,98,1.8,100,98,1.8,100,98,1.8,100,1.8,3.5,0
Woodard Junior High,n/a,2250 S 8TH AVE,YUMA,YUMA,85364,n,,216,100,0,100,96,.5,97,96,.5,97,100,0,100,99,0,99,100,0,100,100,0,100,.5,0,0
Young Public School,n/a,HWY 288 BAKER RANCH RD,YOUNG,GILA,85554,n,,< 20,na,na,na,na,na,na,na,na,na,na,na,na,na,na,na,na,na,na,na,na,na,na,na,na
Young Scholar's Academy Charter School,n/a,1501 E VALENCIA RD,FORT MOHAVE,MOHAVE,86426,n,,39,97,2.6,100,90,2.6,92,87,2.6,90,97,2.6,100,97,2.6,100,97,2.6,100,97,2.6,100,2.6,0,2.6
Yucca Elementary School,n/a,12261 3RD ST,YUCCA,MOHAVE,86438,n,,< 20,,,,,,,,,,,,,,,,,,,,,,,,
Yuma Lutheran School,n/a,2555 S ENGLER AVE,YUMA,YUMA,85365,y,rn,35,100,0,100,100,0,100,100,0,100,100,0,100,100,0,100,100,0,100,100,0,100,0,0,0
Zuni Hills Elementary School,n/a,10851 W WILLIAMS RD,SUN CITY,MARICOPA,85373,y,rn,113,97,3.5,100,98,0,98,95,3.5,99,97,3.5,100,97,3.5,100,97,3.5,100,97,3.5,100,3.5,.9,1.8
